Store Address,ID,Description,Location,Street No.,Street Name,city,state,zip,Location,,,,,,,,,,
"14823 Pomerado Rd, Poway, CA 92064",1,COMMERCIAL ROBBERY - WEAPON USED,14700  POMERADO ROAD,14700, POMERADO ROAD  ,Poway,CA,92064,14700  POMERADO ROAD,,,POMERADO,ROAD,,,,,,
,1,SHOPLIFTING,14800  POMERADO ROAD,14800, POMERADO ROAD  ,Poway,CA,92064,14800  POMERADO ROAD,,,POMERADO,ROAD,,,,,,
,1,VEHICLE BREAK-IN/THEFT,14600  CARMEL RIDGE ROAD,14600, CARMEL RIDGE ROAD ,Poway,CA,92064,14600  CARMEL RIDGE ROAD,,,CARMEL,RIDGE,ROAD,,,,,
,1,PETTY THEFT(SHOPLIFT),14800  POMERADO ROAD,14800, POMERADO ROAD  ,Poway,CA,92064,14800  POMERADO ROAD,,,POMERADO,ROAD,,,,,,
,1,PETTY THEFT(SHOPLIFT),14800  POMERADO ROAD,14800, POMERADO ROAD  ,Poway,CA,92064,14800  POMERADO ROAD,,,POMERADO,ROAD,,,,,,
,1,ELDER ABUSE/NEGLECT,14700  POMERADO ROAD,14700, POMERADO ROAD  ,Poway,CA,92064,14700  POMERADO ROAD,,,POMERADO,ROAD,,,,,,
,1,PETTY THEFT(SHOPLIFT),14800  POMERADO ROAD,14800, POMERADO ROAD  ,Poway,CA,92064,14800  POMERADO ROAD,,,POMERADO,ROAD,,,,,,
,1,COMMERCIAL BURGLARY,14500  POMERADO ROAD,14500, POMERADO ROAD  ,Poway,CA,92064,14500  POMERADO ROAD,,,POMERADO,ROAD,,,,,,
,1,SHOPLIFTING,14800  POMERADO ROAD,14800, POMERADO ROAD  ,Poway,CA,92064,14800  POMERADO ROAD,,,POMERADO,ROAD,,,,,,
,1,PETTY THEFT(ALL OTHER LARCENY),12700  KAITZ STREET,12700, KAITZ STREET  ,Poway,CA,92064,12700  KAITZ STREET,,,KAITZ,STREET,,,,,,
,1,FRAUD,14800  SUMMERBREEZE WAY,14800, SUMMERBREEZE WAY  ,Poway,CA,92064,14800  SUMMERBREEZE WAY,,,SUMMERBREEZE,WAY,,,,,,
,1,DISORD CONDUCT:ALC,14800  POMERADO ROAD,14800, POMERADO ROAD  ,Poway,CA,92064,14800  POMERADO ROAD,,,POMERADO,ROAD,,,,,,
,1,SHOPLIFTING,14800  POMERADO ROAD,14800, POMERADO ROAD  ,Poway,CA,92064,14800  POMERADO ROAD,,,POMERADO,ROAD,,,,,,
,1,POSSESS CONTROLLED SUBSTANCE (M),14800  POMERADO ROAD,14800, POMERADO ROAD  ,Poway,CA,92064,14800  POMERADO ROAD,,,POMERADO,ROAD,,,,,,
,1,RESIDENTIAL BURGLARY,14700  SHADOWBROOK COURT,14700, SHADOWBROOK COURT  ,Poway,CA,92064,14700  SHADOWBROOK COURT,,,SHADOWBROOK,COURT,,,,,,
,1,TAKE VEHICLE W/O OWNER'S CONSENT/VEHICLE THEFT (F),14800  SUMMERBREEZE WAY,14800, SUMMERBREEZE WAY  ,Poway,CA,92064,14800  SUMMERBREEZE WAY,,,SUMMERBREEZE,WAY,,,,,,
,1,SHOPLIFTING (M),14800  POMERADO ROAD,14800, POMERADO ROAD  ,Poway,CA,92064,14800  POMERADO ROAD,,,POMERADO,ROAD,,,,,,
,1,DUI ALCOHOL (M),POMERADO ROAD & TWIN PEAKS ROAD,,ROAD & TWIN PEAKS ROAD,Poway,CA,92064,POMERADO ROAD & TWIN PEAKS ROAD,,ROAD,&,TWIN,PEAKS,ROAD,,,,
,1,DUI ALCOHOL (M),14900  POMERADO ROAD,14900, POMERADO ROAD  ,Poway,CA,92064,14900  POMERADO ROAD,,,POMERADO,ROAD,,,,,,
,1,POSS CONTROLLED SUBS PARAPHERNALIA (M),14800  POMERADO ROAD,14800, POMERADO ROAD  ,Poway,CA,92064,14800  POMERADO ROAD,,,POMERADO,ROAD,,,,,,
,1,PETTY THEFT(Shoplift) (M),14800  POMERADO ROAD,14800, POMERADO ROAD  ,Poway,CA,92064,14800  POMERADO ROAD,,,POMERADO,ROAD,,,,,,
,1,PETTY THEFT(Shoplift) (M),14800  POMERADO ROAD,14800, POMERADO ROAD  ,Poway,CA,92064,14800  POMERADO ROAD,,,POMERADO,ROAD,,,,,,
"17170 Camino Del Sur, San Diego, CA 92127",2,SIMPLE BATTERY (M),16600  NIGHTHAWK LANE,16600, NIGHTHAWK LANE  ,San Diego,CA,92127,16600  NIGHTHAWK LANE,,,NIGHTHAWK,LANE,,,,,,
,2,VANDALISM ($400 OR MORE) (F),16000  BABCOCK STREET,16000, BABCOCK STREET  ,San Diego,CA,92127,16000  BABCOCK STREET,,,BABCOCK,STREET,,,,,,
,2,FRAUD,16000  BABCOCK STREET,16000, BABCOCK STREET  ,San Diego,CA,92127,16000  BABCOCK STREET,,,BABCOCK,STREET,,,,,,
,2,VANDALISM ($400 OR MORE) (F),16300  PASEO DEL SUR,16300, PASEO DEL SUR ,San Diego,CA,92127,16300  PASEO DEL SUR,,,PASEO,DEL,SUR,,,,,
,2,GRAND THEFT (Shoplifting) (F),17100  CAMINO DEL SUR,17100, CAMINO DEL SUR ,San Diego,CA,92127,17100  CAMINO DEL SUR,,,CAMINO,DEL,SUR,,,,,
,2,RESIDENTIAL BURGLARY,15900  ATKINS PLACE,15900, ATKINS PLACE  ,San Diego,CA,92127,15900  ATKINS PLACE,,,ATKINS,PLACE,,,,,,
,2,RESIDENTIAL BURGLARY,15800  ATKINS PLACE,15800, ATKINS PLACE  ,San Diego,CA,92127,15800  ATKINS PLACE,,,ATKINS,PLACE,,,,,,
,2,PETTY THEFT(Shoplift) (M),17100  CAMINO DEL SUR,17100, CAMINO DEL SUR ,San Diego,CA,92127,17100  CAMINO DEL SUR,,,CAMINO,DEL,SUR,,,,,
,2,COMMERCIAL BURGLARY,16400  PASEO DEL SUR,16400, PASEO DEL SUR ,San Diego,CA,92127,16400  PASEO DEL SUR,,,PASEO,DEL,SUR,,,,,
,2,COMMERCIAL BURGLARY,16400  PASEO DEL SUR,16400, PASEO DEL SUR ,San Diego,CA,92127,16400  PASEO DEL SUR,,,PASEO,DEL,SUR,,,,,
,2,PETTY THEFT(Shoplift) (M),17100  CAMINO DEL SUR,17100, CAMINO DEL SUR ,San Diego,CA,92127,17100  CAMINO DEL SUR,,,CAMINO,DEL,SUR,,,,,
,2,PETTY THEFT(Shoplift) (M),17100  CAMINO DEL SUR,17100, CAMINO DEL SUR ,San Diego,CA,92127,17100  CAMINO DEL SUR,,,CAMINO,DEL,SUR,,,,,
,2,PETTY THEFT(Shoplift) (M),17100  CAMINO DEL SUR,17100, CAMINO DEL SUR ,San Diego,CA,92127,17100  CAMINO DEL SUR,,,CAMINO,DEL,SUR,,,,,
,2,VANDALISM ($400 OR MORE) (F),16300  PASEO DEL SUR,16300, PASEO DEL SUR ,San Diego,CA,92127,16300  PASEO DEL SUR,,,PASEO,DEL,SUR,,,,,
,2,PETTY THEFT(All Other Larceny) (M),17100  CAMINO DEL SUR,17100, CAMINO DEL SUR ,San Diego,CA,92127,17100  CAMINO DEL SUR,,,CAMINO,DEL,SUR,,,,,
,2,COMMERCIAL BURGLARY,17000  DEL SUR RIDGE ROAD,17000, DEL SUR RIDGE ROAD,San Diego,CA,92127,17000  DEL SUR RIDGE ROAD,,,DEL,SUR,RIDGE,ROAD,,,,
,2,GRAND THEFT:MONEY/LABOR/PROPERTY (F),17100  CAMINO DEL SUR,17100, CAMINO DEL SUR ,San Diego,CA,92127,17100  CAMINO DEL SUR,,,CAMINO,DEL,SUR,,,,,
,2,SIMPLE BATTERY (M),16600  NIGHTHAWK LANE,16600, NIGHTHAWK LANE  ,San Diego,CA,92127,16600  NIGHTHAWK LANE,,,NIGHTHAWK,LANE,,,,,,
,2,PETTY THEFT(Shoplift) (M),17100  CAMINO DEL SUR,17100, CAMINO DEL SUR ,San Diego,CA,92127,17100  CAMINO DEL SUR,,,CAMINO,DEL,SUR,,,,,
,2,SHOPLIFTING (M),17100  CAMINO DEL SUR,17100, CAMINO DEL SUR ,San Diego,CA,92127,17100  CAMINO DEL SUR,,,CAMINO,DEL,SUR,,,,,
,2,BATTERY ON PERSON (M),15800  CAMINO SAN BERNARDO,15800, CAMINO SAN BERNARDO ,San Diego,CA,92127,15800  CAMINO SAN BERNARDO,,,CAMINO,SAN,BERNARDO,,,,,
,2,GRAND THEFT:MONEY/LABOR/PROPERTY (F),17100  CAMINO DEL SUR,17100, CAMINO DEL SUR ,San Diego,CA,92127,17100  CAMINO DEL SUR,,,CAMINO,DEL,SUR,,,,,
,2,GRAND THEFT:AUTO,17100  CAMINO DEL SUR,17100, CAMINO DEL SUR ,San Diego,CA,92127,17100  CAMINO DEL SUR,,,CAMINO,DEL,SUR,,,,,
,2,VEHICLE BREAK-IN/THEFT,17100  CAMINO DEL SUR,17100, CAMINO DEL SUR ,San Diego,CA,92127,17100  CAMINO DEL SUR,,,CAMINO,DEL,SUR,,,,,
,2,VEHICLE BREAK-IN/THEFT,15900  PARKVIEW LOOP,15900, PARKVIEW LOOP  ,San Diego,CA,92127,15900  PARKVIEW LOOP,,,PARKVIEW,LOOP,,,,,,
,2,SPOUSAL/COHABITANT ABUSE WITH MINOR INJURY (F),10300  RESERVE DRIVE,10300, RESERVE DRIVE  ,San Diego,CA,92127,10300  RESERVE DRIVE,,,RESERVE,DRIVE,,,,,,
,2,GRAND THEFT:MONEY/LABOR/PROPERTY (F),16600  NIGHTHAWK LANE,16600, NIGHTHAWK LANE  ,San Diego,CA,92127,16600  NIGHTHAWK LANE,,,NIGHTHAWK,LANE,,,,,,
,2,PETTY THEFT(All Other Larceny) (M),16000  BABCOCK STREET,16000, BABCOCK STREET  ,San Diego,CA,92127,16000  BABCOCK STREET,,,BABCOCK,STREET,,,,,,
,2,FRAUD,15700  TANNER RIDGE ROAD,15700, TANNER RIDGE ROAD ,San Diego,CA,92127,15700  TANNER RIDGE ROAD,,,TANNER,RIDGE,ROAD,,,,,
,2,COMMERCIAL BURGLARY,16400  PASEO DEL SUR,16400, PASEO DEL SUR ,San Diego,CA,92127,16400  PASEO DEL SUR,,,PASEO,DEL,SUR,,,,,
,2,PETTY THEFT(All Other Larceny) (M),17100  CAMINO DEL SUR,17100, CAMINO DEL SUR ,San Diego,CA,92127,17100  CAMINO DEL SUR,,,CAMINO,DEL,SUR,,,,,
"280 E Via Rancho Pkwy, Escondido, CA 92025",3,GRAND THEFT:MONEY/LABOR/PROPERTY (F),200  VIA RANCHO PARKWAY,200, VIA RANCHO PARKWAY ,Escondido,CA,92025,200  VIA RANCHO PARKWAY,,,VIA,RANCHO,PARKWAY,,,,,
,3,PETTY THEFT(Shoplift) (M),200 E  VIA RANCHO PARKWAY,200,E  VIA RANCHO PARKWAY,Escondido,CA,92025,200 E  VIA RANCHO PARKWAY,,E,,VIA,RANCHO,PARKWAY,,,,
,3,DISORD CONDUCT:ALC (M),200 E  VIA RANCHO PARKWAY,200,E  VIA RANCHO PARKWAY,Escondido,CA,92025,200 E  VIA RANCHO PARKWAY,,E,,VIA,RANCHO,PARKWAY,,,,
,3,PETTY THEFT(Shoplift) (M),200 E  VIA RANCHO PARKWAY,200,E  VIA RANCHO PARKWAY,Escondido,CA,92025,200 E  VIA RANCHO PARKWAY,,E,,VIA,RANCHO,PARKWAY,,,,
,3,POSS CONTROLLED SUBS FOR SALE,3600  SUNSET DRIVE,3600, SUNSET DRIVE  ,Escondido,CA,92025,3600  SUNSET DRIVE,,,SUNSET,DRIVE,,,,,,
,3,POSSESS CONTROLLED SUBSTANCE,3600  SUNSET DRIVE,3600, SUNSET DRIVE  ,Escondido,CA,92025,3600  SUNSET DRIVE,,,SUNSET,DRIVE,,,,,,
,3,GRAND THEFT (Shoplifting) (F),200 E  VIA RANCHO PARKWAY,200,E  VIA RANCHO PARKWAY,Escondido,CA,92025,200 E  VIA RANCHO PARKWAY,,E,,VIA,RANCHO,PARKWAY,,,,
,3,SHOPLIFTING (M),200 E  VIA RANCHO PARKWAY,200,E  VIA RANCHO PARKWAY,Escondido,CA,92025,200 E  VIA RANCHO PARKWAY,,E,,VIA,RANCHO,PARKWAY,,,,
,3,PETTY THEFT(Shoplift) (M),200 E  VIA RANCHO PARKWAY,200,E  VIA RANCHO PARKWAY,Escondido,CA,92025,200 E  VIA RANCHO PARKWAY,,E,,VIA,RANCHO,PARKWAY,,,,
,3,VANDALISM ($400 OR MORE) (F),200 E  VIA RANCHO PARKWAY,200,E  VIA RANCHO PARKWAY,Escondido,CA,92025,200 E  VIA RANCHO PARKWAY,,E,,VIA,RANCHO,PARKWAY,,,,
,3,PETTY THEFT(Shoplift) (M),200 E  VIA RANCHO PARKWAY,200,E  VIA RANCHO PARKWAY,Escondido,CA,92025,200 E  VIA RANCHO PARKWAY,,E,,VIA,RANCHO,PARKWAY,,,,
,3,SHOPLIFTING (M),200 E  VIA RANCHO PARKWAY,200,E  VIA RANCHO PARKWAY,Escondido,CA,92025,200 E  VIA RANCHO PARKWAY,,E,,VIA,RANCHO,PARKWAY,,,,
,3,PETTY THEFT(Shoplift) (M),200 E  VIA RANCHO PARKWAY,200,E  VIA RANCHO PARKWAY,Escondido,CA,92025,200 E  VIA RANCHO PARKWAY,,E,,VIA,RANCHO,PARKWAY,,,,
,3,PETTY THEFT(All Other Larceny) (M),200 E  VIA RANCHO PARKWAY,200,E  VIA RANCHO PARKWAY,Escondido,CA,92025,200 E  VIA RANCHO PARKWAY,,E,,VIA,RANCHO,PARKWAY,,,,
,3,PETTY THEFT(Shoplift) (M),200 E  VIA RANCHO PARKWAY,200,E  VIA RANCHO PARKWAY,Escondido,CA,92025,200 E  VIA RANCHO PARKWAY,,E,,VIA,RANCHO,PARKWAY,,,,
,3,PETTY THEFT(Shoplift) (M),200 E  VIA RANCHO PARKWAY,200,E  VIA RANCHO PARKWAY,Escondido,CA,92025,200 E  VIA RANCHO PARKWAY,,E,,VIA,RANCHO,PARKWAY,,,,
,3,SHOPLIFTING (M),200 E  VIA RANCHO PARKWAY,200,E  VIA RANCHO PARKWAY,Escondido,CA,92025,200 E  VIA RANCHO PARKWAY,,E,,VIA,RANCHO,PARKWAY,,,,
,3,SHOPLIFTING (M),200 E  VIA RANCHO PARKWAY,200,E  VIA RANCHO PARKWAY,Escondido,CA,92025,200 E  VIA RANCHO PARKWAY,,E,,VIA,RANCHO,PARKWAY,,,,
,3,GRAND THEFT (Shoplifting) (F),200 E  VIA RANCHO PARKWAY,200,E  VIA RANCHO PARKWAY,Escondido,CA,92025,200 E  VIA RANCHO PARKWAY,,E,,VIA,RANCHO,PARKWAY,,,,
,3,PETTY THEFT(All Other Larceny) (M),200 E  VIA RANCHO PARKWAY,200,E  VIA RANCHO PARKWAY,Escondido,CA,92025,200 E  VIA RANCHO PARKWAY,,E,,VIA,RANCHO,PARKWAY,,,,
,3,SHOPLIFTING (M),200 E  VIA RANCHO PARKWAY,200,E  VIA RANCHO PARKWAY,Escondido,CA,92025,200 E  VIA RANCHO PARKWAY,,E,,VIA,RANCHO,PARKWAY,,,,
,3,PETTY THEFT (SHOPLIFT) W/2+ PRIOR CONVICTIONS (M),200 E  VIA RANCHO PARKWAY,200,E  VIA RANCHO PARKWAY,Escondido,CA,92025,200 E  VIA RANCHO PARKWAY,,E,,VIA,RANCHO,PARKWAY,,,,
,3,GRAND THEFT (Shoplifting) (F),200 E  VIA RANCHO PARKWAY,200,E  VIA RANCHO PARKWAY,Escondido,CA,92025,200 E  VIA RANCHO PARKWAY,,E,,VIA,RANCHO,PARKWAY,,,,
,3,COMMERCIAL ROBBERY - NO WEAPON,200 E  VIA RANCHO PARKWAY,200,E  VIA RANCHO PARKWAY,Escondido,CA,92025,200 E  VIA RANCHO PARKWAY,,E,,VIA,RANCHO,PARKWAY,,,,
,3,PETTY THEFT(Shoplift) (M),200 E  VIA RANCHO PARKWAY,200,E  VIA RANCHO PARKWAY,Escondido,CA,92025,200 E  VIA RANCHO PARKWAY,,E,,VIA,RANCHO,PARKWAY,,,,
,3,PETTY THEFT (SHOPLIFT) W/2+ PRIOR CONVICTIONS (M),200 E  VIA RANCHO PARKWAY,200,E  VIA RANCHO PARKWAY,Escondido,CA,92025,200 E  VIA RANCHO PARKWAY,,E,,VIA,RANCHO,PARKWAY,,,,
,3,PETTY THEFT(Shoplift) (M),200 E  VIA RANCHO PARKWAY,200,E  VIA RANCHO PARKWAY,Escondido,CA,92025,200 E  VIA RANCHO PARKWAY,,E,,VIA,RANCHO,PARKWAY,,,,
,3,GRAND THEFT (Shoplifting) (F),200 E  VIA RANCHO PARKWAY,200,E  VIA RANCHO PARKWAY,Escondido,CA,92025,200 E  VIA RANCHO PARKWAY,,E,,VIA,RANCHO,PARKWAY,,,,
,3,GRAND THEFT (Shoplifting) (F),200 E  VIA RANCHO PARKWAY,200,E  VIA RANCHO PARKWAY,Escondido,CA,92025,200 E  VIA RANCHO PARKWAY,,E,,VIA,RANCHO,PARKWAY,,,,
,3,SHOPLIFTING (M),200 E  VIA RANCHO PARKWAY,200,E  VIA RANCHO PARKWAY,Escondido,CA,92025,200 E  VIA RANCHO PARKWAY,,E,,VIA,RANCHO,PARKWAY,,,,
,3,SHOPLIFTING (M),200 E  VIA RANCHO PARKWAY,200,E  VIA RANCHO PARKWAY,Escondido,CA,92025,200 E  VIA RANCHO PARKWAY,,E,,VIA,RANCHO,PARKWAY,,,,
,3,PETTY THEFT(All Other Larceny) (M),200 E  VIA RANCHO PARKWAY,200,E  VIA RANCHO PARKWAY,Escondido,CA,92025,200 E  VIA RANCHO PARKWAY,,E,,VIA,RANCHO,PARKWAY,,,,
,3,PETTY THEFT(Shoplift) (M),200 E  VIA RANCHO PARKWAY,200,E  VIA RANCHO PARKWAY,Escondido,CA,92025,200 E  VIA RANCHO PARKWAY,,E,,VIA,RANCHO,PARKWAY,,,,
,3,GRAND THEFT (Shoplifting) (F),200 E  VIA RANCHO PARKWAY,200,E  VIA RANCHO PARKWAY,Escondido,CA,92025,200 E  VIA RANCHO PARKWAY,,E,,VIA,RANCHO,PARKWAY,,,,
,3,SHOPLIFTING (M),200 E  VIA RANCHO PARKWAY,200,E  VIA RANCHO PARKWAY,Escondido,CA,92025,200 E  VIA RANCHO PARKWAY,,E,,VIA,RANCHO,PARKWAY,,,,
,3,PETTY THEFT(Shoplift) (M),200 E  VIA RANCHO PARKWAY,200,E  VIA RANCHO PARKWAY,Escondido,CA,92025,200 E  VIA RANCHO PARKWAY,,E,,VIA,RANCHO,PARKWAY,,,,
,3,SHOPLIFTING (M),200 E  VIA RANCHO PARKWAY,200,E  VIA RANCHO PARKWAY,Escondido,CA,92025,200 E  VIA RANCHO PARKWAY,,E,,VIA,RANCHO,PARKWAY,,,,
,3,SHOPLIFTING (M),200 E  VIA RANCHO PARKWAY,200,E  VIA RANCHO PARKWAY,Escondido,CA,92025,200 E  VIA RANCHO PARKWAY,,E,,VIA,RANCHO,PARKWAY,,,,
,3,SHOPLIFTING (M),200 E  VIA RANCHO PARKWAY,200,E  VIA RANCHO PARKWAY,Escondido,CA,92025,200 E  VIA RANCHO PARKWAY,,E,,VIA,RANCHO,PARKWAY,,,,
,3,VEHICLE BREAK-IN/THEFT,200 E  VIA RANCHO PARKWAY,200,E  VIA RANCHO PARKWAY,Escondido,CA,92025,200 E  VIA RANCHO PARKWAY,,E,,VIA,RANCHO,PARKWAY,,,,
,3,GRAND THEFT (Shoplifting) (F),200 E  VIA RANCHO PARKWAY,200,E  VIA RANCHO PARKWAY,Escondido,CA,92025,200 E  VIA RANCHO PARKWAY,,E,,VIA,RANCHO,PARKWAY,,,,
,3,PETTY THEFT(All Other Larceny) (M),200 E  VIA RANCHO PARKWAY,200,E  VIA RANCHO PARKWAY,Escondido,CA,92025,200 E  VIA RANCHO PARKWAY,,E,,VIA,RANCHO,PARKWAY,,,,
,3,SHOPLIFTING (M),200 E  VIA RANCHO PARKWAY,200,E  VIA RANCHO PARKWAY,Escondido,CA,92025,200 E  VIA RANCHO PARKWAY,,E,,VIA,RANCHO,PARKWAY,,,,
,3,SHOPLIFTING (M),200 E  VIA RANCHO PARKWAY,200,E  VIA RANCHO PARKWAY,Escondido,CA,92025,200 E  VIA RANCHO PARKWAY,,E,,VIA,RANCHO,PARKWAY,,,,
,3,SHOPLIFTING (M),200 E  VIA RANCHO PARKWAY,200,E  VIA RANCHO PARKWAY,Escondido,CA,92025,200 E  VIA RANCHO PARKWAY,,E,,VIA,RANCHO,PARKWAY,,,,
,3,SHOPLIFTING (M),200 E  VIA RANCHO PARKWAY,200,E  VIA RANCHO PARKWAY,Escondido,CA,92025,200 E  VIA RANCHO PARKWAY,,E,,VIA,RANCHO,PARKWAY,,,,
,3,PETTY THEFT(Shoplift) (M),200 E  VIA RANCHO PARKWAY,200,E  VIA RANCHO PARKWAY,Escondido,CA,92025,200 E  VIA RANCHO PARKWAY,,E,,VIA,RANCHO,PARKWAY,,,,
,3,GRAND THEFT (Shoplifting) (F),200 E  VIA RANCHO PARKWAY,200,E  VIA RANCHO PARKWAY,Escondido,CA,92025,200 E  VIA RANCHO PARKWAY,,E,,VIA,RANCHO,PARKWAY,,,,
,3,POSS NARCOTIC CONTROLLED SUBS (M),200 E  VIA RANCHO PARKWAY,200,E  VIA RANCHO PARKWAY,Escondido,CA,92025,200 E  VIA RANCHO PARKWAY,,E,,VIA,RANCHO,PARKWAY,,,,
,3,PETTY THEFT(Shoplift) (M),200 E  VIA RANCHO PARKWAY,200,E  VIA RANCHO PARKWAY,Escondido,CA,92025,200 E  VIA RANCHO PARKWAY,,E,,VIA,RANCHO,PARKWAY,,,,
,3,PETTY THEFT W/2 PRIOR CONVICTIONS (F),200 E  VIA RANCHO PARKWAY,200,E  VIA RANCHO PARKWAY,Escondido,CA,92025,200 E  VIA RANCHO PARKWAY,,E,,VIA,RANCHO,PARKWAY,,,,
,3,SHOPLIFTING (M),200 E  VIA RANCHO PARKWAY,200,E  VIA RANCHO PARKWAY,Escondido,CA,92025,200 E  VIA RANCHO PARKWAY,,E,,VIA,RANCHO,PARKWAY,,,,
,3,SHOPLIFTING (M),200 E  VIA RANCHO PARKWAY,200,E  VIA RANCHO PARKWAY,Escondido,CA,92025,200 E  VIA RANCHO PARKWAY,,E,,VIA,RANCHO,PARKWAY,,,,
,3,PETTY THEFT(Shoplift) (M),200 E  VIA RANCHO PARKWAY,200,E  VIA RANCHO PARKWAY,Escondido,CA,92025,200 E  VIA RANCHO PARKWAY,,E,,VIA,RANCHO,PARKWAY,,,,
,3,PETTY THEFT(Shoplift) (M),200 E  VIA RANCHO PARKWAY,200,E  VIA RANCHO PARKWAY,Escondido,CA,92025,200 E  VIA RANCHO PARKWAY,,E,,VIA,RANCHO,PARKWAY,,,,
,3,PETTY THEFT(Shoplift) (M),200 E  VIA RANCHO PARKWAY,200,E  VIA RANCHO PARKWAY,Escondido,CA,92025,200 E  VIA RANCHO PARKWAY,,E,,VIA,RANCHO,PARKWAY,,,,
,3,PETTY THEFT(Shoplift) (M),200 E  VIA RANCHO PARKWAY,200,E  VIA RANCHO PARKWAY,Escondido,CA,92025,200 E  VIA RANCHO PARKWAY,,E,,VIA,RANCHO,PARKWAY,,,,
,3,PETTY THEFT(All Other Larceny) (M),200 E  VIA RANCHO PARKWAY,200,E  VIA RANCHO PARKWAY,Escondido,CA,92025,200 E  VIA RANCHO PARKWAY,,E,,VIA,RANCHO,PARKWAY,,,,
,3,DISORD CONDUCT:ALC (M),200 E  VIA RANCHO PARKWAY,200,E  VIA RANCHO PARKWAY,Escondido,CA,92025,200 E  VIA RANCHO PARKWAY,,E,,VIA,RANCHO,PARKWAY,,,,
,3,PETTY THEFT(Shoplift) (M),200 E  VIA RANCHO PARKWAY,200,E  VIA RANCHO PARKWAY,Escondido,CA,92025,200 E  VIA RANCHO PARKWAY,,E,,VIA,RANCHO,PARKWAY,,,,
,3,PETTY THEFT(Shoplift) (M),200 E  VIA RANCHO PARKWAY,200,E  VIA RANCHO PARKWAY,Escondido,CA,92025,200 E  VIA RANCHO PARKWAY,,E,,VIA,RANCHO,PARKWAY,,,,
,3,GRAND THEFT (Shoplifting) (F),200 E  VIA RANCHO PARKWAY,200,E  VIA RANCHO PARKWAY,Escondido,CA,92025,200 E  VIA RANCHO PARKWAY,,E,,VIA,RANCHO,PARKWAY,,,,
,3,PETTY THEFT(Shoplift) (M),200 E  VIA RANCHO PARKWAY,200,E  VIA RANCHO PARKWAY,Escondido,CA,92025,200 E  VIA RANCHO PARKWAY,,E,,VIA,RANCHO,PARKWAY,,,,
,3,PETTY THEFT(Shoplift) (M),200 E  VIA RANCHO PARKWAY,200,E  VIA RANCHO PARKWAY,Escondido,CA,92025,200 E  VIA RANCHO PARKWAY,,E,,VIA,RANCHO,PARKWAY,,,,
,3,PETTY THEFT(Shoplift) (M),200 E  VIA RANCHO PARKWAY,200,E  VIA RANCHO PARKWAY,Escondido,CA,92025,200 E  VIA RANCHO PARKWAY,,E,,VIA,RANCHO,PARKWAY,,,,
,3,GRAND THEFT (Shoplifting) (F),200 E  VIA RANCHO PARKWAY,200,E  VIA RANCHO PARKWAY,Escondido,CA,92025,200 E  VIA RANCHO PARKWAY,,E,,VIA,RANCHO,PARKWAY,,,,
,3,PETTY THEFT(Shoplift) (M),200 E  VIA RANCHO PARKWAY,200,E  VIA RANCHO PARKWAY,Escondido,CA,92025,200 E  VIA RANCHO PARKWAY,,E,,VIA,RANCHO,PARKWAY,,,,
,3,PETTY THEFT(Shoplift) (M),200 E  VIA RANCHO PARKWAY,200,E  VIA RANCHO PARKWAY,Escondido,CA,92025,200 E  VIA RANCHO PARKWAY,,E,,VIA,RANCHO,PARKWAY,,,,
,3,PETTY THEFT(Shoplift) (M),200 E  VIA RANCHO PARKWAY,200,E  VIA RANCHO PARKWAY,Escondido,CA,92025,200 E  VIA RANCHO PARKWAY,,E,,VIA,RANCHO,PARKWAY,,,,
,3,SHOPLIFTING (M),200 E  VIA RANCHO PARKWAY,200,E  VIA RANCHO PARKWAY,Escondido,CA,92025,200 E  VIA RANCHO PARKWAY,,E,,VIA,RANCHO,PARKWAY,,,,
,3,PETTY THEFT(Shoplift) (M),200 E  VIA RANCHO PARKWAY,200,E  VIA RANCHO PARKWAY,Escondido,CA,92025,200 E  VIA RANCHO PARKWAY,,E,,VIA,RANCHO,PARKWAY,,,,
,3,PETTY THEFT(Shoplift) (M),200 E  VIA RANCHO PARKWAY,200,E  VIA RANCHO PARKWAY,Escondido,CA,92025,200 E  VIA RANCHO PARKWAY,,E,,VIA,RANCHO,PARKWAY,,,,
,3,PETTY THEFT(Shoplift) (M),200 E  VIA RANCHO PARKWAY,200,E  VIA RANCHO PARKWAY,Escondido,CA,92025,200 E  VIA RANCHO PARKWAY,,E,,VIA,RANCHO,PARKWAY,,,,
,3,EXHIBIT DEADLY WEAPON OTHER THAN FIREARM (M),200 E  VIA RANCHO PARKWAY,200,E  VIA RANCHO PARKWAY,Escondido,CA,92025,200 E  VIA RANCHO PARKWAY,,E,,VIA,RANCHO,PARKWAY,,,,
,3,PETTY THEFT(Shoplift) (M),200 E  VIA RANCHO PARKWAY,200,E  VIA RANCHO PARKWAY,Escondido,CA,92025,200 E  VIA RANCHO PARKWAY,,E,,VIA,RANCHO,PARKWAY,,,,
,3,PETTY THEFT(Shoplift) (M),200 E  VIA RANCHO PARKWAY,200,E  VIA RANCHO PARKWAY,Escondido,CA,92025,200 E  VIA RANCHO PARKWAY,,E,,VIA,RANCHO,PARKWAY,,,,
,3,DISORDERLY CONDUCT:INTOX DRUG WITH ALCOHOL (M),200 E  VIA RANCHO PARKWAY,200,E  VIA RANCHO PARKWAY,Escondido,CA,92025,200 E  VIA RANCHO PARKWAY,,E,,VIA,RANCHO,PARKWAY,,,,
,3,PETTY THEFT(All Other Larceny) (M),200 E  VIA RANCHO PARKWAY,200,E  VIA RANCHO PARKWAY,Escondido,CA,92025,200 E  VIA RANCHO PARKWAY,,E,,VIA,RANCHO,PARKWAY,,,,
,3,PETTY THEFT(All Other Larceny) (M),200 E  VIA RANCHO PARKWAY,200,E  VIA RANCHO PARKWAY,Escondido,CA,92025,200 E  VIA RANCHO PARKWAY,,E,,VIA,RANCHO,PARKWAY,,,,
,3,COMMERCIAL ROBBERY - NO WEAPON,200 E  VIA RANCHO PARKWAY,200,E  VIA RANCHO PARKWAY,Escondido,CA,92025,200 E  VIA RANCHO PARKWAY,,E,,VIA,RANCHO,PARKWAY,,,,
,3,PETTY THEFT(All Other Larceny) (M),200 E  VIA RANCHO PARKWAY,200,E  VIA RANCHO PARKWAY,Escondido,CA,92025,200 E  VIA RANCHO PARKWAY,,E,,VIA,RANCHO,PARKWAY,,,,
,3,PETTY THEFT(Shoplift) (M),200 E  VIA RANCHO PARKWAY,200,E  VIA RANCHO PARKWAY,Escondido,CA,92025,200 E  VIA RANCHO PARKWAY,,E,,VIA,RANCHO,PARKWAY,,,,
,3,FRAUD,200 E  VIA RANCHO PARKWAY,200,E  VIA RANCHO PARKWAY,Escondido,CA,92025,200 E  VIA RANCHO PARKWAY,,E,,VIA,RANCHO,PARKWAY,,,,
,3,PETTY THEFT(Shoplift) (M),200 E  VIA RANCHO PARKWAY,200,E  VIA RANCHO PARKWAY,Escondido,CA,92025,200 E  VIA RANCHO PARKWAY,,E,,VIA,RANCHO,PARKWAY,,,,
,3,PETTY THEFT(Shoplift) (M),200 E  VIA RANCHO PARKWAY,200,E  VIA RANCHO PARKWAY,Escondido,CA,92025,200 E  VIA RANCHO PARKWAY,,E,,VIA,RANCHO,PARKWAY,,,,
,3,PETTY THEFT(All Other Larceny) (M),200 E  VIA RANCHO PARKWAY,200,E  VIA RANCHO PARKWAY,Escondido,CA,92025,200 E  VIA RANCHO PARKWAY,,E,,VIA,RANCHO,PARKWAY,,,,
,3,PETTY THEFT(Shoplift) (M),200 E  VIA RANCHO PARKWAY,200,E  VIA RANCHO PARKWAY,Escondido,CA,92025,200 E  VIA RANCHO PARKWAY,,E,,VIA,RANCHO,PARKWAY,,,,
,3,GRAND THEFT (Shoplifting) (F),200 E  VIA RANCHO PARKWAY,200,E  VIA RANCHO PARKWAY,Escondido,CA,92025,200 E  VIA RANCHO PARKWAY,,E,,VIA,RANCHO,PARKWAY,,,,
,3,PETTY THEFT(Shoplift) (M),200 E  VIA RANCHO PARKWAY,200,E  VIA RANCHO PARKWAY,Escondido,CA,92025,200 E  VIA RANCHO PARKWAY,,E,,VIA,RANCHO,PARKWAY,,,,
,3,SHOPLIFTING (M),200 E  VIA RANCHO PARKWAY,200,E  VIA RANCHO PARKWAY,Escondido,CA,92025,200 E  VIA RANCHO PARKWAY,,E,,VIA,RANCHO,PARKWAY,,,,
,3,PETTY THEFT(Shoplift) (M),200 E  VIA RANCHO PARKWAY,200,E  VIA RANCHO PARKWAY,Escondido,CA,92025,200 E  VIA RANCHO PARKWAY,,E,,VIA,RANCHO,PARKWAY,,,,
,3,SHOPLIFTING (M),200 E  VIA RANCHO PARKWAY,200,E  VIA RANCHO PARKWAY,Escondido,CA,92025,200 E  VIA RANCHO PARKWAY,,E,,VIA,RANCHO,PARKWAY,,,,
,3,PETTY THEFT(Shoplift) (M),200 E  VIA RANCHO PARKWAY,200,E  VIA RANCHO PARKWAY,Escondido,CA,92025,200 E  VIA RANCHO PARKWAY,,E,,VIA,RANCHO,PARKWAY,,,,
,3,SHOPLIFTING (M),200 E  VIA RANCHO PARKWAY,200,E  VIA RANCHO PARKWAY,Escondido,CA,92025,200 E  VIA RANCHO PARKWAY,,E,,VIA,RANCHO,PARKWAY,,,,
,3,PETTY THEFT(All Other Larceny) (M),200 E  VIA RANCHO PARKWAY,200,E  VIA RANCHO PARKWAY,Escondido,CA,92025,200 E  VIA RANCHO PARKWAY,,E,,VIA,RANCHO,PARKWAY,,,,
,3,DUI ALCOHOL (M),200 E  VIA RANCHO PARKWAY,200,E  VIA RANCHO PARKWAY,Escondido,CA,92025,200 E  VIA RANCHO PARKWAY,,E,,VIA,RANCHO,PARKWAY,,,,
,3,PETTY THEFT(Shoplift) (M),200 E  VIA RANCHO PARKWAY,200,E  VIA RANCHO PARKWAY,Escondido,CA,92025,200 E  VIA RANCHO PARKWAY,,E,,VIA,RANCHO,PARKWAY,,,,
,3,PETTY THEFT(Shoplift) (M),200 E  VIA RANCHO PARKWAY,200,E  VIA RANCHO PARKWAY,Escondido,CA,92025,200 E  VIA RANCHO PARKWAY,,E,,VIA,RANCHO,PARKWAY,,,,
,3,GRAND THEFT (Shoplifting) (F),200 E  VIA RANCHO PARKWAY,200,E  VIA RANCHO PARKWAY,Escondido,CA,92025,200 E  VIA RANCHO PARKWAY,,E,,VIA,RANCHO,PARKWAY,,,,
,3,GRAND THEFT (Shoplifting) (F),200 E  VIA RANCHO PARKWAY,200,E  VIA RANCHO PARKWAY,Escondido,CA,92025,200 E  VIA RANCHO PARKWAY,,E,,VIA,RANCHO,PARKWAY,,,,
,3,VEHICLE BREAK-IN/THEFT,200 E  VIA RANCHO PARKWAY,200,E  VIA RANCHO PARKWAY,Escondido,CA,92025,200 E  VIA RANCHO PARKWAY,,E,,VIA,RANCHO,PARKWAY,,,,
,3,PETTY THEFT(Shoplift) (M),200 E  VIA RANCHO PARKWAY,200,E  VIA RANCHO PARKWAY,Escondido,CA,92025,200 E  VIA RANCHO PARKWAY,,E,,VIA,RANCHO,PARKWAY,,,,
,3,SHOPLIFTING (M),200 E  VIA RANCHO PARKWAY,200,E  VIA RANCHO PARKWAY,Escondido,CA,92025,200 E  VIA RANCHO PARKWAY,,E,,VIA,RANCHO,PARKWAY,,,,
,3,PETTY THEFT(Shoplift) (M),200 E  VIA RANCHO PARKWAY,200,E  VIA RANCHO PARKWAY,Escondido,CA,92025,200 E  VIA RANCHO PARKWAY,,E,,VIA,RANCHO,PARKWAY,,,,
,3,PETTY THEFT(Shoplift) (M),200 E  VIA RANCHO PARKWAY,200,E  VIA RANCHO PARKWAY,Escondido,CA,92025,200 E  VIA RANCHO PARKWAY,,E,,VIA,RANCHO,PARKWAY,,,,
,3,PETTY THEFT(Shoplift) (M),200 E  VIA RANCHO PARKWAY,200,E  VIA RANCHO PARKWAY,Escondido,CA,92025,200 E  VIA RANCHO PARKWAY,,E,,VIA,RANCHO,PARKWAY,,,,
,3,SHOPLIFTING (M),200 E  VIA RANCHO PARKWAY,200,E  VIA RANCHO PARKWAY,Escondido,CA,92025,200 E  VIA RANCHO PARKWAY,,E,,VIA,RANCHO,PARKWAY,,,,
,3,POSS CONTROLLED SUBS PARAPHERNALIA (M),200 E  VIA RANCHO PARKWAY,200,E  VIA RANCHO PARKWAY,Escondido,CA,92025,200 E  VIA RANCHO PARKWAY,,E,,VIA,RANCHO,PARKWAY,,,,
,3,PETTY THEFT(Shoplift) (M),200 E  VIA RANCHO PARKWAY,200,E  VIA RANCHO PARKWAY,Escondido,CA,92025,200 E  VIA RANCHO PARKWAY,,E,,VIA,RANCHO,PARKWAY,,,,
,3,GRAND THEFT (Shoplifting) (F),200 E  VIA RANCHO PARKWAY,200,E  VIA RANCHO PARKWAY,Escondido,CA,92025,200 E  VIA RANCHO PARKWAY,,E,,VIA,RANCHO,PARKWAY,,,,
,3,PETTY THEFT(All Other Larceny) (M),200 E  VIA RANCHO PARKWAY,200,E  VIA RANCHO PARKWAY,Escondido,CA,92025,200 E  VIA RANCHO PARKWAY,,E,,VIA,RANCHO,PARKWAY,,,,
,3,PETTY THEFT(Shoplift) (M),200 E  VIA RANCHO PARKWAY,200,E  VIA RANCHO PARKWAY,Escondido,CA,92025,200 E  VIA RANCHO PARKWAY,,E,,VIA,RANCHO,PARKWAY,,,,
,3,COMMERCIAL BURGLARY,200 E  VIA RANCHO PARKWAY,200,E  VIA RANCHO PARKWAY,Escondido,CA,92025,200 E  VIA RANCHO PARKWAY,,E,,VIA,RANCHO,PARKWAY,,,,
,3,SHOPLIFTING (M),200 E  VIA RANCHO PARKWAY,200,E  VIA RANCHO PARKWAY,Escondido,CA,92025,200 E  VIA RANCHO PARKWAY,,E,,VIA,RANCHO,PARKWAY,,,,
,3,SHOPLIFTING (M),200 E  VIA RANCHO PARKWAY,200,E  VIA RANCHO PARKWAY,Escondido,CA,92025,200 E  VIA RANCHO PARKWAY,,E,,VIA,RANCHO,PARKWAY,,,,
,3,COMMERCIAL BURGLARY,200 E  VIA RANCHO PARKWAY,200,E  VIA RANCHO PARKWAY,Escondido,CA,92025,200 E  VIA RANCHO PARKWAY,,E,,VIA,RANCHO,PARKWAY,,,,
,3,PETTY THEFT(Shoplift) (M),200 E  VIA RANCHO PARKWAY,200,E  VIA RANCHO PARKWAY,Escondido,CA,92025,200 E  VIA RANCHO PARKWAY,,E,,VIA,RANCHO,PARKWAY,,,,
,3,PETTY THEFT(Shoplift) (M),200 E  VIA RANCHO PARKWAY,200,E  VIA RANCHO PARKWAY,Escondido,CA,92025,200 E  VIA RANCHO PARKWAY,,E,,VIA,RANCHO,PARKWAY,,,,
,3,GRAND THEFT (Shoplifting) (F),200 E  VIA RANCHO PARKWAY,200,E  VIA RANCHO PARKWAY,Escondido,CA,92025,200 E  VIA RANCHO PARKWAY,,E,,VIA,RANCHO,PARKWAY,,,,
,3,GRAND THEFT (Shoplifting) (F),200 E  VIA RANCHO PARKWAY,200,E  VIA RANCHO PARKWAY,Escondido,CA,92025,200 E  VIA RANCHO PARKWAY,,E,,VIA,RANCHO,PARKWAY,,,,
,3,PETTY THEFT(Shoplift) (M),200 E  VIA RANCHO PARKWAY,200,E  VIA RANCHO PARKWAY,Escondido,CA,92025,200 E  VIA RANCHO PARKWAY,,E,,VIA,RANCHO,PARKWAY,,,,
,3,PETTY THEFT(Shoplift) (M),200 E  VIA RANCHO PARKWAY,200,E  VIA RANCHO PARKWAY,Escondido,CA,92025,200 E  VIA RANCHO PARKWAY,,E,,VIA,RANCHO,PARKWAY,,,,
,3,PETTY THEFT(Shoplift) (M),200 E  VIA RANCHO PARKWAY,200,E  VIA RANCHO PARKWAY,Escondido,CA,92025,200 E  VIA RANCHO PARKWAY,,E,,VIA,RANCHO,PARKWAY,,,,
,3,PETTY THEFT(Shoplift) (M),200 E  VIA RANCHO PARKWAY,200,E  VIA RANCHO PARKWAY,Escondido,CA,92025,200 E  VIA RANCHO PARKWAY,,E,,VIA,RANCHO,PARKWAY,,,,
,3,COMMERCIAL ROBBERY - NO WEAPON,200 E  VIA RANCHO PARKWAY,200,E  VIA RANCHO PARKWAY,Escondido,CA,92025,200 E  VIA RANCHO PARKWAY,,E,,VIA,RANCHO,PARKWAY,,,,
,3,VEHICLE BREAK-IN/THEFT,200 E  VIA RANCHO PARKWAY,200,E  VIA RANCHO PARKWAY,Escondido,CA,92025,200 E  VIA RANCHO PARKWAY,,E,,VIA,RANCHO,PARKWAY,,,,
,3,PETTY THEFT(Shoplift) (M),200 E  VIA RANCHO PARKWAY,200,E  VIA RANCHO PARKWAY,Escondido,CA,92025,200 E  VIA RANCHO PARKWAY,,E,,VIA,RANCHO,PARKWAY,,,,
,3,PETTY THEFT(Shoplift) (M),200 E  VIA RANCHO PARKWAY,200,E  VIA RANCHO PARKWAY,Escondido,CA,92025,200 E  VIA RANCHO PARKWAY,,E,,VIA,RANCHO,PARKWAY,,,,
,3,BURGLARY (COMMERCIAL) (F),200 E  VIA RANCHO PARKWAY,200,E  VIA RANCHO PARKWAY,Escondido,CA,92025,200 E  VIA RANCHO PARKWAY,,E,,VIA,RANCHO,PARKWAY,,,,
,3,ARSON:STRUCTURE/FOREST LAND (F),200 E  VIA RANCHO PARKWAY,200,E  VIA RANCHO PARKWAY,Escondido,CA,92025,200 E  VIA RANCHO PARKWAY,,E,,VIA,RANCHO,PARKWAY,,,,
,3,PETTY THEFT(Shoplift) (M),200 E  VIA RANCHO PARKWAY,200,E  VIA RANCHO PARKWAY,Escondido,CA,92025,200 E  VIA RANCHO PARKWAY,,E,,VIA,RANCHO,PARKWAY,,,,
,3,COMMERCIAL ROBBERY - NO WEAPON,200 E  VIA RANCHO PARKWAY,200,E  VIA RANCHO PARKWAY,Escondido,CA,92025,200 E  VIA RANCHO PARKWAY,,E,,VIA,RANCHO,PARKWAY,,,,
,3,GRAND THEFT (Shoplifting) (F),200 E  VIA RANCHO PARKWAY,200,E  VIA RANCHO PARKWAY,Escondido,CA,92025,200 E  VIA RANCHO PARKWAY,,E,,VIA,RANCHO,PARKWAY,,,,
,3,PETTY THEFT(Shoplift) (M),200 E  VIA RANCHO PARKWAY,200,E  VIA RANCHO PARKWAY,Escondido,CA,92025,200 E  VIA RANCHO PARKWAY,,E,,VIA,RANCHO,PARKWAY,,,,
,3,GRAND THEFT (Shoplifting) (F),200 E  VIA RANCHO PARKWAY,200,E  VIA RANCHO PARKWAY,Escondido,CA,92025,200 E  VIA RANCHO PARKWAY,,E,,VIA,RANCHO,PARKWAY,,,,
,3,VEHICLE BREAK-IN/THEFT,200 E  VIA RANCHO PARKWAY,200,E  VIA RANCHO PARKWAY,Escondido,CA,92025,200 E  VIA RANCHO PARKWAY,,E,,VIA,RANCHO,PARKWAY,,,,
,3,PETTY THEFT(Shoplift) (M),200 E  VIA RANCHO PARKWAY,200,E  VIA RANCHO PARKWAY,Escondido,CA,92025,200 E  VIA RANCHO PARKWAY,,E,,VIA,RANCHO,PARKWAY,,,,
,3,GRAND THEFT (Shoplifting) (F),200 E  VIA RANCHO PARKWAY,200,E  VIA RANCHO PARKWAY,Escondido,CA,92025,200 E  VIA RANCHO PARKWAY,,E,,VIA,RANCHO,PARKWAY,,,,
,3,PETTY THEFT(Shoplift) (M),200 E  VIA RANCHO PARKWAY,200,E  VIA RANCHO PARKWAY,Escondido,CA,92025,200 E  VIA RANCHO PARKWAY,,E,,VIA,RANCHO,PARKWAY,,,,
,3,PETTY THEFT(Shoplift) (M),200 E  VIA RANCHO PARKWAY,200,E  VIA RANCHO PARKWAY,Escondido,CA,92025,200 E  VIA RANCHO PARKWAY,,E,,VIA,RANCHO,PARKWAY,,,,
,3,PETTY THEFT(Shoplift) (M),200 E  VIA RANCHO PARKWAY,200,E  VIA RANCHO PARKWAY,Escondido,CA,92025,200 E  VIA RANCHO PARKWAY,,E,,VIA,RANCHO,PARKWAY,,,,
,3,CAUSE HARM/DEATH OF ELDER /DEPENDENT ADULT (F),3300  CAMINO MARZAGAN,3300, CAMINO MARZAGAN  ,Escondido,CA,92025,3300  CAMINO MARZAGAN,,,CAMINO,MARZAGAN,,,,,,
,3,FRAUD,200 E  VIA RANCHO PARKWAY,200,E  VIA RANCHO PARKWAY,Escondido,CA,92025,200 E  VIA RANCHO PARKWAY,,E,,VIA,RANCHO,PARKWAY,,,,
,3,COMMERCIAL BURGLARY,200 E  VIA RANCHO PARKWAY,200,E  VIA RANCHO PARKWAY,Escondido,CA,92025,200 E  VIA RANCHO PARKWAY,,E,,VIA,RANCHO,PARKWAY,,,,
,3,PETTY THEFT(Shoplift) (M),200 E  VIA RANCHO PARKWAY,200,E  VIA RANCHO PARKWAY,Escondido,CA,92025,200 E  VIA RANCHO PARKWAY,,E,,VIA,RANCHO,PARKWAY,,,,
,3,GRAND THEFT:AUTO (F),200 E  VIA RANCHO PARKWAY,200,E  VIA RANCHO PARKWAY,Escondido,CA,92025,200 E  VIA RANCHO PARKWAY,,E,,VIA,RANCHO,PARKWAY,,,,
,3,PETTY THEFT(All Other Larceny) (M),200 E  VIA RANCHO PARKWAY,200,E  VIA RANCHO PARKWAY,Escondido,CA,92025,200 E  VIA RANCHO PARKWAY,,E,,VIA,RANCHO,PARKWAY,,,,
,3,GRAND THEFT (Shoplifting) (F),200 E  VIA RANCHO PARKWAY,200,E  VIA RANCHO PARKWAY,Escondido,CA,92025,200 E  VIA RANCHO PARKWAY,,E,,VIA,RANCHO,PARKWAY,,,,
,3,PETTY THEFT(Shoplift) (M),200 E  VIA RANCHO PARKWAY,200,E  VIA RANCHO PARKWAY,Escondido,CA,92025,200 E  VIA RANCHO PARKWAY,,E,,VIA,RANCHO,PARKWAY,,,,
,3,GRAND THEFT (Shoplifting) (F),200 E  VIA RANCHO PARKWAY,200,E  VIA RANCHO PARKWAY,Escondido,CA,92025,200 E  VIA RANCHO PARKWAY,,E,,VIA,RANCHO,PARKWAY,,,,
,3,PETTY THEFT(from Building) (M),200 E  VIA RANCHO PARKWAY,200,E  VIA RANCHO PARKWAY,Escondido,CA,92025,200 E  VIA RANCHO PARKWAY,,E,,VIA,RANCHO,PARKWAY,,,,
,3,SHOPLIFTING (M),200 E  VIA RANCHO PARKWAY,200,E  VIA RANCHO PARKWAY,Escondido,CA,92025,200 E  VIA RANCHO PARKWAY,,E,,VIA,RANCHO,PARKWAY,,,,
,3,PETTY THEFT(Shoplift) (M),200 E  VIA RANCHO PARKWAY,200,E  VIA RANCHO PARKWAY,Escondido,CA,92025,200 E  VIA RANCHO PARKWAY,,E,,VIA,RANCHO,PARKWAY,,,,
,3,PETTY THEFT(Shoplift) (M),200 E  VIA RANCHO PARKWAY,200,E  VIA RANCHO PARKWAY,Escondido,CA,92025,200 E  VIA RANCHO PARKWAY,,E,,VIA,RANCHO,PARKWAY,,,,
,3,PETTY THEFT(Shoplift) (M),200 E  VIA RANCHO PARKWAY,200,E  VIA RANCHO PARKWAY,Escondido,CA,92025,200 E  VIA RANCHO PARKWAY,,E,,VIA,RANCHO,PARKWAY,,,,
,3,PETTY THEFT(Shoplift) (M),200 E  VIA RANCHO PARKWAY,200,E  VIA RANCHO PARKWAY,Escondido,CA,92025,200 E  VIA RANCHO PARKWAY,,E,,VIA,RANCHO,PARKWAY,,,,
"1280 Auto Park Way, Escondido, CA 92029",4,SHOPLIFTING (M),1200  AUTO PARK WAY,1200, AUTO PARK WAY ,Escondido,CA,92029,1200  AUTO PARK WAY,,,AUTO,PARK,WAY,,,,,
,4,COMMERCIAL BURGLARY,400 N  HALE AVENUE,400,N  HALE AVENUE ,Escondido,CA,92029,400 N  HALE AVENUE,,N,,HALE,AVENUE,,,,,
,4,SIMPLE BATTERY (M),1200 W  VALLEY PARKWAY,1200,W  VALLEY PARKWAY ,Escondido,CA,92029,1200 W  VALLEY PARKWAY,,W,,VALLEY,PARKWAY,,,,,
,4,USE/UNDER INFL OF CONTROLLED SUBS (M),1200  AUTO PARK WAY,1200, AUTO PARK WAY ,Escondido,CA,92029,1200  AUTO PARK WAY,,,AUTO,PARK,WAY,,,,,
,4,PETTY THEFT(Shoplift) (M),1300 W  VALLEY PARKWAY,1300,W  VALLEY PARKWAY ,Escondido,CA,92029,1300 W  VALLEY PARKWAY,,W,,VALLEY,PARKWAY,,,,,
,4,POSS CONTROLLED SUBS PARAPHERNALIA (M),1500  AUTO PARK WAY,1500, AUTO PARK WAY ,Escondido,CA,92029,1500  AUTO PARK WAY,,,AUTO,PARK,WAY,,,,,
,4,POSS NARCOTIC CONTROLLED SUBS (M),1500 W  VALLEY PARKWAY,1500,W  VALLEY PARKWAY ,Escondido,CA,92029,1500 W  VALLEY PARKWAY,,W,,VALLEY,PARKWAY,,,,,
,4,VANDALISM ($400 OR MORE) (F),1200  AUTO PARK WAY,1200, AUTO PARK WAY ,Escondido,CA,92029,1200  AUTO PARK WAY,,,AUTO,PARK,WAY,,,,,
,4,GRAND THEFT:MONEY/LABOR/PROPERTY (F),1300 W  09TH AVENUE,1300,W  09TH AVENUE ,Escondido,CA,92029,1300 W  09TH AVENUE,,W,,09TH,AVENUE,,,,,
,4,POSS NARCOTIC CONTROLLED SUBS (M),1200  AUTO PARK WAY,1200, AUTO PARK WAY ,Escondido,CA,92029,1200  AUTO PARK WAY,,,AUTO,PARK,WAY,,,,,
,4,PETTY THEFT(Shoplift) (M),1200  AUTO PARK WAY,1200, AUTO PARK WAY ,Escondido,CA,92029,1200  AUTO PARK WAY,,,AUTO,PARK,WAY,,,,,
,4,VEHICLE BREAK-IN/THEFT,1200  AUTO PARK WAY,1200, AUTO PARK WAY ,Escondido,CA,92029,1200  AUTO PARK WAY,,,AUTO,PARK,WAY,,,,,
,4,GRAND THEFT (SHOPLIFT) W/2+ PRIOR CONVICTIONS (F),1200  AUTO PARK WAY,1200, AUTO PARK WAY ,Escondido,CA,92029,1200  AUTO PARK WAY,,,AUTO,PARK,WAY,,,,,
,4,POSSESS CONTROLLED SUBSTANCE (M),1000 W  VALLEY PARKWAY,1000,W  VALLEY PARKWAY ,Escondido,CA,92029,1000 W  VALLEY PARKWAY,,W,,VALLEY,PARKWAY,,,,,
,4,DISORDERLY CONDUCT:INTOX DRUG WITH ALCOHOL (M),1100 W  VALLEY PARKWAY,1100,W  VALLEY PARKWAY ,Escondido,CA,92029,1100 W  VALLEY PARKWAY,,W,,VALLEY,PARKWAY,,,,,
,4,PETTY THEFT(Shoplift) (M),1500 W  VALLEY PARKWAY,1500,W  VALLEY PARKWAY ,Escondido,CA,92029,1500 W  VALLEY PARKWAY,,W,,VALLEY,PARKWAY,,,,,
,4,PETTY THEFT(Shoplift) (M),100  LA TERRAZA BOULEVARD,100, LA TERRAZA BOULEVARD ,Escondido,CA,92029,100  LA TERRAZA BOULEVARD,,,LA,TERRAZA,BOULEVARD,,,,,
,4,POSS CONTROLLED SUBS PARAPHERNALIA (M),900  DEL DIOS ROAD,900, DEL DIOS ROAD ,Escondido,CA,92029,900  DEL DIOS ROAD,,,DEL,DIOS,ROAD,,,,,
,4,DUI ALCOHOL (M),1000 W  VALLEY PARKWAY,1000,W  VALLEY PARKWAY ,Escondido,CA,92029,1000 W  VALLEY PARKWAY,,W,,VALLEY,PARKWAY,,,,,
,4,CARRY CONCEALED DIRK OR DAGGER (F),1300 W  VALLEY PARKWAY,1300,W  VALLEY PARKWAY ,Escondido,CA,92029,1300 W  VALLEY PARKWAY,,W,,VALLEY,PARKWAY,,,,,
,4,PROSTITUTION,1000 W  VALLEY PARKWAY,1000,W  VALLEY PARKWAY ,Escondido,CA,92029,1000 W  VALLEY PARKWAY,,W,,VALLEY,PARKWAY,,,,,
,4,OTHER SEX CRIME,1200  AUTO PARK WAY,1200, AUTO PARK WAY ,Escondido,CA,92029,1200  AUTO PARK WAY,,,AUTO,PARK,WAY,,,,,
,4,STREET ROBBERY - WEAPON USED,900  DEL DIOS ROAD,900, DEL DIOS ROAD ,Escondido,CA,92029,900  DEL DIOS ROAD,,,DEL,DIOS,ROAD,,,,,
,4,PETTY THEFT(Shoplift) (M),1300 W  VALLEY PARKWAY,1300,W  VALLEY PARKWAY ,Escondido,CA,92029,1300 W  VALLEY PARKWAY,,W,,VALLEY,PARKWAY,,,,,
,4,GRAND THEFT (ALL OTHER LARCENY) W/2+ PRIOR CONVICTIONS (F),1500 W  VALLEY PARKWAY,1500,W  VALLEY PARKWAY ,Escondido,CA,92029,1500 W  VALLEY PARKWAY,,W,,VALLEY,PARKWAY,,,,,
,4,COMMERCIAL BURGLARY,1200  AUTO PARK WAY,1200, AUTO PARK WAY ,Escondido,CA,92029,1200  AUTO PARK WAY,,,AUTO,PARK,WAY,,,,,
,4,GRAND THEFT (Shoplifting) (F),1300 W  VALLEY PARKWAY,1300,W  VALLEY PARKWAY ,Escondido,CA,92029,1300 W  VALLEY PARKWAY,,W,,VALLEY,PARKWAY,,,,,
,4,DUI DRUG (M),1200 W  VALLEY PARKWAY,1200,W  VALLEY PARKWAY ,Escondido,CA,92029,1200 W  VALLEY PARKWAY,,W,,VALLEY,PARKWAY,,,,,
,4,PETTY THEFT (SHOPLIFT) W/2+ PRIOR CONVICTIONS (M),1200  AUTO PARK WAY,1200, AUTO PARK WAY ,Escondido,CA,92029,1200  AUTO PARK WAY,,,AUTO,PARK,WAY,,,,,
,4,PETTY THEFT(Shoplift) (M),1300 W  VALLEY PARKWAY,1300,W  VALLEY PARKWAY ,Escondido,CA,92029,1300 W  VALLEY PARKWAY,,W,,VALLEY,PARKWAY,,,,,
,4,PETTY THEFT(Shoplift) (M),1300 W  VALLEY PARKWAY,1300,W  VALLEY PARKWAY ,Escondido,CA,92029,1300 W  VALLEY PARKWAY,,W,,VALLEY,PARKWAY,,,,,
,4,DISORD CONDUCT:ALC (M),1500 W  VALLEY PARKWAY,1500,W  VALLEY PARKWAY ,Escondido,CA,92029,1500 W  VALLEY PARKWAY,,W,,VALLEY,PARKWAY,,,,,
,4,PETTY THEFT(All Other Larceny) (M),1200  AUTO PARK WAY,1200, AUTO PARK WAY ,Escondido,CA,92029,1200  AUTO PARK WAY,,,AUTO,PARK,WAY,,,,,
,4,TREATMENT-MANDATED HARD DRUGS W/2 OR MORE PRIOR CONVICTIONS (M),1300 W  VALLEY PARKWAY,1300,W  VALLEY PARKWAY ,Escondido,CA,92029,1300 W  VALLEY PARKWAY,,W,,VALLEY,PARKWAY,,,,,
,4,PETTY THEFT(Shoplift) (M),1200  AUTO PARK WAY,1200, AUTO PARK WAY ,Escondido,CA,92029,1200  AUTO PARK WAY,,,AUTO,PARK,WAY,,,,,
,4,FRAUD,900 S  HALE AVENUE,900,S  HALE AVENUE ,Escondido,CA,92029,900 S  HALE AVENUE,,S,,HALE,AVENUE,,,,,
,4,DISORDERLY CONDUCT:UNDER INFLUENCE OF DRUG (M),1300 W  09TH AVENUE,1300,W  09TH AVENUE ,Escondido,CA,92029,1300 W  09TH AVENUE,,W,,09TH,AVENUE,,,,,
,4,POSSESS CONTROLLED SUBSTANCE (M),1400  AUTO PARK WAY,1400, AUTO PARK WAY ,Escondido,CA,92029,1400  AUTO PARK WAY,,,AUTO,PARK,WAY,,,,,
,4,POSS CONTROLLED SUBS PARAPHERNALIA (M),1200  AUTO PARK WAY,1200, AUTO PARK WAY ,Escondido,CA,92029,1200  AUTO PARK WAY,,,AUTO,PARK,WAY,,,,,
,4,USE/UNDER INFL OF CONTROLLED SUBS (M),1300 W  VALLEY PARKWAY,1300,W  VALLEY PARKWAY ,Escondido,CA,92029,1300 W  VALLEY PARKWAY,,W,,VALLEY,PARKWAY,,,,,
,4,ASSAULT W/DEADLY WEAPON:NOT F/ARM (F),1200 W  VALLEY PARKWAY,1200,W  VALLEY PARKWAY ,Escondido,CA,92029,1200 W  VALLEY PARKWAY,,W,,VALLEY,PARKWAY,,,,,
,4,PETTY THEFT(Shoplift) (M),1200  AUTO PARK WAY,1200, AUTO PARK WAY ,Escondido,CA,92029,1200  AUTO PARK WAY,,,AUTO,PARK,WAY,,,,,
,4,SHOPLIFTING (M),1200  AUTO PARK WAY,1200, AUTO PARK WAY ,Escondido,CA,92029,1200  AUTO PARK WAY,,,AUTO,PARK,WAY,,,,,
,4,SHOPLIFTING (M),1300 W  VALLEY PARKWAY,1300,W  VALLEY PARKWAY ,Escondido,CA,92029,1300 W  VALLEY PARKWAY,,W,,VALLEY,PARKWAY,,,,,
,4,COMMERCIAL BURGLARY,1200  AUTO PARK WAY,1200, AUTO PARK WAY ,Escondido,CA,92029,1200  AUTO PARK WAY,,,AUTO,PARK,WAY,,,,,
,4,POSS CONTROLLED SUBS PARAPHERNALIA (M),700  WINDSOR PLACE,700, WINDSOR PLACE  ,Escondido,CA,92029,700  WINDSOR PLACE,,,WINDSOR,PLACE,,,,,,
,4,SIMPLE BATTERY (M),1500 W  VALLEY PARKWAY,1500,W  VALLEY PARKWAY ,Escondido,CA,92029,1500 W  VALLEY PARKWAY,,W,,VALLEY,PARKWAY,,,,,
,4,POSSESS/PURCHASE FOR SALE NARCOTIC/CONTROLLED SUBSTANCE (F),1600 W  09TH AVENUE,1600,W  09TH AVENUE ,Escondido,CA,92029,1600 W  09TH AVENUE,,W,,09TH,AVENUE,,,,,
,4,PETTY THEFT(All Other Larceny) (M),1500 W  VALLEY PARKWAY,1500,W  VALLEY PARKWAY ,Escondido,CA,92029,1500 W  VALLEY PARKWAY,,W,,VALLEY,PARKWAY,,,,,
,4,SHOPLIFTING (M),1200  AUTO PARK WAY,1200, AUTO PARK WAY ,Escondido,CA,92029,1200  AUTO PARK WAY,,,AUTO,PARK,WAY,,,,,
,4,DUI ALCOHOL (M),1200  AUTO PARK WAY,1200, AUTO PARK WAY ,Escondido,CA,92029,1200  AUTO PARK WAY,,,AUTO,PARK,WAY,,,,,
,4,PETTY THEFT(from Building) (M),1200  AUTO PARK WAY,1200, AUTO PARK WAY ,Escondido,CA,92029,1200  AUTO PARK WAY,,,AUTO,PARK,WAY,,,,,
,4,TAKE VEHICLE W/O OWNER'S CONSENT/VEHICLE THEFT (F),1200  AUTO PARK WAY,1200, AUTO PARK WAY ,Escondido,CA,92029,1200  AUTO PARK WAY,,,AUTO,PARK,WAY,,,,,
,4,SHOPLIFTING (M),1200  AUTO PARK WAY,1200, AUTO PARK WAY ,Escondido,CA,92029,1200  AUTO PARK WAY,,,AUTO,PARK,WAY,,,,,
,4,SHOPLIFTING (M),1200  AUTO PARK WAY,1200, AUTO PARK WAY ,Escondido,CA,92029,1200  AUTO PARK WAY,,,AUTO,PARK,WAY,,,,,
,4,VANDALISM ($400 OR MORE) (F),1200  AUTO PARK WAY,1200, AUTO PARK WAY ,Escondido,CA,92029,1200  AUTO PARK WAY,,,AUTO,PARK,WAY,,,,,
,4,USE/UNDER INFL OF CONTROLLED SUBS (M),1200  AUTO PARK WAY,1200, AUTO PARK WAY ,Escondido,CA,92029,1200  AUTO PARK WAY,,,AUTO,PARK,WAY,,,,,
,4,PETTY THEFT(Shoplift) (M),1400  AUTO PARK WAY,1400, AUTO PARK WAY ,Escondido,CA,92029,1400  AUTO PARK WAY,,,AUTO,PARK,WAY,,,,,
,4,DUI ALCOHOL (M),1200 W  VALLEY PARKWAY,1200,W  VALLEY PARKWAY ,Escondido,CA,92029,1200 W  VALLEY PARKWAY,,W,,VALLEY,PARKWAY,,,,,
,4,GRAND THEFT (SHOPLIFT) W/2+ PRIOR CONVICTIONS (F),1200  AUTO PARK WAY,1200, AUTO PARK WAY ,Escondido,CA,92029,1200  AUTO PARK WAY,,,AUTO,PARK,WAY,,,,,
,4,DISORD CONDUCT:ALC (M),1300 W  VALLEY PARKWAY,1300,W  VALLEY PARKWAY ,Escondido,CA,92029,1300 W  VALLEY PARKWAY,,W,,VALLEY,PARKWAY,,,,,
,4,POSS NARCOTIC CONTROLLED SUBS (M),1200  AUTO PARK WAY,1200, AUTO PARK WAY ,Escondido,CA,92029,1200  AUTO PARK WAY,,,AUTO,PARK,WAY,,,,,
,4,TAKE VEHICLE W/O OWNER'S CONSENT/VEHICLE THEFT (F),1400 W  09TH AVENUE,1400,W  09TH AVENUE ,Escondido,CA,92029,1400 W  09TH AVENUE,,W,,09TH,AVENUE,,,,,
,4,DUI ALCOHOL (M),1000 W  VALLEY PARKWAY,1000,W  VALLEY PARKWAY ,Escondido,CA,92029,1000 W  VALLEY PARKWAY,,W,,VALLEY,PARKWAY,,,,,
,4,PETTY THEFT(Shoplift) (M),1200  AUTO PARK WAY,1200, AUTO PARK WAY ,Escondido,CA,92029,1200  AUTO PARK WAY,,,AUTO,PARK,WAY,,,,,
,4,COMMERCIAL ROBBERY - WEAPON USED,1200  AUTO PARK WAY,1200, AUTO PARK WAY ,Escondido,CA,92029,1200  AUTO PARK WAY,,,AUTO,PARK,WAY,,,,,
,4,GRAND THEFT (Shoplifting) (F),1200  AUTO PARK WAY,1200, AUTO PARK WAY ,Escondido,CA,92029,1200  AUTO PARK WAY,,,AUTO,PARK,WAY,,,,,
,4,PETTY THEFT(All Other Larceny) (M),1200  AUTO PARK WAY,1200, AUTO PARK WAY ,Escondido,CA,92029,1200  AUTO PARK WAY,,,AUTO,PARK,WAY,,,,,
,4,STALKING (F),100 N  UPAS STREET,100,N  UPAS STREET ,Escondido,CA,92029,100 N  UPAS STREET,,N,,UPAS,STREET,,,,,
,4,DISORDERLY CONDUCT:UNDER INFLUENCE OF DRUG (M),1200  AUTO PARK WAY,1200, AUTO PARK WAY ,Escondido,CA,92029,1200  AUTO PARK WAY,,,AUTO,PARK,WAY,,,,,
,4,PETTY THEFT(from Building) (M),1300 W  VALLEY PARKWAY,1300,W  VALLEY PARKWAY ,Escondido,CA,92029,1300 W  VALLEY PARKWAY,,W,,VALLEY,PARKWAY,,,,,
,4,GRAND THEFT (SHOPLIFT) W/2+ PRIOR CONVICTIONS (F),1300 W  VALLEY PARKWAY,1300,W  VALLEY PARKWAY ,Escondido,CA,92029,1300 W  VALLEY PARKWAY,,W,,VALLEY,PARKWAY,,,,,
,4,VEHICLE BREAK-IN/THEFT,100 N  HALE AVENUE,100,N  HALE AVENUE ,Escondido,CA,92029,100 N  HALE AVENUE,,N,,HALE,AVENUE,,,,,
,4,USE/UNDER INFL OF CONTROLLED SUBS (M),1200 W  VALLEY PARKWAY,1200,W  VALLEY PARKWAY ,Escondido,CA,92029,1200 W  VALLEY PARKWAY,,W,,VALLEY,PARKWAY,,,,,
,4,GRAND THEFT:DOG [OVER $950] (F),1500 W  VALLEY PARKWAY,1500,W  VALLEY PARKWAY ,Escondido,CA,92029,1500 W  VALLEY PARKWAY,,W,,VALLEY,PARKWAY,,,,,
,4,COMMERCIAL BURGLARY,1200 W  VALLEY PARKWAY,1200,W  VALLEY PARKWAY ,Escondido,CA,92029,1200 W  VALLEY PARKWAY,,W,,VALLEY,PARKWAY,,,,,
,4,PETTY THEFT(All Other Larceny) (M),1200  AUTO PARK WAY,1200, AUTO PARK WAY ,Escondido,CA,92029,1200  AUTO PARK WAY,,,AUTO,PARK,WAY,,,,,
,4,PETTY THEFT(All Other Larceny) (M),1200  AUTO PARK WAY,1200, AUTO PARK WAY ,Escondido,CA,92029,1200  AUTO PARK WAY,,,AUTO,PARK,WAY,,,,,
,4,BURGLARY (COMMERCIAL) (F),1200  AUTO PARK WAY,1200, AUTO PARK WAY ,Escondido,CA,92029,1200  AUTO PARK WAY,,,AUTO,PARK,WAY,,,,,
,4,TAKE VEHICLE W/O OWNER'S CONSENT/VEHICLE THEFT (F),100  LA TERRAZA BOULEVARD,100, LA TERRAZA BOULEVARD ,Escondido,CA,92029,100  LA TERRAZA BOULEVARD,,,LA,TERRAZA,BOULEVARD,,,,,
,4,TREATMENT-MANDATED FELONY HARD DRUGS W/2 PRIORS (F,1200  AUTO PARK WAY,1200, AUTO PARK WAY ,Escondido,CA,92029,1200  AUTO PARK WAY,,,AUTO,PARK,WAY,,,,,
,4,GRAND THEFT (SHOPLIFT) W/2+ PRIOR CONVICTIONS (F),1200  AUTO PARK WAY,1200, AUTO PARK WAY ,Escondido,CA,92029,1200  AUTO PARK WAY,,,AUTO,PARK,WAY,,,,,
,4,POSS NARCOTIC CONTROLLED SUBS (M),1600 W  VALLEY PARKWAY,1600,W  VALLEY PARKWAY ,Escondido,CA,92029,1600 W  VALLEY PARKWAY,,W,,VALLEY,PARKWAY,,,,,
,4,VEHICLE BREAK-IN/THEFT,1300 W  09TH AVENUE,1300,W  09TH AVENUE ,Escondido,CA,92029,1300 W  09TH AVENUE,,W,,09TH,AVENUE,,,,,
,4,PETTY THEFT(Shoplift) (M),1300 W  VALLEY PARKWAY,1300,W  VALLEY PARKWAY ,Escondido,CA,92029,1300 W  VALLEY PARKWAY,,W,,VALLEY,PARKWAY,,,,,
,4,VEHICLE BREAK-IN/THEFT,400  LA TERRAZA BOULEVARD,400, LA TERRAZA BOULEVARD ,Escondido,CA,92029,400  LA TERRAZA BOULEVARD,,,LA,TERRAZA,BOULEVARD,,,,,
,4,OTHER SEX CRIME,1200  AUTO PARK WAY,1200, AUTO PARK WAY ,Escondido,CA,92029,1200  AUTO PARK WAY,,,AUTO,PARK,WAY,,,,,
,4,PETTY THEFT(from Building) (M),1200  AUTO PARK WAY,1200, AUTO PARK WAY ,Escondido,CA,92029,1200  AUTO PARK WAY,,,AUTO,PARK,WAY,,,,,
,4,TREATMENT-MANDATED FELONY HARD DRUGS W/2 PRIORS (F,1300 W  VALLEY PARKWAY,1300,W  VALLEY PARKWAY ,Escondido,CA,92029,1300 W  VALLEY PARKWAY,,W,,VALLEY,PARKWAY,,,,,
,4,POSSESS CONTROLLED SUBSTANCE (M),1200  AUTO PARK WAY,1200, AUTO PARK WAY ,Escondido,CA,92029,1200  AUTO PARK WAY,,,AUTO,PARK,WAY,,,,,
,4,DUI ALCOHOL (M),900 W  VALLEY PARKWAY,900,W  VALLEY PARKWAY ,Escondido,CA,92029,900 W  VALLEY PARKWAY,,W,,VALLEY,PARKWAY,,,,,
,4,PETTY THEFT(Shoplift) (M),1200  AUTO PARK WAY,1200, AUTO PARK WAY ,Escondido,CA,92029,1200  AUTO PARK WAY,,,AUTO,PARK,WAY,,,,,
,4,DISORD CONDUCT:ALC (M),1300 W  VALLEY PARKWAY,1300,W  VALLEY PARKWAY ,Escondido,CA,92029,1300 W  VALLEY PARKWAY,,W,,VALLEY,PARKWAY,,,,,
,4,VANDALISM ($400 OR MORE) (F),1200  AUTO PARK WAY,1200, AUTO PARK WAY ,Escondido,CA,92029,1200  AUTO PARK WAY,,,AUTO,PARK,WAY,,,,,
,4,SHOOT AT INHABITED DWELLING/VEH (F),1200 W  VALLEY PARKWAY,1200,W  VALLEY PARKWAY ,Escondido,CA,92029,1200 W  VALLEY PARKWAY,,W,,VALLEY,PARKWAY,,,,,
,4,SHOPLIFTING (M),1300 W  VALLEY PARKWAY,1300,W  VALLEY PARKWAY ,Escondido,CA,92029,1300 W  VALLEY PARKWAY,,W,,VALLEY,PARKWAY,,,,,
,4,USE/UNDER INFL OF CONTROLLED SUBS (M),1500 W  VALLEY PARKWAY,1500,W  VALLEY PARKWAY ,Escondido,CA,92029,1500 W  VALLEY PARKWAY,,W,,VALLEY,PARKWAY,,,,,
,4,BATTERY ON PERSON ON SCHOOL/HOSPITAL/PARK PROPERTY (M),1400 W  09TH AVENUE,1400,W  09TH AVENUE ,Escondido,CA,92029,1400 W  09TH AVENUE,,W,,09TH,AVENUE,,,,,
,4,USE/UNDER INFL OF CONTROLLED SUBS (M),1500 W  VALLEY PARKWAY,1500,W  VALLEY PARKWAY ,Escondido,CA,92029,1500 W  VALLEY PARKWAY,,W,,VALLEY,PARKWAY,,,,,
,4,SHOPLIFTING (M),1200  AUTO PARK WAY,1200, AUTO PARK WAY ,Escondido,CA,92029,1200  AUTO PARK WAY,,,AUTO,PARK,WAY,,,,,
,4,DISORDERLY CONDUCT:INTOX DRUG WITH ALCOHOL (M),1500 W  VALLEY PARKWAY,1500,W  VALLEY PARKWAY ,Escondido,CA,92029,1500 W  VALLEY PARKWAY,,W,,VALLEY,PARKWAY,,,,,
,4,VEHICLE BREAK-IN/THEFT,1200  AUTO PARK WAY,1200, AUTO PARK WAY ,Escondido,CA,92029,1200  AUTO PARK WAY,,,AUTO,PARK,WAY,,,,,
,4,VEHICLE BREAK-IN/THEFT,300 N  HALE AVENUE,300,N  HALE AVENUE ,Escondido,CA,92029,300 N  HALE AVENUE,,N,,HALE,AVENUE,,,,,
,4,SHOPLIFTING (M),1200  AUTO PARK WAY,1200, AUTO PARK WAY ,Escondido,CA,92029,1200  AUTO PARK WAY,,,AUTO,PARK,WAY,,,,,
,4,COMMERCIAL BURGLARY,1200  AUTO PARK WAY,1200, AUTO PARK WAY ,Escondido,CA,92029,1200  AUTO PARK WAY,,,AUTO,PARK,WAY,,,,,
,4,PETTY THEFT(All Other Larceny) (M),1500 W  VALLEY PARKWAY,1500,W  VALLEY PARKWAY ,Escondido,CA,92029,1500 W  VALLEY PARKWAY,,W,,VALLEY,PARKWAY,,,,,
,4,PETTY THEFT(Pocket Picking) (M),1300 W  VALLEY PARKWAY,1300,W  VALLEY PARKWAY ,Escondido,CA,92029,1300 W  VALLEY PARKWAY,,W,,VALLEY,PARKWAY,,,,,
,4,PETTY THEFT(Shoplift) (M),1200  AUTO PARK WAY,1200, AUTO PARK WAY ,Escondido,CA,92029,1200  AUTO PARK WAY,,,AUTO,PARK,WAY,,,,,
,4,VEHICLE BREAK-IN/THEFT,1200  AUTO PARK WAY,1200, AUTO PARK WAY ,Escondido,CA,92029,1200  AUTO PARK WAY,,,AUTO,PARK,WAY,,,,,
,4,VANDALISM ($400 OR MORE) (F),1200  AUTO PARK WAY,1200, AUTO PARK WAY ,Escondido,CA,92029,1200  AUTO PARK WAY,,,AUTO,PARK,WAY,,,,,
,4,PETTY THEFT(All Other Larceny) (M),300  VINE STREET,300, VINE STREET  ,Escondido,CA,92029,300  VINE STREET,,,VINE,STREET,,,,,,
,4,GRAND THEFT (Shoplifting) (F),1200  AUTO PARK WAY,1200, AUTO PARK WAY ,Escondido,CA,92029,1200  AUTO PARK WAY,,,AUTO,PARK,WAY,,,,,
,4,USE/UNDER INFL OF CONTROLLED SUBS (M),1000 W  VALLEY PARKWAY,1000,W  VALLEY PARKWAY ,Escondido,CA,92029,1000 W  VALLEY PARKWAY,,W,,VALLEY,PARKWAY,,,,,
,4,COMMERCIAL BURGLARY,1300 W  VALLEY PARKWAY,1300,W  VALLEY PARKWAY ,Escondido,CA,92029,1300 W  VALLEY PARKWAY,,W,,VALLEY,PARKWAY,,,,,
,4,COMMERCIAL BURGLARY,1300 W  VALLEY PARKWAY,1300,W  VALLEY PARKWAY ,Escondido,CA,92029,1300 W  VALLEY PARKWAY,,W,,VALLEY,PARKWAY,,,,,
,4,PETTY THEFT(Shoplift) (M),1200  AUTO PARK WAY,1200, AUTO PARK WAY ,Escondido,CA,92029,1200  AUTO PARK WAY,,,AUTO,PARK,WAY,,,,,
,4,POSS CONTROLLED SUBS PARAPHERNALIA (M),100  LA TERRAZA BOULEVARD,100, LA TERRAZA BOULEVARD ,Escondido,CA,92029,100  LA TERRAZA BOULEVARD,,,LA,TERRAZA,BOULEVARD,,,,,
,4,SHOPLIFTING (M),1200  AUTO PARK WAY,1200, AUTO PARK WAY ,Escondido,CA,92029,1200  AUTO PARK WAY,,,AUTO,PARK,WAY,,,,,
,4,POSS NARCOTIC CONTROLLED SUBS (M),800 W  VALLEY PARKWAY,800,W  VALLEY PARKWAY ,Escondido,CA,92029,800 W  VALLEY PARKWAY,,W,,VALLEY,PARKWAY,,,,,
,4,SIMPLE BATTERY (M),1200  AUTO PARK WAY,1200, AUTO PARK WAY ,Escondido,CA,92029,1200  AUTO PARK WAY,,,AUTO,PARK,WAY,,,,,
,4,PETTY THEFT(Shoplift) (M),1200  AUTO PARK WAY,1200, AUTO PARK WAY ,Escondido,CA,92029,1200  AUTO PARK WAY,,,AUTO,PARK,WAY,,,,,
,4,SHOPLIFTING (M),1300 W  VALLEY PARKWAY,1300,W  VALLEY PARKWAY ,Escondido,CA,92029,1300 W  VALLEY PARKWAY,,W,,VALLEY,PARKWAY,,,,,
,4,VEHICLE BREAK-IN/THEFT,1200  AUTO PARK WAY,1200, AUTO PARK WAY ,Escondido,CA,92029,1200  AUTO PARK WAY,,,AUTO,PARK,WAY,,,,,
,4,GRAND THEFT (Shoplifting) (F),1200  AUTO PARK WAY,1200, AUTO PARK WAY ,Escondido,CA,92029,1200  AUTO PARK WAY,,,AUTO,PARK,WAY,,,,,
,4,GRAND THEFT:MONEY/LABOR/PROPERTY (F),1700  AUTO PARK WAY,1700, AUTO PARK WAY ,Escondido,CA,92029,1700  AUTO PARK WAY,,,AUTO,PARK,WAY,,,,,
,4,PETTY THEFT(Shoplift) (M),1200  AUTO PARK WAY,1200, AUTO PARK WAY ,Escondido,CA,92029,1200  AUTO PARK WAY,,,AUTO,PARK,WAY,,,,,
,4,SHOPLIFTING (M),1200  AUTO PARK WAY,1200, AUTO PARK WAY ,Escondido,CA,92029,1200  AUTO PARK WAY,,,AUTO,PARK,WAY,,,,,
,4,SHOPLIFTING (M),1200  AUTO PARK WAY,1200, AUTO PARK WAY ,Escondido,CA,92029,1200  AUTO PARK WAY,,,AUTO,PARK,WAY,,,,,
,4,DUI ALCOHOL (M),1000 W  VALLEY PARKWAY,1000,W  VALLEY PARKWAY ,Escondido,CA,92029,1000 W  VALLEY PARKWAY,,W,,VALLEY,PARKWAY,,,,,
,4,SHOPLIFTING (M),1200  AUTO PARK WAY,1200, AUTO PARK WAY ,Escondido,CA,92029,1200  AUTO PARK WAY,,,AUTO,PARK,WAY,,,,,
,4,FRAUD,1200  AUTO PARK WAY,1200, AUTO PARK WAY ,Escondido,CA,92029,1200  AUTO PARK WAY,,,AUTO,PARK,WAY,,,,,
,4,COMMERCIAL BURGLARY,1300 W  VALLEY PARKWAY,1300,W  VALLEY PARKWAY ,Escondido,CA,92029,1300 W  VALLEY PARKWAY,,W,,VALLEY,PARKWAY,,,,,
,4,FRAUD,1200 W  VALLEY PARKWAY,1200,W  VALLEY PARKWAY ,Escondido,CA,92029,1200 W  VALLEY PARKWAY,,W,,VALLEY,PARKWAY,,,,,
,4,GRAND THEFT (Shoplifting) (F),1200  AUTO PARK WAY,1200, AUTO PARK WAY ,Escondido,CA,92029,1200  AUTO PARK WAY,,,AUTO,PARK,WAY,,,,,
,4,COMMERCIAL BURGLARY,1500 W  VALLEY PARKWAY,1500,W  VALLEY PARKWAY ,Escondido,CA,92029,1500 W  VALLEY PARKWAY,,W,,VALLEY,PARKWAY,,,,,
,4,DISORD CONDUCT:ALC (M),1200 W  VALLEY PARKWAY,1200,W  VALLEY PARKWAY ,Escondido,CA,92029,1200 W  VALLEY PARKWAY,,W,,VALLEY,PARKWAY,,,,,
,4,PETTY THEFT(Shoplift) (M),1200  AUTO PARK WAY,1200, AUTO PARK WAY ,Escondido,CA,92029,1200  AUTO PARK WAY,,,AUTO,PARK,WAY,,,,,
,4,PETTY THEFT(Shoplift) (M),1200  AUTO PARK WAY,1200, AUTO PARK WAY ,Escondido,CA,92029,1200  AUTO PARK WAY,,,AUTO,PARK,WAY,,,,,
,4,DUI ALCOHOL (M),1300 W  09TH AVENUE,1300,W  09TH AVENUE ,Escondido,CA,92029,1300 W  09TH AVENUE,,W,,09TH,AVENUE,,,,,
,4,COMMERCIAL BURGLARY,1200  AUTO PARK WAY,1200, AUTO PARK WAY ,Escondido,CA,92029,1200  AUTO PARK WAY,,,AUTO,PARK,WAY,,,,,
,4,PETTY THEFT(All Other Larceny) (M),1200  AUTO PARK WAY,1200, AUTO PARK WAY ,Escondido,CA,92029,1200  AUTO PARK WAY,,,AUTO,PARK,WAY,,,,,
,4,GRAND THEFT:MONEY/LABOR/PROPERTY (F),100 S  TULIP STREET,100,S  TULIP STREET ,Escondido,CA,92029,100 S  TULIP STREET,,S,,TULIP,STREET,,,,,
,4,CARRY CONCEALED DIRK OR DAGGER (F),900  DEL DIOS ROAD,900, DEL DIOS ROAD ,Escondido,CA,92029,900  DEL DIOS ROAD,,,DEL,DIOS,ROAD,,,,,
,4,PETTY THEFT(Shoplift) (M),1300 W  VALLEY PARKWAY,1300,W  VALLEY PARKWAY ,Escondido,CA,92029,1300 W  VALLEY PARKWAY,,W,,VALLEY,PARKWAY,,,,,
,4,CARRY CONCEALED WEAPON ON PERSON (F),1300 W  VALLEY PARKWAY,1300,W  VALLEY PARKWAY ,Escondido,CA,92029,1300 W  VALLEY PARKWAY,,W,,VALLEY,PARKWAY,,,,,
,4,COMMERCIAL BURGLARY,1200  AUTO PARK WAY,1200, AUTO PARK WAY ,Escondido,CA,92029,1200  AUTO PARK WAY,,,AUTO,PARK,WAY,,,,,
,4,PETTY THEFT(All Other Larceny) (M),700  LA TERRAZA BOULEVARD,700, LA TERRAZA BOULEVARD ,Escondido,CA,92029,700  LA TERRAZA BOULEVARD,,,LA,TERRAZA,BOULEVARD,,,,,
,4,VEHICLE BREAK-IN/THEFT,1500 W  VALLEY PARKWAY,1500,W  VALLEY PARKWAY ,Escondido,CA,92029,1500 W  VALLEY PARKWAY,,W,,VALLEY,PARKWAY,,,,,
,4,USE/UNDER INFL OF CONTROLLED SUBS (M),1300 W  VALLEY PARKWAY,1300,W  VALLEY PARKWAY ,Escondido,CA,92029,1300 W  VALLEY PARKWAY,,W,,VALLEY,PARKWAY,,,,,
,4,DUI ALCOHOL:CAUSING BODILY INJURY (F),1000 W  VALLEY PARKWAY,1000,W  VALLEY PARKWAY ,Escondido,CA,92029,1000 W  VALLEY PARKWAY,,W,,VALLEY,PARKWAY,,,,,
,4,PETTY THEFT(All Other Larceny) (M),1200  AUTO PARK WAY,1200, AUTO PARK WAY ,Escondido,CA,92029,1200  AUTO PARK WAY,,,AUTO,PARK,WAY,,,,,
,4,PETTY THEFT(Shoplift) (M),1200  AUTO PARK WAY,1200, AUTO PARK WAY ,Escondido,CA,92029,1200  AUTO PARK WAY,,,AUTO,PARK,WAY,,,,,
,4,DISORD CONDUCT:ALC (M),1200  AUTO PARK WAY,1200, AUTO PARK WAY ,Escondido,CA,92029,1200  AUTO PARK WAY,,,AUTO,PARK,WAY,,,,,
,4,PETTY THEFT(All Other Larceny) (M),1500 W  VALLEY PARKWAY,1500,W  VALLEY PARKWAY ,Escondido,CA,92029,1500 W  VALLEY PARKWAY,,W,,VALLEY,PARKWAY,,,,,
,4,DISORDERLY CONDUCT:UNDER INFLUENCE OF DRUG (M),1200  AUTO PARK WAY,1200, AUTO PARK WAY ,Escondido,CA,92029,1200  AUTO PARK WAY,,,AUTO,PARK,WAY,,,,,
,4,SHOPLIFTING (M),1300 W  VALLEY PARKWAY,1300,W  VALLEY PARKWAY ,Escondido,CA,92029,1300 W  VALLEY PARKWAY,,W,,VALLEY,PARKWAY,,,,,
,4,SHOPLIFTING (M),1300 W  VALLEY PARKWAY,1300,W  VALLEY PARKWAY ,Escondido,CA,92029,1300 W  VALLEY PARKWAY,,W,,VALLEY,PARKWAY,,,,,
,4,VANDALISM [$400 OR LESS] (M),800 W  VALLEY PARKWAY,800,W  VALLEY PARKWAY ,Escondido,CA,92029,800 W  VALLEY PARKWAY,,W,,VALLEY,PARKWAY,,,,,
,4,PETTY THEFT(Shoplift) (M),1200  AUTO PARK WAY,1200, AUTO PARK WAY ,Escondido,CA,92029,1200  AUTO PARK WAY,,,AUTO,PARK,WAY,,,,,
,4,DISORD CONDUCT:ALC (M),1300 W  VALLEY PARKWAY,1300,W  VALLEY PARKWAY ,Escondido,CA,92029,1300 W  VALLEY PARKWAY,,W,,VALLEY,PARKWAY,,,,,
,4,PETTY THEFT(Shoplift) (M),1200  AUTO PARK WAY,1200, AUTO PARK WAY ,Escondido,CA,92029,1200  AUTO PARK WAY,,,AUTO,PARK,WAY,,,,,
,4,COMMERCIAL BURGLARY,1300 W  VALLEY PARKWAY,1300,W  VALLEY PARKWAY ,Escondido,CA,92029,1300 W  VALLEY PARKWAY,,W,,VALLEY,PARKWAY,,,,,
,4,PETTY THEFT(from Building) (M),1200  AUTO PARK WAY,1200, AUTO PARK WAY ,Escondido,CA,92029,1200  AUTO PARK WAY,,,AUTO,PARK,WAY,,,,,
,4,SHOPLIFTING (M),1200  AUTO PARK WAY,1200, AUTO PARK WAY ,Escondido,CA,92029,1200  AUTO PARK WAY,,,AUTO,PARK,WAY,,,,,
,4,PETTY THEFT(Shoplift) (M),1200  AUTO PARK WAY,1200, AUTO PARK WAY ,Escondido,CA,92029,1200  AUTO PARK WAY,,,AUTO,PARK,WAY,,,,,
,4,TAKE VEHICLE W/O OWNER'S CONSENT/VEHICLE THEFT (F),900  DEL DIOS ROAD,900, DEL DIOS ROAD ,Escondido,CA,92029,900  DEL DIOS ROAD,,,DEL,DIOS,ROAD,,,,,
,4,GRAND THEFT:MONEY/LABOR/PROPERTY (F),500 N  TULIP STREET,500,N  TULIP STREET ,Escondido,CA,92029,500 N  TULIP STREET,,N,,TULIP,STREET,,,,,
,4,VEHICLE BREAK-IN/THEFT,1200  AUTO PARK WAY,1200, AUTO PARK WAY ,Escondido,CA,92029,1200  AUTO PARK WAY,,,AUTO,PARK,WAY,,,,,
,4,WILLFUL CRUELTY TO CHILD: WITH INJURY/DEATH (F),900  DEL DIOS ROAD,900, DEL DIOS ROAD ,Escondido,CA,92029,900  DEL DIOS ROAD,,,DEL,DIOS,ROAD,,,,,
,4,COMMERCIAL BURGLARY,1200  AUTO PARK WAY,1200, AUTO PARK WAY ,Escondido,CA,92029,1200  AUTO PARK WAY,,,AUTO,PARK,WAY,,,,,
,4,GRAND THEFT:MONEY/LABOR/PROPERTY (F),1300  AUTO PARK WAY,1300, AUTO PARK WAY ,Escondido,CA,92029,1300  AUTO PARK WAY,,,AUTO,PARK,WAY,,,,,
,4,VEHICLE BREAK-IN/THEFT,400  LA TERRAZA BOULEVARD,400, LA TERRAZA BOULEVARD ,Escondido,CA,92029,400  LA TERRAZA BOULEVARD,,,LA,TERRAZA,BOULEVARD,,,,,
,4,PETTY THEFT(Shoplift) (M),1500 W  VALLEY PARKWAY,1500,W  VALLEY PARKWAY ,Escondido,CA,92029,1500 W  VALLEY PARKWAY,,W,,VALLEY,PARKWAY,,,,,
,4,OBSTRUCT/RESIST EXECUTIVE OFFICER WITH MINOR INJURY (F),900 W  VALLEY PARKWAY,900,W  VALLEY PARKWAY ,Escondido,CA,92029,900 W  VALLEY PARKWAY,,W,,VALLEY,PARKWAY,,,,,
,4,POSS CONTROLLED SUBS PARAPHERNALIA (M),1600 W  09TH AVENUE,1600,W  09TH AVENUE ,Escondido,CA,92029,1600 W  09TH AVENUE,,W,,09TH,AVENUE,,,,,
,4,PETTY THEFT(All Other Larceny) (M),1200  AUTO PARK WAY,1200, AUTO PARK WAY ,Escondido,CA,92029,1200  AUTO PARK WAY,,,AUTO,PARK,WAY,,,,,
,4,TAKE VEHICLE W/O OWNER'S CONSENT/VEHICLE THEFT (F),1000  DEL DIOS ROAD,1000, DEL DIOS ROAD ,Escondido,CA,92029,1000  DEL DIOS ROAD,,,DEL,DIOS,ROAD,,,,,
,4,DISORD CONDUCT:ALC (M),900  DEL DIOS ROAD,900, DEL DIOS ROAD ,Escondido,CA,92029,900  DEL DIOS ROAD,,,DEL,DIOS,ROAD,,,,,
,4,TAMPER WITH VEH,1600 W  09TH AVENUE,1600,W  09TH AVENUE ,Escondido,CA,92029,1600 W  09TH AVENUE,,W,,09TH,AVENUE,,,,,
,4,PETTY THEFT(Shoplift) (M),1200  AUTO PARK WAY,1200, AUTO PARK WAY ,Escondido,CA,92029,1200  AUTO PARK WAY,,,AUTO,PARK,WAY,,,,,
,4,BATTERY ON PERSON (M),100  LA TERRAZA BOULEVARD,100, LA TERRAZA BOULEVARD ,Escondido,CA,92029,100  LA TERRAZA BOULEVARD,,,LA,TERRAZA,BOULEVARD,,,,,
,4,GRAND THEFT (Shoplifting) (F),1300 W  VALLEY PARKWAY,1300,W  VALLEY PARKWAY ,Escondido,CA,92029,1300 W  VALLEY PARKWAY,,W,,VALLEY,PARKWAY,,,,,
,4,ASSAULT W/DEADLY WEAPON:NOT F/ARM (F),1500 W  09TH AVENUE,1500,W  09TH AVENUE ,Escondido,CA,92029,1500 W  09TH AVENUE,,W,,09TH,AVENUE,,,,,
,4,THEFT (M),1200  AUTO PARK WAY,1200, AUTO PARK WAY ,Escondido,CA,92029,1200  AUTO PARK WAY,,,AUTO,PARK,WAY,,,,,
,4,GRAND THEFT:MONEY/LABOR/PROPERTY (F),1200  AUTO PARK WAY,1200, AUTO PARK WAY ,Escondido,CA,92029,1200  AUTO PARK WAY,,,AUTO,PARK,WAY,,,,,
,4,OTHER SEX CRIME,1300 W  09TH AVENUE,1300,W  09TH AVENUE ,Escondido,CA,92029,1300 W  09TH AVENUE,,W,,09TH,AVENUE,,,,,
,4,COMMERCIAL BURGLARY,900 W  VALLEY PARKWAY,900,W  VALLEY PARKWAY ,Escondido,CA,92029,900 W  VALLEY PARKWAY,,W,,VALLEY,PARKWAY,,,,,
,4,COMMERCIAL BURGLARY,1300 W  VALLEY PARKWAY,1300,W  VALLEY PARKWAY ,Escondido,CA,92029,1300 W  VALLEY PARKWAY,,W,,VALLEY,PARKWAY,,,,,
,4,DISORD CONDUCT:ALC (M),1300 W  VALLEY PARKWAY,1300,W  VALLEY PARKWAY ,Escondido,CA,92029,1300 W  VALLEY PARKWAY,,W,,VALLEY,PARKWAY,,,,,
,4,PETTY THEFT(Shoplift) (M),1200  AUTO PARK WAY,1200, AUTO PARK WAY ,Escondido,CA,92029,1200  AUTO PARK WAY,,,AUTO,PARK,WAY,,,,,
,4,GRAND THEFT:AUTO (F),1200  AUTO PARK WAY,1200, AUTO PARK WAY ,Escondido,CA,92029,1200  AUTO PARK WAY,,,AUTO,PARK,WAY,,,,,
,4,PETTY THEFT(All Other Larceny) (M),1200 W  VALLEY PARKWAY,1200,W  VALLEY PARKWAY ,Escondido,CA,92029,1200 W  VALLEY PARKWAY,,W,,VALLEY,PARKWAY,,,,,
,4,ASSAULT W/DEADLY WEAPON:NOT F/ARM (F),1400 W  09TH AVENUE,1400,W  09TH AVENUE ,Escondido,CA,92029,1400 W  09TH AVENUE,,W,,09TH,AVENUE,,,,,
,4,GRAND THEFT:MONEY/LABOR/PROPERTY (F),1500 W  VALLEY PARKWAY,1500,W  VALLEY PARKWAY ,Escondido,CA,92029,1500 W  VALLEY PARKWAY,,W,,VALLEY,PARKWAY,,,,,
,4,ANNOYING PHONE CALL OBSCENE/THREATENING - INTIMIDATION (M),1200  AUTO PARK WAY,1200, AUTO PARK WAY ,Escondido,CA,92029,1200  AUTO PARK WAY,,,AUTO,PARK,WAY,,,,,
,4,DISORDERLY CONDUCT:INTOX DRUG WITH ALCOHOL (M),1200 W  VALLEY PARKWAY,1200,W  VALLEY PARKWAY ,Escondido,CA,92029,1200 W  VALLEY PARKWAY,,W,,VALLEY,PARKWAY,,,,,
,4,PETTY THEFT(Shoplift) (M),1200  AUTO PARK WAY,1200, AUTO PARK WAY ,Escondido,CA,92029,1200  AUTO PARK WAY,,,AUTO,PARK,WAY,,,,,
,4,PETTY THEFT(All Other Larceny) (M),1500 W  VALLEY PARKWAY,1500,W  VALLEY PARKWAY ,Escondido,CA,92029,1500 W  VALLEY PARKWAY,,W,,VALLEY,PARKWAY,,,,,
,4,VANDALISM [$400 OR LESS] (M),900  DEL DIOS ROAD,900, DEL DIOS ROAD ,Escondido,CA,92029,900  DEL DIOS ROAD,,,DEL,DIOS,ROAD,,,,,
,4,SIMPLE BATTERY (M),1200  AUTO PARK WAY,1200, AUTO PARK WAY ,Escondido,CA,92029,1200  AUTO PARK WAY,,,AUTO,PARK,WAY,,,,,
,4,VANDALISM ($400 OR MORE) (F),900 S  HALE AVENUE,900,S  HALE AVENUE ,Escondido,CA,92029,900 S  HALE AVENUE,,S,,HALE,AVENUE,,,,,
,4,SHOPLIFTING (M),1300 W  VALLEY PARKWAY,1300,W  VALLEY PARKWAY ,Escondido,CA,92029,1300 W  VALLEY PARKWAY,,W,,VALLEY,PARKWAY,,,,,
,4,POSS NARCOTIC CONTROLLED SUBS (F),100  LA TERRAZA BOULEVARD,100, LA TERRAZA BOULEVARD ,Escondido,CA,92029,100  LA TERRAZA BOULEVARD,,,LA,TERRAZA,BOULEVARD,,,,,
,4,SHOPLIFTING (M),1300 W  VALLEY PARKWAY,1300,W  VALLEY PARKWAY ,Escondido,CA,92029,1300 W  VALLEY PARKWAY,,W,,VALLEY,PARKWAY,,,,,
,4,THREATEN CRIME WITH INTENT TO TERRORIZE (M),900  DEL DIOS ROAD,900, DEL DIOS ROAD ,Escondido,CA,92029,900  DEL DIOS ROAD,,,DEL,DIOS,ROAD,,,,,
,4,PETTY THEFT(Shoplift) (M),1200  AUTO PARK WAY,1200, AUTO PARK WAY ,Escondido,CA,92029,1200  AUTO PARK WAY,,,AUTO,PARK,WAY,,,,,
,4,DUI ALCOHOL (M),1500 W  VALLEY PARKWAY,1500,W  VALLEY PARKWAY ,Escondido,CA,92029,1500 W  VALLEY PARKWAY,,W,,VALLEY,PARKWAY,,,,,
,4,GRAND THEFT (Shoplifting) (F),1000 W  VALLEY PARKWAY,1000,W  VALLEY PARKWAY ,Escondido,CA,92029,1000 W  VALLEY PARKWAY,,W,,VALLEY,PARKWAY,,,,,
,4,PETTY THEFT(All Other Larceny) (M),1500 W  VALLEY PARKWAY,1500,W  VALLEY PARKWAY ,Escondido,CA,92029,1500 W  VALLEY PARKWAY,,W,,VALLEY,PARKWAY,,,,,
,4,THREATEN SCHOOL/PUBLIC OFCR/EMPLOYEE (F),1400 W  09TH AVENUE,1400,W  09TH AVENUE ,Escondido,CA,92029,1400 W  09TH AVENUE,,W,,09TH,AVENUE,,,,,
,4,DISORDERLY CONDUCT:INTOX DRUG WITH ALCOHOL (M),1300 W  VALLEY PARKWAY,1300,W  VALLEY PARKWAY ,Escondido,CA,92029,1300 W  VALLEY PARKWAY,,W,,VALLEY,PARKWAY,,,,,
,4,VANDALISM ($400 OR MORE) (F),1200  AUTO PARK WAY,1200, AUTO PARK WAY ,Escondido,CA,92029,1200  AUTO PARK WAY,,,AUTO,PARK,WAY,,,,,
"443 College Blvd, Oceanside, CA 92057",5,PETTY THEFT(Shoplift) (M),4900  NORTH RIVER ROAD,4900, NORTH RIVER ROAD ,Oceanside,CA,92057,4900  NORTH RIVER ROAD,,,NORTH,RIVER,ROAD,,,,,
,5,PETTY THEFT(Shoplift) (M),4900  NORTH RIVER ROAD,4900, NORTH RIVER ROAD ,Oceanside,CA,92057,4900  NORTH RIVER ROAD,,,NORTH,RIVER,ROAD,,,,,
,5,GRAND THEFT:MONEY/LABOR/PROPERTY (F),700  COLLEGE BOULEVARD,700, COLLEGE BOULEVARD  ,Oceanside,CA,92057,700  COLLEGE BOULEVARD,,,COLLEGE,BOULEVARD,,,,,,
,5,ASSAULT W/DEADLY WEAPON:NOT F/ARM (F),ANDREW JACKSON STREET & POLK STREET,,JACKSON STREET & POLK STREET,Oceanside,CA,92057,ANDREW JACKSON STREET & POLK STREET,,JACKSON,STREET,&,POLK,STREET,,,,
,5,PETTY THEFT(Shoplift) (M),400  COLLEGE BOULEVARD,400, COLLEGE BOULEVARD  ,Oceanside,CA,92057,400  COLLEGE BOULEVARD,,,COLLEGE,BOULEVARD,,,,,,
,5,THREATEN EXECUTIVE OFFICER WITH VIOLENCE (F),400  COLLEGE BOULEVARD,400, COLLEGE BOULEVARD  ,Oceanside,CA,92057,400  COLLEGE BOULEVARD,,,COLLEGE,BOULEVARD,,,,,,
,5,FRAUD,700  COLLEGE BOULEVARD,700, COLLEGE BOULEVARD  ,Oceanside,CA,92057,700  COLLEGE BOULEVARD,,,COLLEGE,BOULEVARD,,,,,,
,5,MINOR POSS ALC (M),ADAMS STREET & COLLEGE BOULEVARD,,STREET & COLLEGE BOULEVARD ,Oceanside,CA,92057,ADAMS STREET & COLLEGE BOULEVARD,,STREET,&,COLLEGE,BOULEVARD,,,,,
,5,MINOR POSS ALC (M),ADAMS STREET & COLLEGE BOULEVARD,,STREET & COLLEGE BOULEVARD ,Oceanside,CA,92057,ADAMS STREET & COLLEGE BOULEVARD,,STREET,&,COLLEGE,BOULEVARD,,,,,
,5,PETTY THEFT(Shoplift) (M),700  COLLEGE BOULEVARD,700, COLLEGE BOULEVARD  ,Oceanside,CA,92057,700  COLLEGE BOULEVARD,,,COLLEGE,BOULEVARD,,,,,,
,5,SHOPLIFTING (M),400  COLLEGE BOULEVARD,400, COLLEGE BOULEVARD  ,Oceanside,CA,92057,400  COLLEGE BOULEVARD,,,COLLEGE,BOULEVARD,,,,,,
,5,PETTY THEFT(All Other Larceny) (M),700  COLLEGE BOULEVARD,700, COLLEGE BOULEVARD  ,Oceanside,CA,92057,700  COLLEGE BOULEVARD,,,COLLEGE,BOULEVARD,,,,,,
,5,SIMPLE BATTERY (M),400  COLLEGE BOULEVARD,400, COLLEGE BOULEVARD  ,Oceanside,CA,92057,400  COLLEGE BOULEVARD,,,COLLEGE,BOULEVARD,,,,,,
,5,VANDALISM ($400 OR MORE) (F),400  COLLEGE BOULEVARD,400, COLLEGE BOULEVARD  ,Oceanside,CA,92057,400  COLLEGE BOULEVARD,,,COLLEGE,BOULEVARD,,,,,,
,5,PETTY THEFT(Shoplift) (M),400  COLLEGE BOULEVARD,400, COLLEGE BOULEVARD  ,Oceanside,CA,92057,400  COLLEGE BOULEVARD,,,COLLEGE,BOULEVARD,,,,,,
,5,VANDALISM ($400 OR MORE) (F),400  COLLEGE BOULEVARD,400, COLLEGE BOULEVARD  ,Oceanside,CA,92057,400  COLLEGE BOULEVARD,,,COLLEGE,BOULEVARD,,,,,,
,5,VANDALISM ($400 OR MORE) (F),200  OCOTILLO PLACE,200, OCOTILLO PLACE  ,Oceanside,CA,92057,200  OCOTILLO PLACE,,,OCOTILLO,PLACE,,,,,,
,5,COMMERCIAL ROBBERY - WEAPON USED,400  COLLEGE BOULEVARD,400, COLLEGE BOULEVARD  ,Oceanside,CA,92057,400  COLLEGE BOULEVARD,,,COLLEGE,BOULEVARD,,,,,,
,5,PETTY THEFT(All Other Larceny) (M),4700  YUMA AVENUE,4700, YUMA AVENUE  ,Oceanside,CA,92057,4700  YUMA AVENUE,,,YUMA,AVENUE,,,,,,
,5,VANDALISM [$400 OR LESS] (M),4800  YUMA AVENUE,4800, YUMA AVENUE  ,Oceanside,CA,92057,4800  YUMA AVENUE,,,YUMA,AVENUE,,,,,,
,5,FRAUD,600  COLLEGE BOULEVARD,600, COLLEGE BOULEVARD  ,Oceanside,CA,92057,600  COLLEGE BOULEVARD,,,COLLEGE,BOULEVARD,,,,,,
,5,PETTY THEFT(Shoplift) (M),800  COLLEGE BOULEVARD,800, COLLEGE BOULEVARD  ,Oceanside,CA,92057,800  COLLEGE BOULEVARD,,,COLLEGE,BOULEVARD,,,,,,
,5,WILLFUL CRUELTY TO CHILD:WITH MINOR INJURY (M),5200  VIA TIZON,5200, VIA TIZON  ,Oceanside,CA,92057,5200  VIA TIZON,,,VIA,TIZON,,,,,,
,5,VANDALISM ($400 OR MORE) (F),5000  ANDREW JACKSON STREET,5000, ANDREW JACKSON STREET ,Oceanside,CA,92057,5000  ANDREW JACKSON STREET,,,ANDREW,JACKSON,STREET,,,,,
,5,PETTY THEFT(Shoplift) (M),400  COLLEGE BOULEVARD,400, COLLEGE BOULEVARD  ,Oceanside,CA,92057,400  COLLEGE BOULEVARD,,,COLLEGE,BOULEVARD,,,,,,
,5,COMMERCIAL BURGLARY,400  COLLEGE BOULEVARD,400, COLLEGE BOULEVARD  ,Oceanside,CA,92057,400  COLLEGE BOULEVARD,,,COLLEGE,BOULEVARD,,,,,,
,5,DISORDERLY CONDUCT:UNDER INFLUENCE OF DRUG (M),400  COLLEGE BOULEVARD,400, COLLEGE BOULEVARD  ,Oceanside,CA,92057,400  COLLEGE BOULEVARD,,,COLLEGE,BOULEVARD,,,,,,
,5,FRAUD,400  COLLEGE BOULEVARD,400, COLLEGE BOULEVARD  ,Oceanside,CA,92057,400  COLLEGE BOULEVARD,,,COLLEGE,BOULEVARD,,,,,,
,5,PETTY THEFT(Shoplift) (M),4900  NORTH RIVER ROAD,4900, NORTH RIVER ROAD ,Oceanside,CA,92057,4900  NORTH RIVER ROAD,,,NORTH,RIVER,ROAD,,,,,
,5,VANDALISM ($400 OR MORE) (F),700  COLLEGE BOULEVARD,700, COLLEGE BOULEVARD  ,Oceanside,CA,92057,700  COLLEGE BOULEVARD,,,COLLEGE,BOULEVARD,,,,,,
,5,VANDALISM [$400 OR LESS] (M),COLLEGE BOULEVARD & STATE ROUTE 76 WB,,BOULEVARD & STATE ROUTE 76,Oceanside,CA,92057,COLLEGE BOULEVARD & STATE ROUTE 76 WB,,BOULEVARD,&,STATE,ROUTE,76,,,WB,
,5,EXHIBIT DEADLY WEAPON OTHER THAN FIREARM (M),4900  NORTH RIVER ROAD,4900, NORTH RIVER ROAD ,Oceanside,CA,92057,4900  NORTH RIVER ROAD,,,NORTH,RIVER,ROAD,,,,,
,5,FRAUD,700  COLLEGE BOULEVARD,700, COLLEGE BOULEVARD  ,Oceanside,CA,92057,700  COLLEGE BOULEVARD,,,COLLEGE,BOULEVARD,,,,,,
,5,VANDALISM [$400 OR LESS] (M),700  COLLEGE BOULEVARD,700, COLLEGE BOULEVARD  ,Oceanside,CA,92057,700  COLLEGE BOULEVARD,,,COLLEGE,BOULEVARD,,,,,,
,5,VANDALISM ($400 OR MORE) (F),400  COLLEGE BOULEVARD,400, COLLEGE BOULEVARD  ,Oceanside,CA,92057,400  COLLEGE BOULEVARD,,,COLLEGE,BOULEVARD,,,,,,
,5,TAKE VEHICLE W/O OWNER'S CONSENT/VEHICLE THEFT (F),4700  YUMA AVENUE,4700, YUMA AVENUE  ,Oceanside,CA,92057,4700  YUMA AVENUE,,,YUMA,AVENUE,,,,,,
,5,SHOPLIFTING (M),700  COLLEGE BOULEVARD,700, COLLEGE BOULEVARD  ,Oceanside,CA,92057,700  COLLEGE BOULEVARD,,,COLLEGE,BOULEVARD,,,,,,
,5,COMMERCIAL BURGLARY,400  COLLEGE BOULEVARD,400, COLLEGE BOULEVARD  ,Oceanside,CA,92057,400  COLLEGE BOULEVARD,,,COLLEGE,BOULEVARD,,,,,,
,5,VANDALISM [$400 OR LESS] (M),400  COLLEGE BOULEVARD,400, COLLEGE BOULEVARD  ,Oceanside,CA,92057,400  COLLEGE BOULEVARD,,,COLLEGE,BOULEVARD,,,,,,
,5,VEHICLE BREAK-IN/THEFT,5100  ANDREW JACKSON STREET,5100, ANDREW JACKSON STREET ,Oceanside,CA,92057,5100  ANDREW JACKSON STREET,,,ANDREW,JACKSON,STREET,,,,,
,5,DISORD CONDUCT:ALC (M),700   COLLEGE BOULEVARD,700,  COLLEGE BOULEVARD ,Oceanside,CA,92057,700   COLLEGE BOULEVARD,,,,COLLEGE,BOULEVARD,,,,,
,5,SIMPLE BATTERY (M),700  COLLEGE BOULEVARD,700, COLLEGE BOULEVARD  ,Oceanside,CA,92057,700  COLLEGE BOULEVARD,,,COLLEGE,BOULEVARD,,,,,,
,5,PETTY THEFT(Shoplift) (M),700  COLLEGE BOULEVARD,700, COLLEGE BOULEVARD  ,Oceanside,CA,92057,700  COLLEGE BOULEVARD,,,COLLEGE,BOULEVARD,,,,,,
,5,PROHIBITED BY COURT ORDERS:PURCHASE/ETC FIREARM (F),400  COLLEGE BOULEVARD,400, COLLEGE BOULEVARD  ,Oceanside,CA,92057,400  COLLEGE BOULEVARD,,,COLLEGE,BOULEVARD,,,,,,
,5,POSSESS CONTROLLED SUBSTANCE (M),4800  SAGINA COURT,4800, SAGINA COURT  ,Oceanside,CA,92057,4800  SAGINA COURT,,,SAGINA,COURT,,,,,,
,5,DUI ALCOHOL (M),ADAMS STREET & COLLEGE BOULEVARD,,STREET & COLLEGE BOULEVARD ,Oceanside,CA,92057,ADAMS STREET & COLLEGE BOULEVARD,,STREET,&,COLLEGE,BOULEVARD,,,,,
,5,VEHICLE BREAK-IN/THEFT,5100  ANDREW JACKSON STREET,5100, ANDREW JACKSON STREET ,Oceanside,CA,92057,5100  ANDREW JACKSON STREET,,,ANDREW,JACKSON,STREET,,,,,
,5,VANDALISM [$400 OR LESS] (M),400  COLLEGE BOULEVARD,400, COLLEGE BOULEVARD  ,Oceanside,CA,92057,400  COLLEGE BOULEVARD,,,COLLEGE,BOULEVARD,,,,,,
,5,SIMPLE BATTERY (M),400  COLLEGE BOULEVARD,400, COLLEGE BOULEVARD  ,Oceanside,CA,92057,400  COLLEGE BOULEVARD,,,COLLEGE,BOULEVARD,,,,,,
,5,PETTY THEFT FROM LIBRARY OR MERCHANT (M),400  COLLEGE BOULEVARD,400, COLLEGE BOULEVARD  ,Oceanside,CA,92057,400  COLLEGE BOULEVARD,,,COLLEGE,BOULEVARD,,,,,,
,5,VANDALISM ($400 OR MORE) (F),5000  CASPIAN DRIVE,5000, CASPIAN DRIVE  ,Oceanside,CA,92057,5000  CASPIAN DRIVE,,,CASPIAN,DRIVE,,,,,,
,5,VANDALISM ($400 OR MORE) (F),0  COLLEGE BLVD / N RIVER ROAD,, COLLEGE BLVD / N,Oceanside,CA,92057,0  COLLEGE BLVD / N RIVER ROAD,,,COLLEGE,BLVD,/,N,,,RIVER,ROAD
,5,THROW SUBS AT VEH ON HWY (M),COLLEGE BOULEVARD & STATE ROUTE 76 WB,,BOULEVARD & STATE ROUTE 76,Oceanside,CA,92057,COLLEGE BOULEVARD & STATE ROUTE 76 WB,,BOULEVARD,&,STATE,ROUTE,76,,,WB,
,5,VANDALISM [$400 OR LESS] (M),5100  ANDREW JACKSON STREET,5100, ANDREW JACKSON STREET ,Oceanside,CA,92057,5100  ANDREW JACKSON STREET,,,ANDREW,JACKSON,STREET,,,,,
,5,DISORD CONDUCT:ALC (M),700  COLLEGE BOULEVARD,700, COLLEGE BOULEVARD  ,Oceanside,CA,92057,700  COLLEGE BOULEVARD,,,COLLEGE,BOULEVARD,,,,,,
,5,PETTY THEFT(All Other Larceny) (M),4900  NORTH RIVER ROAD,4900, NORTH RIVER ROAD ,Oceanside,CA,92057,4900  NORTH RIVER ROAD,,,NORTH,RIVER,ROAD,,,,,
,5,PETTY THEFT(All Other Larceny) (M),4900  NORTH RIVER ROAD,4900, NORTH RIVER ROAD ,Oceanside,CA,92057,4900  NORTH RIVER ROAD,,,NORTH,RIVER,ROAD,,,,,
,5,FRAUD,400  COLLEGE BOULEVARD,400, COLLEGE BOULEVARD  ,Oceanside,CA,92057,400  COLLEGE BOULEVARD,,,COLLEGE,BOULEVARD,,,,,,
,5,DUI ALCOHOL:CAUSING BODILY INJURY (F),COLLEGE BOULEVARD & NORTH RIVER ROAD,,BOULEVARD & NORTH RIVER ROAD,Oceanside,CA,92057,COLLEGE BOULEVARD & NORTH RIVER ROAD,,BOULEVARD,&,NORTH,RIVER,ROAD,,,,
,5,FRAUD,700  COLLEGE BOULEVARD,700, COLLEGE BOULEVARD  ,Oceanside,CA,92057,700  COLLEGE BOULEVARD,,,COLLEGE,BOULEVARD,,,,,,
,5,VANDALISM [$400 OR LESS] (M),300  VIA METATES,300, VIA METATES  ,Oceanside,CA,92057,300  VIA METATES,,,VIA,METATES,,,,,,
,5,FRAUD,200  OCOTILLO PLACE,200, OCOTILLO PLACE  ,Oceanside,CA,92057,200  OCOTILLO PLACE,,,OCOTILLO,PLACE,,,,,,
,5,DUI ALCOHOL (M),COLLEGE BOULEVARD & STATE ROUTE 76 EB,,BOULEVARD & STATE ROUTE 76,Oceanside,CA,92057,COLLEGE BOULEVARD & STATE ROUTE 76 EB,,BOULEVARD,&,STATE,ROUTE,76,,,EB,
,5,FRAUD,700  COLLEGE BOULEVARD,700, COLLEGE BOULEVARD  ,Oceanside,CA,92057,700  COLLEGE BOULEVARD,,,COLLEGE,BOULEVARD,,,,,,
,5,PETTY THEFT(All Other Larceny) (M),700  COLLEGE BOULEVARD,700, COLLEGE BOULEVARD  ,Oceanside,CA,92057,700  COLLEGE BOULEVARD,,,COLLEGE,BOULEVARD,,,,,,
,5,DISORD CONDUCT:ALC (M),700  COLLEGE BOULEVARD,700, COLLEGE BOULEVARD  ,Oceanside,CA,92057,700  COLLEGE BOULEVARD,,,COLLEGE,BOULEVARD,,,,,,
,5,COMMERCIAL ROBBERY - NO WEAPON,400  COLLEGE BOULEVARD,400, COLLEGE BOULEVARD  ,Oceanside,CA,92057,400  COLLEGE BOULEVARD,,,COLLEGE,BOULEVARD,,,,,,
,5,GRAND THEFT:MONEY/LABOR/PROPERTY (F),800  COLLEGE BOULEVARD,800, COLLEGE BOULEVARD  ,Oceanside,CA,92057,800  COLLEGE BOULEVARD,,,COLLEGE,BOULEVARD,,,,,,
,5,FRAUD,700  COLLEGE BOULEVARD,700, COLLEGE BOULEVARD  ,Oceanside,CA,92057,700  COLLEGE BOULEVARD,,,COLLEGE,BOULEVARD,,,,,,
,5,VEHICLE BREAK-IN/THEFT,400  COLLEGE BOULEVARD,400, COLLEGE BOULEVARD  ,Oceanside,CA,92057,400  COLLEGE BOULEVARD,,,COLLEGE,BOULEVARD,,,,,,
,5,VANDALISM ($400 OR MORE) (F),400  COLLEGE BOULEVARD,400, COLLEGE BOULEVARD  ,Oceanside,CA,92057,400  COLLEGE BOULEVARD,,,COLLEGE,BOULEVARD,,,,,,
,5,TAKE VEHICLE W/O OWNER'S CONSENT/VEHICLE THEFT (F),700  COLLEGE BOULEVARD,700, COLLEGE BOULEVARD  ,Oceanside,CA,92057,700  COLLEGE BOULEVARD,,,COLLEGE,BOULEVARD,,,,,,
,5,SHOPLIFTING (M),400  COLLEGE BOULEVARD,400, COLLEGE BOULEVARD  ,Oceanside,CA,92057,400  COLLEGE BOULEVARD,,,COLLEGE,BOULEVARD,,,,,,
,5,PETTY THEFT(All Other Larceny) (M),700  COLLEGE BOULEVARD,700, COLLEGE BOULEVARD  ,Oceanside,CA,92057,700  COLLEGE BOULEVARD,,,COLLEGE,BOULEVARD,,,,,,
,5,TAKE VEHICLE W/O OWNER'S CONSENT/VEHICLE THEFT (F),100  HARDING STREET,100, HARDING STREET  ,Oceanside,CA,92057,100  HARDING STREET,,,HARDING,STREET,,,,,,
,5,POSSESS CONTROLLED SUBSTANCE (M),400  COLLEGE BOULEVARD,400, COLLEGE BOULEVARD  ,Oceanside,CA,92057,400  COLLEGE BOULEVARD,,,COLLEGE,BOULEVARD,,,,,,
,5,POSSESS CONTROLLED SUBSTANCE (M),800  COLLEGE BOULEVARD,800, COLLEGE BOULEVARD  ,Oceanside,CA,92057,800  COLLEGE BOULEVARD,,,COLLEGE,BOULEVARD,,,,,,
,5,BURGLARY (VEHICLE) (F),4700  GARDENIA STREET,4700, GARDENIA STREET  ,Oceanside,CA,92057,4700  GARDENIA STREET,,,GARDENIA,STREET,,,,,,
,5,PETTY THEFT(Shoplift) (M),400  COLLEGE BOULEVARD,400, COLLEGE BOULEVARD  ,Oceanside,CA,92057,400  COLLEGE BOULEVARD,,,COLLEGE,BOULEVARD,,,,,,
,5,PETTY THEFT(Shoplift) (M),400  COLLEGE BOULEVARD,400, COLLEGE BOULEVARD  ,Oceanside,CA,92057,400  COLLEGE BOULEVARD,,,COLLEGE,BOULEVARD,,,,,,
,5,PETTY THEFT(Shoplift) (M),400  COLLEGE BOULEVARD,400, COLLEGE BOULEVARD  ,Oceanside,CA,92057,400  COLLEGE BOULEVARD,,,COLLEGE,BOULEVARD,,,,,,
,5,POSSESS CONTROLLED SUBSTANCE (M),700  COLLEGE BOULEVARD,700, COLLEGE BOULEVARD  ,Oceanside,CA,92057,700  COLLEGE BOULEVARD,,,COLLEGE,BOULEVARD,,,,,,
,5,PETTY THEFT(from Building) (M),400  COLLEGE BOULEVARD,400, COLLEGE BOULEVARD  ,Oceanside,CA,92057,400  COLLEGE BOULEVARD,,,COLLEGE,BOULEVARD,,,,,,
,5,FRAUD,700  COLLEGE BOULEVARD,700, COLLEGE BOULEVARD  ,Oceanside,CA,92057,700  COLLEGE BOULEVARD,,,COLLEGE,BOULEVARD,,,,,,
,5,SIMPLE BATTERY (M),400  COLLEGE BOULEVARD,400, COLLEGE BOULEVARD  ,Oceanside,CA,92057,400  COLLEGE BOULEVARD,,,COLLEGE,BOULEVARD,,,,,,
,5,WILLFUL CRUELTY TO CHILD:WITH MINOR INJURY (M),5200  VIA TIZON,5200, VIA TIZON  ,Oceanside,CA,92057,5200  VIA TIZON,,,VIA,TIZON,,,,,,
,5,SIMPLE BATTERY (M),700  COLLEGE BOULEVARD,700, COLLEGE BOULEVARD  ,Oceanside,CA,92057,700  COLLEGE BOULEVARD,,,COLLEGE,BOULEVARD,,,,,,
,5,FRAUD,700  COLLEGE BOULEVARD,700, COLLEGE BOULEVARD  ,Oceanside,CA,92057,700  COLLEGE BOULEVARD,,,COLLEGE,BOULEVARD,,,,,,
,5,VEHICLE BREAK-IN/THEFT,200  SORREL TREE PLACE,200, SORREL TREE PLACE ,Oceanside,CA,92057,200  SORREL TREE PLACE,,,SORREL,TREE,PLACE,,,,,
,5,VEHICLE BREAK-IN/THEFT,4800  YUMA AVENUE,4800, YUMA AVENUE  ,Oceanside,CA,92057,4800  YUMA AVENUE,,,YUMA,AVENUE,,,,,,
,5,VEHICLE BREAK-IN/THEFT,200  SORREL TREE PLACE,200, SORREL TREE PLACE ,Oceanside,CA,92057,200  SORREL TREE PLACE,,,SORREL,TREE,PLACE,,,,,
,5,SIMPLE BATTERY (M),4800  MIMOSA COURT,4800, MIMOSA COURT  ,Oceanside,CA,92057,4800  MIMOSA COURT,,,MIMOSA,COURT,,,,,,
,5,CARRY LOADED FIREARM IN PUBLIC UNDER SPECIFIC CIRCUMSTANCES (F),400  COLLEGE BOULEVARD,400, COLLEGE BOULEVARD  ,Oceanside,CA,92057,400  COLLEGE BOULEVARD,,,COLLEGE,BOULEVARD,,,,,,
,5,ASSAULT W/DEADLY WEAPON:NOT F/ARM (F),200  MANZANITA DRIVE,200, MANZANITA DRIVE  ,Oceanside,CA,92057,200  MANZANITA DRIVE,,,MANZANITA,DRIVE,,,,,,
,5,POSS OPEN CONTAINER OF ALC IN PUBLIC (I),700  COLLEGE BOULEVARD,700, COLLEGE BOULEVARD  ,Oceanside,CA,92057,700  COLLEGE BOULEVARD,,,COLLEGE,BOULEVARD,,,,,,
"2255 S El Camino Real, Oceanside, CA 92054",6,PETTY THEFT(All Other Larceny) (M),2500  EL CAMINO REAL,2500, EL CAMINO REAL ,Oceanside,CA,92054,2500  EL CAMINO REAL,,,EL,CAMINO,REAL,,,,,
,6,SHOPLIFTING (M),2500  VISTA WAY,2500, VISTA WAY  ,Oceanside,CA,92054,2500  VISTA WAY,,,VISTA,WAY,,,,,,
,6,PETTY THEFT(All Other Larceny) (M),2500  EL CAMINO REAL,2500, EL CAMINO REAL ,Oceanside,CA,92054,2500  EL CAMINO REAL,,,EL,CAMINO,REAL,,,,,
,6,PETTY THEFT(Shoplift) (M),2900  VIA LAS ROSAS,2900, VIA LAS ROSAS ,Oceanside,CA,92054,2900  VIA LAS ROSAS,,,VIA,LAS,ROSAS,,,,,
,6,VANDALISM [$400 OR LESS] (M),2100  EL CAMINO REAL,2100, EL CAMINO REAL ,Oceanside,CA,92054,2100  EL CAMINO REAL,,,EL,CAMINO,REAL,,,,,
,6,VANDALISM [$400 OR LESS] (M),1900  SANDCASTLE WAY,1900, SANDCASTLE WAY  ,Oceanside,CA,92054,1900  SANDCASTLE WAY,,,SANDCASTLE,WAY,,,,,,
,6,PETTY THEFT(All Other Larceny) (M),2500  RUDDER ROAD,2500, RUDDER ROAD  ,Oceanside,CA,92054,2500  RUDDER ROAD,,,RUDDER,ROAD,,,,,,
,6,THEFT NOT EXCEEDING $950 (M),2500  EL CAMINO REAL,2500, EL CAMINO REAL ,Oceanside,CA,92054,2500  EL CAMINO REAL,,,EL,CAMINO,REAL,,,,,
,6,VANDALISM ($400 OR MORE) (F),2200  EL CAMINO REAL,2200, EL CAMINO REAL ,Oceanside,CA,92054,2200  EL CAMINO REAL,,,EL,CAMINO,REAL,,,,,
,6,DISORDERLY CONDUCT:INTOX DRUG WITH ALCOHOL (M),2500  EL CAMINO REAL,2500, EL CAMINO REAL ,Oceanside,CA,92054,2500  EL CAMINO REAL,,,EL,CAMINO,REAL,,,,,
,6,SIMPLE BATTERY (M),2500  WOODLANDS WAY,2500, WOODLANDS WAY  ,Oceanside,CA,92054,2500  WOODLANDS WAY,,,WOODLANDS,WAY,,,,,,
,6,POSSESS CONTROLLED SUBSTANCE (M),3100  VISTA WAY,3100, VISTA WAY  ,Oceanside,CA,92054,3100  VISTA WAY,,,VISTA,WAY,,,,,,
,6,GRAND THEFT (Shoplifting) (F),2200  EL CAMINO REAL,2200, EL CAMINO REAL ,Oceanside,CA,92054,2200  EL CAMINO REAL,,,EL,CAMINO,REAL,,,,,
,6,VEHICLE BREAK-IN/THEFT,2200  EL CAMINO REAL,2200, EL CAMINO REAL ,Oceanside,CA,92054,2200  EL CAMINO REAL,,,EL,CAMINO,REAL,,,,,
,6,PETTY THEFT(Shoplift) (M),2500  VISTA WAY,2500, VISTA WAY  ,Oceanside,CA,92054,2500  VISTA WAY,,,VISTA,WAY,,,,,,
,6,VANDALISM ($400 OR MORE) (F),2500  EL CAMINO REAL,2500, EL CAMINO REAL ,Oceanside,CA,92054,2500  EL CAMINO REAL,,,EL,CAMINO,REAL,,,,,
,6,PETTY THEFT(Shoplift) (M),2500  EL CAMINO REAL,2500, EL CAMINO REAL ,Oceanside,CA,92054,2500  EL CAMINO REAL,,,EL,CAMINO,REAL,,,,,
,6,DISORD CONDUCT:ALC (M),2500  EL CAMINO REAL,2500, EL CAMINO REAL ,Oceanside,CA,92054,2500  EL CAMINO REAL,,,EL,CAMINO,REAL,,,,,
,6,SHOPLIFTING (M),2900  VIA LAS ROSAS,2900, VIA LAS ROSAS ,Oceanside,CA,92054,2900  VIA LAS ROSAS,,,VIA,LAS,ROSAS,,,,,
,6,FRAUD,2100  VIA SONORA,2100, VIA SONORA  ,Oceanside,CA,92054,2100  VIA SONORA,,,VIA,SONORA,,,,,,
,6,OBSTRUCT USE OF ANY WIRELESS COMMUNICATION DEVICE (M),2200  VIA ESMARCA,2200, VIA ESMARCA  ,Oceanside,CA,92054,2200  VIA ESMARCA,,,VIA,ESMARCA,,,,,,
,6,COMMERCIAL BURGLARY,2200  EL CAMINO REAL,2200, EL CAMINO REAL ,Oceanside,CA,92054,2200  EL CAMINO REAL,,,EL,CAMINO,REAL,,,,,
,6,COMMERCIAL BURGLARY,2200  EL CAMINO REAL,2200, EL CAMINO REAL ,Oceanside,CA,92054,2200  EL CAMINO REAL,,,EL,CAMINO,REAL,,,,,
,6,GRAND THEFT:MONEY/LABOR/PROPERTY (F),2500  EL CAMINO REAL,2500, EL CAMINO REAL ,Oceanside,CA,92054,2500  EL CAMINO REAL,,,EL,CAMINO,REAL,,,,,
,6,SIMPLE BATTERY (M),2000  VIA ESMARCA,2000, VIA ESMARCA  ,Oceanside,CA,92054,2000  VIA ESMARCA,,,VIA,ESMARCA,,,,,,
,6,PETTY THEFT(from Building) (M),2200  EL CAMINO REAL,2200, EL CAMINO REAL ,Oceanside,CA,92054,2200  EL CAMINO REAL,,,EL,CAMINO,REAL,,,,,
,6,COMMERCIAL ROBBERY - NO WEAPON,2500  EL CAMINO REAL,2500, EL CAMINO REAL ,Oceanside,CA,92054,2500  EL CAMINO REAL,,,EL,CAMINO,REAL,,,,,
,6,GRAND THEFT (Shoplifting) (F),2500  EL CAMINO REAL,2500, EL CAMINO REAL ,Oceanside,CA,92054,2500  EL CAMINO REAL,,,EL,CAMINO,REAL,,,,,
,6,SIMPLE BATTERY (M),2100  EL CAMINO REAL,2100, EL CAMINO REAL ,Oceanside,CA,92054,2100  EL CAMINO REAL,,,EL,CAMINO,REAL,,,,,
,6,COMMERCIAL BURGLARY,2100  EL CAMINO REAL,2100, EL CAMINO REAL ,Oceanside,CA,92054,2100  EL CAMINO REAL,,,EL,CAMINO,REAL,,,,,
,6,OTHER ROBBERY - NO WEAPON,2500  EL CAMINO REAL,2500, EL CAMINO REAL ,Oceanside,CA,92054,2500  EL CAMINO REAL,,,EL,CAMINO,REAL,,,,,
,6,PETTY THEFT FROM LIBRARY OR MERCHANT (M),2500  EL CAMINO REAL,2500, EL CAMINO REAL ,Oceanside,CA,92054,2500  EL CAMINO REAL,,,EL,CAMINO,REAL,,,,,
,6,PETTY THEFT FROM LIBRARY OR MERCHANT (M),2500  EL CAMINO REAL,2500, EL CAMINO REAL ,Oceanside,CA,92054,2500  EL CAMINO REAL,,,EL,CAMINO,REAL,,,,,
,6,SHOPLIFTING (M),2500  EL CAMINO REAL,2500, EL CAMINO REAL ,Oceanside,CA,92054,2500  EL CAMINO REAL,,,EL,CAMINO,REAL,,,,,
,6,PETTY THEFT FROM LIBRARY OR MERCHANT (M),2500  EL CAMINO REAL,2500, EL CAMINO REAL ,Oceanside,CA,92054,2500  EL CAMINO REAL,,,EL,CAMINO,REAL,,,,,
,6,RESIDENTIAL BURGLARY,2900  FAREL STREET,2900, FAREL STREET  ,Oceanside,CA,92054,2900  FAREL STREET,,,FAREL,STREET,,,,,,
,6,STREET ROBBERY - NO WEAPON,2500  EL CAMINO REAL,2500, EL CAMINO REAL ,Oceanside,CA,92054,2500  EL CAMINO REAL,,,EL,CAMINO,REAL,,,,,
,6,PETTY THEFT(All Other Larceny) (M),2200  EL CAMINO REAL,2200, EL CAMINO REAL ,Oceanside,CA,92054,2200  EL CAMINO REAL,,,EL,CAMINO,REAL,,,,,
,6,VEHICLE BREAK-IN/THEFT,2100  EL CAMINO REAL,2100, EL CAMINO REAL ,Oceanside,CA,92054,2100  EL CAMINO REAL,,,EL,CAMINO,REAL,,,,,
,6,FRAUD,2200  EL CAMINO REAL,2200, EL CAMINO REAL ,Oceanside,CA,92054,2200  EL CAMINO REAL,,,EL,CAMINO,REAL,,,,,
,6,VEHICLE BREAK-IN/THEFT,2600  VISTA WAY,2600, VISTA WAY  ,Oceanside,CA,92054,2600  VISTA WAY,,,VISTA,WAY,,,,,,
,6,THEFT NOT EXCEEDING $950 (M),2500  EL CAMINO REAL,2500, EL CAMINO REAL ,Oceanside,CA,92054,2500  EL CAMINO REAL,,,EL,CAMINO,REAL,,,,,
,6,SHOPLIFTING (M),2500  EL CAMINO REAL,2500, EL CAMINO REAL ,Oceanside,CA,92054,2500  EL CAMINO REAL,,,EL,CAMINO,REAL,,,,,
,6,SIMPLE BATTERY (M),2600  VISTA WAY,2600, VISTA WAY  ,Oceanside,CA,92054,2600  VISTA WAY,,,VISTA,WAY,,,,,,
,6,VANDALISM [$400 OR LESS] (M),2400  VISTA WAY,2400, VISTA WAY  ,Oceanside,CA,92054,2400  VISTA WAY,,,VISTA,WAY,,,,,,
,6,FRAUD,2900  VIA LAS ROSAS,2900, VIA LAS ROSAS ,Oceanside,CA,92054,2900  VIA LAS ROSAS,,,VIA,LAS,ROSAS,,,,,
,6,VANDALISM ($400 OR MORE) (F),2500  EL CAMINO REAL,2500, EL CAMINO REAL ,Oceanside,CA,92054,2500  EL CAMINO REAL,,,EL,CAMINO,REAL,,,,,
,6,COMMERCIAL ROBBERY - WEAPON USED,2200  EL CAMINO REAL,2200, EL CAMINO REAL ,Oceanside,CA,92054,2200  EL CAMINO REAL,,,EL,CAMINO,REAL,,,,,
,6,VANDALISM ($400 OR MORE) (F),2500  EL CAMINO REAL,2500, EL CAMINO REAL ,Oceanside,CA,92054,2500  EL CAMINO REAL,,,EL,CAMINO,REAL,,,,,
,6,DISORD CONDUCT:ALC (M),2700  VISTA WAY,2700, VISTA WAY  ,Oceanside,CA,92054,2700  VISTA WAY,,,VISTA,WAY,,,,,,
,6,FRAUD,2500  VISTA WAY,2500, VISTA WAY  ,Oceanside,CA,92054,2500  VISTA WAY,,,VISTA,WAY,,,,,,
,6,PETTY THEFT(All Other Larceny) (M),2500  VISTA WAY,2500, VISTA WAY  ,Oceanside,CA,92054,2500  VISTA WAY,,,VISTA,WAY,,,,,,
,6,PETTY THEFT(Shoplift) (M),2500  VISTA WAY,2500, VISTA WAY  ,Oceanside,CA,92054,2500  VISTA WAY,,,VISTA,WAY,,,,,,
,6,SHOPLIFTING (M),2500  EL CAMINO REAL,2500, EL CAMINO REAL ,Oceanside,CA,92054,2500  EL CAMINO REAL,,,EL,CAMINO,REAL,,,,,
,6,PETTY THEFT(Shoplift) (M),2300  VISTA WAY,2300, VISTA WAY  ,Oceanside,CA,92054,2300  VISTA WAY,,,VISTA,WAY,,,,,,
,6,VEHICLE BREAK-IN/THEFT,2500  EL CAMINO REAL,2500, EL CAMINO REAL ,Oceanside,CA,92054,2500  EL CAMINO REAL,,,EL,CAMINO,REAL,,,,,
,6,VANDALISM ($400 OR MORE) (F),2700  VISTA WAY,2700, VISTA WAY  ,Oceanside,CA,92054,2700  VISTA WAY,,,VISTA,WAY,,,,,,
,6,SHOPLIFTING (M),2500  EL CAMINO REAL,2500, EL CAMINO REAL ,Oceanside,CA,92054,2500  EL CAMINO REAL,,,EL,CAMINO,REAL,,,,,
,6,UNLAWFUL POSSESS/USE TEAR GAS OR TEAR GAS WEAPON:EX FEL/ETC (M),2500  EL CAMINO REAL,2500, EL CAMINO REAL ,Oceanside,CA,92054,2500  EL CAMINO REAL,,,EL,CAMINO,REAL,,,,,
,6,COMMERCIAL BURGLARY,2700  HAYMAR DRIVE,2700, HAYMAR DRIVE  ,Oceanside,CA,92054,2700  HAYMAR DRIVE,,,HAYMAR,DRIVE,,,,,,
,6,THREATEN CRIME WITH INTENT TO TERRORIZE (F),2200  EL CAMINO REAL,2200, EL CAMINO REAL ,Oceanside,CA,92054,2200  EL CAMINO REAL,,,EL,CAMINO,REAL,,,,,
,6,GRAND THEFT:MONEY/LABOR/PROPERTY (F),2500  EL CAMINO REAL,2500, EL CAMINO REAL ,Oceanside,CA,92054,2500  EL CAMINO REAL,,,EL,CAMINO,REAL,,,,,
,6,GRAND THEFT (Shoplifting) (F),2500  EL CAMINO REAL,2500, EL CAMINO REAL ,Oceanside,CA,92054,2500  EL CAMINO REAL,,,EL,CAMINO,REAL,,,,,
,6,COMMERCIAL ROBBERY - NO WEAPON,2500  EL CAMINO REAL,2500, EL CAMINO REAL ,Oceanside,CA,92054,2500  EL CAMINO REAL,,,EL,CAMINO,REAL,,,,,
,6,POSS CONTROLLED SUBS PARAPHERNALIA (M),3100  VISTA WAY,3100, VISTA WAY  ,Oceanside,CA,92054,3100  VISTA WAY,,,VISTA,WAY,,,,,,
,6,BATTERY ON PERSON (M),2500  EL CAMINO REAL,2500, EL CAMINO REAL ,Oceanside,CA,92054,2500  EL CAMINO REAL,,,EL,CAMINO,REAL,,,,,
,6,PETTY THEFT(All Other Larceny) (M),2100  EL CAMINO REAL,2100, EL CAMINO REAL ,Oceanside,CA,92054,2100  EL CAMINO REAL,,,EL,CAMINO,REAL,,,,,
,6,ASSAULT W/DEADLY WEAPON:NOT F/ARM (F),2100  VIA ESMARCA,2100, VIA ESMARCA  ,Oceanside,CA,92054,2100  VIA ESMARCA,,,VIA,ESMARCA,,,,,,
,6,SHOPLIFTING (M),2500  EL CAMINO REAL,2500, EL CAMINO REAL ,Oceanside,CA,92054,2500  EL CAMINO REAL,,,EL,CAMINO,REAL,,,,,
,6,POSS CONTROLLED SUBS PARAPHERNALIA (M),2500  EL CAMINO REAL,2500, EL CAMINO REAL ,Oceanside,CA,92054,2500  EL CAMINO REAL,,,EL,CAMINO,REAL,,,,,
,6,DUI ALC/0.08 PERCENT (M),EL CAMINO REAL & STATE ROUTE 78 WB,,CAMINO REAL & STATE ROUTE,Oceanside,CA,92054,EL CAMINO REAL & STATE ROUTE 78 WB,,CAMINO,REAL,&,STATE,ROUTE,,,78,WB
,6,DUI ALCOHOL/DRUG (M),EL CAMINO REAL & STATE ROUTE 78 WB,,CAMINO REAL & STATE ROUTE,Oceanside,CA,92054,EL CAMINO REAL & STATE ROUTE 78 WB,,CAMINO,REAL,&,STATE,ROUTE,,,78,WB
,6,VEHICLE BREAK-IN/THEFT,2500  EL CAMINO REAL,2500, EL CAMINO REAL ,Oceanside,CA,92054,2500  EL CAMINO REAL,,,EL,CAMINO,REAL,,,,,
,6,STALKING (F),2500  EL CAMINO REAL,2500, EL CAMINO REAL ,Oceanside,CA,92054,2500  EL CAMINO REAL,,,EL,CAMINO,REAL,,,,,
,6,COMMERCIAL BURGLARY,2100  EL CAMINO REAL,2100, EL CAMINO REAL ,Oceanside,CA,92054,2100  EL CAMINO REAL,,,EL,CAMINO,REAL,,,,,
,6,VANDALISM ($400 OR MORE) (F),2700  HAYMAR DRIVE,2700, HAYMAR DRIVE  ,Oceanside,CA,92054,2700  HAYMAR DRIVE,,,HAYMAR,DRIVE,,,,,,
,6,PETTY THEFT(Shoplift) (M),2500  VISTA WAY,2500, VISTA WAY  ,Oceanside,CA,92054,2500  VISTA WAY,,,VISTA,WAY,,,,,,
,6,TAKE VEHICLE W/O OWNER'S CONSENT/VEHICLE THEFT (F),2000  GENEVA STREET,2000, GENEVA STREET  ,Oceanside,CA,92054,2000  GENEVA STREET,,,GENEVA,STREET,,,,,,
,6,GRAND THEFT:MONEY/LABOR/PROPERTY (F),2500  EL CAMINO REAL,2500, EL CAMINO REAL ,Oceanside,CA,92054,2500  EL CAMINO REAL,,,EL,CAMINO,REAL,,,,,
,6,PETTY THEFT(Shoplift) (M),2900  VIA LAS ROSAS,2900, VIA LAS ROSAS ,Oceanside,CA,92054,2900  VIA LAS ROSAS,,,VIA,LAS,ROSAS,,,,,
,6,PETTY THEFT(Shoplift) (M),2600  VISTA WAY,2600, VISTA WAY  ,Oceanside,CA,92054,2600  VISTA WAY,,,VISTA,WAY,,,,,,
,6,PETTY THEFT FROM LIBRARY OR MERCHANT (M),2500  EL CAMINO REAL,2500, EL CAMINO REAL ,Oceanside,CA,92054,2500  EL CAMINO REAL,,,EL,CAMINO,REAL,,,,,
,6,PETTY THEFT(Shoplift) (M),2600  VISTA WAY,2600, VISTA WAY  ,Oceanside,CA,92054,2600  VISTA WAY,,,VISTA,WAY,,,,,,
,6,POSS CONTROLLED SUBS PARAPHERNALIA (M),2500  EL CAMINO REAL,2500, EL CAMINO REAL ,Oceanside,CA,92054,2500  EL CAMINO REAL,,,EL,CAMINO,REAL,,,,,
,6,VEHICLE BREAK-IN/THEFT,2100  GENEVA STREET,2100, GENEVA STREET  ,Oceanside,CA,92054,2100  GENEVA STREET,,,GENEVA,STREET,,,,,,
,6,FRAUD,2400  VISTA WAY,2400, VISTA WAY  ,Oceanside,CA,92054,2400  VISTA WAY,,,VISTA,WAY,,,,,,
,6,VANDALISM [$400 OR LESS] (M),2100  EL CAMINO REAL,2100, EL CAMINO REAL ,Oceanside,CA,92054,2100  EL CAMINO REAL,,,EL,CAMINO,REAL,,,,,
,6,PETTY THEFT(Shoplift) (M),2500  VISTA WAY,2500, VISTA WAY  ,Oceanside,CA,92054,2500  VISTA WAY,,,VISTA,WAY,,,,,,
,6,COMMERCIAL ROBBERY - WEAPON USED,2500  EL CAMINO REAL,2500, EL CAMINO REAL ,Oceanside,CA,92054,2500  EL CAMINO REAL,,,EL,CAMINO,REAL,,,,,
,6,PETTY THEFT(All Other Larceny) (M),2500  EL CAMINO REAL,2500, EL CAMINO REAL ,Oceanside,CA,92054,2500  EL CAMINO REAL,,,EL,CAMINO,REAL,,,,,
,6,VEHICLE BREAK-IN/THEFT,2000  GENEVA STREET,2000, GENEVA STREET  ,Oceanside,CA,92054,2000  GENEVA STREET,,,GENEVA,STREET,,,,,,
,6,THEFT NOT EXCEEDING $950 (M),2500  EL CAMINO REAL,2500, EL CAMINO REAL ,Oceanside,CA,92054,2500  EL CAMINO REAL,,,EL,CAMINO,REAL,,,,,
,6,PETTY THEFT(All Other Larceny) (M),2900  FAREL STREET,2900, FAREL STREET  ,Oceanside,CA,92054,2900  FAREL STREET,,,FAREL,STREET,,,,,,
,6,VEHICLE BREAK-IN/THEFT,2500  EL CAMINO REAL,2500, EL CAMINO REAL ,Oceanside,CA,92054,2500  EL CAMINO REAL,,,EL,CAMINO,REAL,,,,,
,6,SHOPLIFTING (M),2500  EL CAMINO REAL,2500, EL CAMINO REAL ,Oceanside,CA,92054,2500  EL CAMINO REAL,,,EL,CAMINO,REAL,,,,,
,6,PETTY THEFT(All Other Larceny) (M),2500  EL CAMINO REAL,2500, EL CAMINO REAL ,Oceanside,CA,92054,2500  EL CAMINO REAL,,,EL,CAMINO,REAL,,,,,
,6,GRAND THEFT (Shoplifting) (F),2500  EL CAMINO REAL,2500, EL CAMINO REAL ,Oceanside,CA,92054,2500  EL CAMINO REAL,,,EL,CAMINO,REAL,,,,,
,6,PETTY THEFT(from Building) (M),2200  EL CAMINO REAL,2200, EL CAMINO REAL ,Oceanside,CA,92054,2200  EL CAMINO REAL,,,EL,CAMINO,REAL,,,,,
,6,DUI DRUG (M),2500  EL CAMINO REAL,2500, EL CAMINO REAL ,Oceanside,CA,92054,2500  EL CAMINO REAL,,,EL,CAMINO,REAL,,,,,
,6,USE/UNDER INFL OF CONTROLLED SUBS (M),2200  EL CAMINO REAL,2200, EL CAMINO REAL ,Oceanside,CA,92054,2200  EL CAMINO REAL,,,EL,CAMINO,REAL,,,,,
,6,PETTY THEFT(All Other Larceny) (M),2200  EL CAMINO REAL,2200, EL CAMINO REAL ,Oceanside,CA,92054,2200  EL CAMINO REAL,,,EL,CAMINO,REAL,,,,,
,6,POSS CONTROLLED SUBS PARAPHERNALIA (M),2500  EL CAMINO REAL,2500, EL CAMINO REAL ,Oceanside,CA,92054,2500  EL CAMINO REAL,,,EL,CAMINO,REAL,,,,,
,6,POSS CONTROLLED SUBS PARAPHERNALIA (M),2500  EL CAMINO REAL,2500, EL CAMINO REAL ,Oceanside,CA,92054,2500  EL CAMINO REAL,,,EL,CAMINO,REAL,,,,,
,6,PETTY THEFT(Shoplift) (M),2500  VISTA WAY,2500, VISTA WAY  ,Oceanside,CA,92054,2500  VISTA WAY,,,VISTA,WAY,,,,,,
,6,SIMPLE BATTERY (M),2500  EL CAMINO REAL,2500, EL CAMINO REAL ,Oceanside,CA,92054,2500  EL CAMINO REAL,,,EL,CAMINO,REAL,,,,,
,6,GRAND THEFT (Theft From Building) (F),2300  VISTA WAY,2300, VISTA WAY  ,Oceanside,CA,92054,2300  VISTA WAY,,,VISTA,WAY,,,,,,
,6,STREET ROBBERY - WEAPON USED,2500  EL CAMINO REAL,2500, EL CAMINO REAL ,Oceanside,CA,92054,2500  EL CAMINO REAL,,,EL,CAMINO,REAL,,,,,
,6,POSSESS CONTROLLED SUBSTANCE (M),2200  EL CAMINO REAL,2200, EL CAMINO REAL ,Oceanside,CA,92054,2200  EL CAMINO REAL,,,EL,CAMINO,REAL,,,,,
,6,SHOPLIFTING (M),2200  EL CAMINO REAL,2200, EL CAMINO REAL ,Oceanside,CA,92054,2200  EL CAMINO REAL,,,EL,CAMINO,REAL,,,,,
,6,PETTY THEFT(Shoplift) (M),2500  VISTA WAY,2500, VISTA WAY  ,Oceanside,CA,92054,2500  VISTA WAY,,,VISTA,WAY,,,,,,
,6,DISORD CONDUCT:ALC (M),2500  EL CAMINO REAL,2500, EL CAMINO REAL ,Oceanside,CA,92054,2500  EL CAMINO REAL,,,EL,CAMINO,REAL,,,,,
,6,PETTY THEFT(All Other Larceny) (M),2500  EL CAMINO REAL,2500, EL CAMINO REAL ,Oceanside,CA,92054,2500  EL CAMINO REAL,,,EL,CAMINO,REAL,,,,,
,6,POSSESS CONTROLLED SUBSTANCE (M),2500  EL CAMINO REAL,2500, EL CAMINO REAL ,Oceanside,CA,92054,2500  EL CAMINO REAL,,,EL,CAMINO,REAL,,,,,
,6,SIMPLE BATTERY (M),2100  VIA SONORA,2100, VIA SONORA  ,Oceanside,CA,92054,2100  VIA SONORA,,,VIA,SONORA,,,,,,
,6,OBSTRUCT/RESIST EXECUTIVE OFFICER WITH MINOR INJURY (F),2500  EL CAMINO REAL,2500, EL CAMINO REAL ,Oceanside,CA,92054,2500  EL CAMINO REAL,,,EL,CAMINO,REAL,,,,,
,6,PETTY THEFT(from Building) (M),2200  EL CAMINO REAL,2200, EL CAMINO REAL ,Oceanside,CA,92054,2200  EL CAMINO REAL,,,EL,CAMINO,REAL,,,,,
,6,PETTY THEFT W/2 PRIOR CONVICTIONS (F),2500  EL CAMINO REAL,2500, EL CAMINO REAL ,Oceanside,CA,92054,2500  EL CAMINO REAL,,,EL,CAMINO,REAL,,,,,
,6,PETTY THEFT(Shoplift) (M),2500  EL CAMINO REAL,2500, EL CAMINO REAL ,Oceanside,CA,92054,2500  EL CAMINO REAL,,,EL,CAMINO,REAL,,,,,
,6,PETTY THEFT(Shoplift) (M),2200  EL CAMINO REAL,2200, EL CAMINO REAL ,Oceanside,CA,92054,2200  EL CAMINO REAL,,,EL,CAMINO,REAL,,,,,
,6,VANDALISM [$400 OR LESS] (M),2400  VISTA WAY,2400, VISTA WAY  ,Oceanside,CA,92054,2400  VISTA WAY,,,VISTA,WAY,,,,,,
,6,GRAND THEFT:MONEY/LABOR/PROPERTY (F),2500  EL CAMINO REAL,2500, EL CAMINO REAL ,Oceanside,CA,92054,2500  EL CAMINO REAL,,,EL,CAMINO,REAL,,,,,
,6,OTHER SEX CRIME,2500  EL CAMINO REAL,2500, EL CAMINO REAL ,Oceanside,CA,92054,2500  EL CAMINO REAL,,,EL,CAMINO,REAL,,,,,
,6,PETTY THEFT(Purse Snatch) (M),2200  EL CAMINO REAL,2200, EL CAMINO REAL ,Oceanside,CA,92054,2200  EL CAMINO REAL,,,EL,CAMINO,REAL,,,,,
,6,SHOPLIFTING (M),2500  EL CAMINO REAL,2500, EL CAMINO REAL ,Oceanside,CA,92054,2500  EL CAMINO REAL,,,EL,CAMINO,REAL,,,,,
,6,SHOPLIFTING (M),2500  EL CAMINO REAL,2500, EL CAMINO REAL ,Oceanside,CA,92054,2500  EL CAMINO REAL,,,EL,CAMINO,REAL,,,,,
,6,GRAND THEFT (Shoplifting) (F),2500  EL CAMINO REAL,2500, EL CAMINO REAL ,Oceanside,CA,92054,2500  EL CAMINO REAL,,,EL,CAMINO,REAL,,,,,
,6,SHOPLIFTING (M),2500  EL CAMINO REAL,2500, EL CAMINO REAL ,Oceanside,CA,92054,2500  EL CAMINO REAL,,,EL,CAMINO,REAL,,,,,
,6,DISORD CONDUCT:ALC (M),2500  EL CAMINO REAL,2500, EL CAMINO REAL ,Oceanside,CA,92054,2500  EL CAMINO REAL,,,EL,CAMINO,REAL,,,,,
,6,GRAND THEFT:MONEY/LABOR/PROPERTY (F),2500  EL CAMINO REAL,2500, EL CAMINO REAL ,Oceanside,CA,92054,2500  EL CAMINO REAL,,,EL,CAMINO,REAL,,,,,
,6,COMMERCIAL BURGLARY,2500  EL CAMINO REAL,2500, EL CAMINO REAL ,Oceanside,CA,92054,2500  EL CAMINO REAL,,,EL,CAMINO,REAL,,,,,
,6,PETTY THEFT(Shoplift) (M),2500  VISTA WAY,2500, VISTA WAY  ,Oceanside,CA,92054,2500  VISTA WAY,,,VISTA,WAY,,,,,,
,6,GRAND THEFT:MONEY/LABOR/PROPERTY (F),2500  EL CAMINO REAL,2500, EL CAMINO REAL ,Oceanside,CA,92054,2500  EL CAMINO REAL,,,EL,CAMINO,REAL,,,,,
,6,VANDALISM [$400 OR LESS] (M),2500  EL CAMINO REAL,2500, EL CAMINO REAL ,Oceanside,CA,92054,2500  EL CAMINO REAL,,,EL,CAMINO,REAL,,,,,
,6,GRAND THEFT:MONEY/LABOR/PROPERTY (F),2500  EL CAMINO REAL,2500, EL CAMINO REAL ,Oceanside,CA,92054,2500  EL CAMINO REAL,,,EL,CAMINO,REAL,,,,,
,6,PETTY THEFT(Shoplift) (M),2500  EL CAMINO REAL,2500, EL CAMINO REAL ,Oceanside,CA,92054,2500  EL CAMINO REAL,,,EL,CAMINO,REAL,,,,,
,6,GRAND THEFT:MONEY/LABOR/PROPERTY (F),2500  EL CAMINO REAL,2500, EL CAMINO REAL ,Oceanside,CA,92054,2500  EL CAMINO REAL,,,EL,CAMINO,REAL,,,,,
,6,PETTY THEFT(Shoplift) (M),2500  VISTA WAY,2500, VISTA WAY  ,Oceanside,CA,92054,2500  VISTA WAY,,,VISTA,WAY,,,,,,
,6,DUI ALCOHOL (M),3100  VISTA WAY,3100, VISTA WAY  ,Oceanside,CA,92054,3100  VISTA WAY,,,VISTA,WAY,,,,,,
,6,FRAUD,2500  EL CAMINO REAL,2500, EL CAMINO REAL ,Oceanside,CA,92054,2500  EL CAMINO REAL,,,EL,CAMINO,REAL,,,,,
,6,POSS NARCOTIC CONTROLLED SUBS (M),2500  EL CAMINO REAL,2500, EL CAMINO REAL ,Oceanside,CA,92054,2500  EL CAMINO REAL,,,EL,CAMINO,REAL,,,,,
,6,SHOPLIFTING (M),2500  EL CAMINO REAL,2500, EL CAMINO REAL ,Oceanside,CA,92054,2500  EL CAMINO REAL,,,EL,CAMINO,REAL,,,,,
,6,PETTY THEFT(Shoplift) (M),2500  VISTA WAY,2500, VISTA WAY  ,Oceanside,CA,92054,2500  VISTA WAY,,,VISTA,WAY,,,,,,
,6,COMMERCIAL ROBBERY - WEAPON USED,2500  EL CAMINO REAL,2500, EL CAMINO REAL ,Oceanside,CA,92054,2500  EL CAMINO REAL,,,EL,CAMINO,REAL,,,,,
,6,PETTY THEFT(Shoplift) (M),2500  VISTA WAY,2500, VISTA WAY  ,Oceanside,CA,92054,2500  VISTA WAY,,,VISTA,WAY,,,,,,
,6,PETTY THEFT(Shoplift) (M),2200  EL CAMINO REAL,2200, EL CAMINO REAL ,Oceanside,CA,92054,2200  EL CAMINO REAL,,,EL,CAMINO,REAL,,,,,
,6,PETTY THEFT(Shoplift) (M),2500  EL CAMINO REAL,2500, EL CAMINO REAL ,Oceanside,CA,92054,2500  EL CAMINO REAL,,,EL,CAMINO,REAL,,,,,
,6,GRAND THEFT (Shoplifting) (F),2400  VISTA WAY,2400, VISTA WAY  ,Oceanside,CA,92054,2400  VISTA WAY,,,VISTA,WAY,,,,,,
,6,PETTY THEFT(All Other Larceny) (M),2200  EL CAMINO REAL,2200, EL CAMINO REAL ,Oceanside,CA,92054,2200  EL CAMINO REAL,,,EL,CAMINO,REAL,,,,,
,6,COMMERCIAL ROBBERY - WEAPON USED,2200  EL CAMINO REAL,2200, EL CAMINO REAL ,Oceanside,CA,92054,2200  EL CAMINO REAL,,,EL,CAMINO,REAL,,,,,
,6,PETTY THEFT(All Other Larceny) (M),2500  VISTA WAY,2500, VISTA WAY  ,Oceanside,CA,92054,2500  VISTA WAY,,,VISTA,WAY,,,,,,
,6,PETTY THEFT FROM LIBRARY OR MERCHANT (M),2200  EL CAMINO REAL,2200, EL CAMINO REAL ,Oceanside,CA,92054,2200  EL CAMINO REAL,,,EL,CAMINO,REAL,,,,,
,6,PETTY THEFT(Shoplift) (M),2500  VISTA WAY,2500, VISTA WAY  ,Oceanside,CA,92054,2500  VISTA WAY,,,VISTA,WAY,,,,,,
,6,BURGLARY (VEHICLE) (F),2000  GENEVA STREET,2000, GENEVA STREET  ,Oceanside,CA,92054,2000  GENEVA STREET,,,GENEVA,STREET,,,,,,
,6,ASSAULT W/DEADLY WEAPON:NOT F/ARM (F),EL CAMINO REAL & VISTA WAY,,CAMINO REAL & VISTA WAY,Oceanside,CA,92054,EL CAMINO REAL & VISTA WAY,,CAMINO,REAL,&,VISTA,WAY,,,,
,6,ASSAULT W/DEADLY WEAPON:NOT F/ARM (F),2500  EL CAMINO REAL,2500, EL CAMINO REAL ,Oceanside,CA,92054,2500  EL CAMINO REAL,,,EL,CAMINO,REAL,,,,,
,6,DISORD CONDUCT:ALC (M),2500  EL CAMINO REAL,2500, EL CAMINO REAL ,Oceanside,CA,92054,2500  EL CAMINO REAL,,,EL,CAMINO,REAL,,,,,
,6,GRAND THEFT:MONEY/LABOR/PROPERTY (F),2200  EL CAMINO REAL,2200, EL CAMINO REAL ,Oceanside,CA,92054,2200  EL CAMINO REAL,,,EL,CAMINO,REAL,,,,,
,6,PETTY THEFT FROM LIBRARY OR MERCHANT (M),2500  EL CAMINO REAL,2500, EL CAMINO REAL ,Oceanside,CA,92054,2500  EL CAMINO REAL,,,EL,CAMINO,REAL,,,,,
,6,PETTY THEFT FROM LIBRARY OR MERCHANT (M),2500  VISTA WAY,2500, VISTA WAY  ,Oceanside,CA,92054,2500  VISTA WAY,,,VISTA,WAY,,,,,,
,6,DUI ALCOHOL (M),VALLEY GLEN DRIVE & VISTA WAY,,GLEN DRIVE & VISTA WAY,Oceanside,CA,92054,VALLEY GLEN DRIVE & VISTA WAY,,GLEN,DRIVE,&,VISTA,WAY,,,,
,6,FRAUD,2200  EL CAMINO REAL,2200, EL CAMINO REAL ,Oceanside,CA,92054,2200  EL CAMINO REAL,,,EL,CAMINO,REAL,,,,,
,6,VEHICLE BREAK-IN/THEFT,2500  EL CAMINO REAL,2500, EL CAMINO REAL ,Oceanside,CA,92054,2500  EL CAMINO REAL,,,EL,CAMINO,REAL,,,,,
,6,THREATEN EXECUTIVE OFFICER WITH VIOLENCE (F),2400  VISTA WAY,2400, VISTA WAY  ,Oceanside,CA,92054,2400  VISTA WAY,,,VISTA,WAY,,,,,,
,6,PETTY THEFT FROM LIBRARY OR MERCHANT (M),2200  EL CAMINO REAL,2200, EL CAMINO REAL ,Oceanside,CA,92054,2200  EL CAMINO REAL,,,EL,CAMINO,REAL,,,,,
,6,PETTY THEFT(All Other Larceny) (M),2500  VISTA WAY,2500, VISTA WAY  ,Oceanside,CA,92054,2500  VISTA WAY,,,VISTA,WAY,,,,,,
,6,PETTY THEFT(All Other Larceny) (M),2500  EL CAMINO REAL,2500, EL CAMINO REAL ,Oceanside,CA,92054,2500  EL CAMINO REAL,,,EL,CAMINO,REAL,,,,,
,6,VEHICLE BREAK-IN/THEFT,2500  EL CAMINO REAL,2500, EL CAMINO REAL ,Oceanside,CA,92054,2500  EL CAMINO REAL,,,EL,CAMINO,REAL,,,,,
,6,SHOPLIFTING (M),2500  EL CAMINO REAL,2500, EL CAMINO REAL ,Oceanside,CA,92054,2500  EL CAMINO REAL,,,EL,CAMINO,REAL,,,,,
,6,SHOPLIFTING (M),2500  EL CAMINO REAL,2500, EL CAMINO REAL ,Oceanside,CA,92054,2500  EL CAMINO REAL,,,EL,CAMINO,REAL,,,,,
,6,THROW SUBS AT VEH ON HWY (M),2500  VISTA WAY,2500, VISTA WAY  ,Oceanside,CA,92054,2500  VISTA WAY,,,VISTA,WAY,,,,,,
,6,SHOPLIFTING (M),2500  EL CAMINO REAL,2500, EL CAMINO REAL ,Oceanside,CA,92054,2500  EL CAMINO REAL,,,EL,CAMINO,REAL,,,,,
,6,SHOPLIFTING (M),2500  EL CAMINO REAL,2500, EL CAMINO REAL ,Oceanside,CA,92054,2500  EL CAMINO REAL,,,EL,CAMINO,REAL,,,,,
,6,SIMPLE BATTERY (M),2200  EL CAMINO REAL,2200, EL CAMINO REAL ,Oceanside,CA,92054,2200  EL CAMINO REAL,,,EL,CAMINO,REAL,,,,,
,6,COMMERCIAL ROBBERY - NO WEAPON,2500  EL CAMINO REAL,2500, EL CAMINO REAL ,Oceanside,CA,92054,2500  EL CAMINO REAL,,,EL,CAMINO,REAL,,,,,
,6,DISORDERLY CONDUCT:UNDER INFLUENCE OF DRUG (M),2100  EL CAMINO REAL,2100, EL CAMINO REAL ,Oceanside,CA,92054,2100  EL CAMINO REAL,,,EL,CAMINO,REAL,,,,,
,6,SHOPLIFTING (M),2500  EL CAMINO REAL,2500, EL CAMINO REAL ,Oceanside,CA,92054,2500  EL CAMINO REAL,,,EL,CAMINO,REAL,,,,,
,6,SHOPLIFTING (M),2500  EL CAMINO REAL,2500, EL CAMINO REAL ,Oceanside,CA,92054,2500  EL CAMINO REAL,,,EL,CAMINO,REAL,,,,,
,6,PETTY THEFT(Shoplift) (M),2500  VISTA WAY,2500, VISTA WAY  ,Oceanside,CA,92054,2500  VISTA WAY,,,VISTA,WAY,,,,,,
,6,POSSESS MARIJUANA 1 OZ OR LESS WHILE DRIVING,0  EL CAMINO REAL,, EL CAMINO REAL ,Oceanside,CA,92054,0  EL CAMINO REAL,,,EL,CAMINO,REAL,,,,,
,6,COMMERCIAL ROBBERY - NO WEAPON,2500  EL CAMINO REAL,2500, EL CAMINO REAL ,Oceanside,CA,92054,2500  EL CAMINO REAL,,,EL,CAMINO,REAL,,,,,
,6,OTHER ROBBERY - WEAPON USED,2100  EL CAMINO REAL,2100, EL CAMINO REAL ,Oceanside,CA,92054,2100  EL CAMINO REAL,,,EL,CAMINO,REAL,,,,,
,6,PETTY THEFT(All Other Larceny) (M),2500  EL CAMINO REAL,2500, EL CAMINO REAL ,Oceanside,CA,92054,2500  EL CAMINO REAL,,,EL,CAMINO,REAL,,,,,
,6,PETTY THEFT(Shoplift) (M),2500  VISTA WAY,2500, VISTA WAY  ,Oceanside,CA,92054,2500  VISTA WAY,,,VISTA,WAY,,,,,,
,6,PETTY THEFT(Shoplift) (M),2500  VISTA WAY,2500, VISTA WAY  ,Oceanside,CA,92054,2500  VISTA WAY,,,VISTA,WAY,,,,,,
,6,COMMERCIAL ROBBERY - NO WEAPON,2500  EL CAMINO REAL,2500, EL CAMINO REAL ,Oceanside,CA,92054,2500  EL CAMINO REAL,,,EL,CAMINO,REAL,,,,,
,6,SHOPLIFTING (M),2500  EL CAMINO REAL,2500, EL CAMINO REAL ,Oceanside,CA,92054,2500  EL CAMINO REAL,,,EL,CAMINO,REAL,,,,,
,6,SHOPLIFTING (M),2500  EL CAMINO REAL,2500, EL CAMINO REAL ,Oceanside,CA,92054,2500  EL CAMINO REAL,,,EL,CAMINO,REAL,,,,,
,6,PETTY THEFT(Shoplift) (M),2500  VISTA WAY,2500, VISTA WAY  ,Oceanside,CA,92054,2500  VISTA WAY,,,VISTA,WAY,,,,,,
,6,VEHICLE BREAK-IN/THEFT,2500  VISTA WAY,2500, VISTA WAY  ,Oceanside,CA,92054,2500  VISTA WAY,,,VISTA,WAY,,,,,,
,6,DISORDERLY CONDUCT:UNDER INFLUENCE OF DRUG (M),2200  EL CAMINO REAL,2200, EL CAMINO REAL ,Oceanside,CA,92054,2200  EL CAMINO REAL,,,EL,CAMINO,REAL,,,,,
,6,PETTY THEFT(All Other Larceny) (M),2500  VISTA WAY,2500, VISTA WAY  ,Oceanside,CA,92054,2500  VISTA WAY,,,VISTA,WAY,,,,,,
,6,GRAND THEFT (Shoplifting) (F),2500  EL CAMINO REAL,2500, EL CAMINO REAL ,Oceanside,CA,92054,2500  EL CAMINO REAL,,,EL,CAMINO,REAL,,,,,
,6,VANDALISM [$400 OR LESS] (M),2500  EL CAMINO REAL,2500, EL CAMINO REAL ,Oceanside,CA,92054,2500  EL CAMINO REAL,,,EL,CAMINO,REAL,,,,,
,6,PETTY THEFT(Shoplift) (M),2500  VISTA WAY,2500, VISTA WAY  ,Oceanside,CA,92054,2500  VISTA WAY,,,VISTA,WAY,,,,,,
,6,PETTY THEFT(Shoplift) (M),2500  VISTA WAY,2500, VISTA WAY  ,Oceanside,CA,92054,2500  VISTA WAY,,,VISTA,WAY,,,,,,
,6,PETTY THEFT(All Other Larceny) (M),2500  EL CAMINO REAL,2500, EL CAMINO REAL ,Oceanside,CA,92054,2500  EL CAMINO REAL,,,EL,CAMINO,REAL,,,,,
,6,GRAND THEFT (Shoplifting) (F),2600  VISTA WAY,2600, VISTA WAY  ,Oceanside,CA,92054,2600  VISTA WAY,,,VISTA,WAY,,,,,,
,6,SHOPLIFTING (M),2500  VISTA WAY,2500, VISTA WAY  ,Oceanside,CA,92054,2500  VISTA WAY,,,VISTA,WAY,,,,,,
,6,VANDALISM ($400 OR MORE) (F),2100  VIA ROBLES,2100, VIA ROBLES  ,Oceanside,CA,92054,2100  VIA ROBLES,,,VIA,ROBLES,,,,,,
,6,VANDALISM [$400 OR LESS] (M),2200  VIA ESMARCA,2200, VIA ESMARCA  ,Oceanside,CA,92054,2200  VIA ESMARCA,,,VIA,ESMARCA,,,,,,
,6,PETTY THEFT(Shoplift) (M),2500  VISTA WAY,2500, VISTA WAY  ,Oceanside,CA,92054,2500  VISTA WAY,,,VISTA,WAY,,,,,,
,6,SHOPLIFTING (M),2500  EL CAMINO REAL,2500, EL CAMINO REAL ,Oceanside,CA,92054,2500  EL CAMINO REAL,,,EL,CAMINO,REAL,,,,,
,6,SHOPLIFTING (M),2500  EL CAMINO REAL,2500, EL CAMINO REAL ,Oceanside,CA,92054,2500  EL CAMINO REAL,,,EL,CAMINO,REAL,,,,,
,6,ASSAULT W/DEADLY WEAPON:NOT F/ARM (M),2000  GENEVA STREET,2000, GENEVA STREET  ,Oceanside,CA,92054,2000  GENEVA STREET,,,GENEVA,STREET,,,,,,
,6,PETTY THEFT FROM LIBRARY OR MERCHANT (M),2200  EL CAMINO REAL,2200, EL CAMINO REAL ,Oceanside,CA,92054,2200  EL CAMINO REAL,,,EL,CAMINO,REAL,,,,,
,6,VEHICLE BREAK-IN/THEFT,2200  EL CAMINO REAL,2200, EL CAMINO REAL ,Oceanside,CA,92054,2200  EL CAMINO REAL,,,EL,CAMINO,REAL,,,,,
,6,GRAND THEFT:MONEY/LABOR/PROPERTY (F),2300  VISTA WAY,2300, VISTA WAY  ,Oceanside,CA,92054,2300  VISTA WAY,,,VISTA,WAY,,,,,,
,6,VEHICLE BREAK-IN/THEFT,2100  VIA CAMINO VERDE,2100, VIA CAMINO VERDE ,Oceanside,CA,92054,2100  VIA CAMINO VERDE,,,VIA,CAMINO,VERDE,,,,,
,6,GRAND THEFT (Shoplifting) (F),2500  EL CAMINO REAL,2500, EL CAMINO REAL ,Oceanside,CA,92054,2500  EL CAMINO REAL,,,EL,CAMINO,REAL,,,,,
,6,EXHIBIT DEADLY WEAPON OTHER THAN FIREARM (M),2500  EL CAMINO REAL,2500, EL CAMINO REAL ,Oceanside,CA,92054,2500  EL CAMINO REAL,,,EL,CAMINO,REAL,,,,,
,6,VANDALISM [$400 OR LESS] (M),2600  VISTA WAY,2600, VISTA WAY  ,Oceanside,CA,92054,2600  VISTA WAY,,,VISTA,WAY,,,,,,
,6,PETTY THEFT(All Other Larceny) (M),2200  EL CAMINO REAL,2200, EL CAMINO REAL ,Oceanside,CA,92054,2200  EL CAMINO REAL,,,EL,CAMINO,REAL,,,,,
,6,POSS CONTROLLED SUBS PARAPHERNALIA (M),2200  EL CAMINO REAL,2200, EL CAMINO REAL ,Oceanside,CA,92054,2200  EL CAMINO REAL,,,EL,CAMINO,REAL,,,,,
,6,POSS NARCOTIC CONTROLLED SUBS (M),2200  EL CAMINO REAL,2200, EL CAMINO REAL ,Oceanside,CA,92054,2200  EL CAMINO REAL,,,EL,CAMINO,REAL,,,,,
,6,COMMERCIAL ROBBERY - NO WEAPON,2500  EL CAMINO REAL,2500, EL CAMINO REAL ,Oceanside,CA,92054,2500  EL CAMINO REAL,,,EL,CAMINO,REAL,,,,,
,6,FRAUD,EL CAMINO REAL & PLAZA DRIVE,,CAMINO REAL & PLAZA DRIVE,Oceanside,CA,92054,EL CAMINO REAL & PLAZA DRIVE,,CAMINO,REAL,&,PLAZA,DRIVE,,,,
,6,GRAND THEFT:MONEY/LABOR/PROPERTY (F),2500  EL CAMINO REAL,2500, EL CAMINO REAL ,Oceanside,CA,92054,2500  EL CAMINO REAL,,,EL,CAMINO,REAL,,,,,
,6,SHOPLIFTING (M),2500  EL CAMINO REAL,2500, EL CAMINO REAL ,Oceanside,CA,92054,2500  EL CAMINO REAL,,,EL,CAMINO,REAL,,,,,
,6,FRAUD,2500  VISTA WAY,2500, VISTA WAY  ,Oceanside,CA,92054,2500  VISTA WAY,,,VISTA,WAY,,,,,,
,6,PETTY THEFT(All Other Larceny) (M),2500  VISTA WAY,2500, VISTA WAY  ,Oceanside,CA,92054,2500  VISTA WAY,,,VISTA,WAY,,,,,,
,6,PETTY THEFT(Shoplift) (M),2500  VISTA WAY,2500, VISTA WAY  ,Oceanside,CA,92054,2500  VISTA WAY,,,VISTA,WAY,,,,,,
,6,PETTY THEFT(Shoplift) (M),2200  EL CAMINO REAL,2200, EL CAMINO REAL ,Oceanside,CA,92054,2200  EL CAMINO REAL,,,EL,CAMINO,REAL,,,,,
,6,GRAND THEFT:MONEY/LABOR/PROPERTY (F),2100  VIA ROBLES,2100, VIA ROBLES  ,Oceanside,CA,92054,2100  VIA ROBLES,,,VIA,ROBLES,,,,,,
,6,VEHICLE BREAK-IN/THEFT,2100  VIA SONORA,2100, VIA SONORA  ,Oceanside,CA,92054,2100  VIA SONORA,,,VIA,SONORA,,,,,,
,6,VEHICLE BREAK-IN/THEFT,2100  VIA ROBLES,2100, VIA ROBLES  ,Oceanside,CA,92054,2100  VIA ROBLES,,,VIA,ROBLES,,,,,,
,6,VEHICLE BREAK-IN/THEFT,2100  GENEVA STREET,2100, GENEVA STREET  ,Oceanside,CA,92054,2100  GENEVA STREET,,,GENEVA,STREET,,,,,,
,6,VEHICLE BREAK-IN/THEFT,2100  VIA ROBLES,2100, VIA ROBLES  ,Oceanside,CA,92054,2100  VIA ROBLES,,,VIA,ROBLES,,,,,,
,6,THEFT NOT EXCEEDING $950 (M),2500  EL CAMINO REAL,2500, EL CAMINO REAL ,Oceanside,CA,92054,2500  EL CAMINO REAL,,,EL,CAMINO,REAL,,,,,
,6,BATTERY ON PERSON (M),2700  HAYMAR DRIVE,2700, HAYMAR DRIVE  ,Oceanside,CA,92054,2700  HAYMAR DRIVE,,,HAYMAR,DRIVE,,,,,,
,6,SHOPLIFTING (M),2500  EL CAMINO REAL,2500, EL CAMINO REAL ,Oceanside,CA,92054,2500  EL CAMINO REAL,,,EL,CAMINO,REAL,,,,,
,6,PETTY THEFT(Shoplift) (M),2500  VISTA WAY,2500, VISTA WAY  ,Oceanside,CA,92054,2500  VISTA WAY,,,VISTA,WAY,,,,,,
,6,SHOPLIFTING (M),2500  VISTA WAY,2500, VISTA WAY  ,Oceanside,CA,92054,2500  VISTA WAY,,,VISTA,WAY,,,,,,
,6,SHOPLIFTING (M),2500  EL CAMINO REAL,2500, EL CAMINO REAL ,Oceanside,CA,92054,2500  EL CAMINO REAL,,,EL,CAMINO,REAL,,,,,
,6,VEHICLE BREAK-IN/THEFT,2500  EL CAMINO REAL,2500, EL CAMINO REAL ,Oceanside,CA,92054,2500  EL CAMINO REAL,,,EL,CAMINO,REAL,,,,,
,6,SHOPLIFTING (M),2500  EL CAMINO REAL,2500, EL CAMINO REAL ,Oceanside,CA,92054,2500  EL CAMINO REAL,,,EL,CAMINO,REAL,,,,,
,6,PETTY THEFT(from Building) (M),2500  VISTA WAY,2500, VISTA WAY  ,Oceanside,CA,92054,2500  VISTA WAY,,,VISTA,WAY,,,,,,
,6,RESIDENTIAL BURGLARY,100  RYAN WAY,, RYAN WAY  ,Oceanside,CA,92054,100  RYAN WAY,,,RYAN,WAY,,,,,,
,6,PETTY THEFT(Shoplift) (M),2500  VISTA WAY,2500, VISTA WAY  ,Oceanside,CA,92054,2500  VISTA WAY,,,VISTA,WAY,,,,,,
,6,SHOPLIFTING (M),2600  VISTA WAY,2600, VISTA WAY  ,Oceanside,CA,92054,2600  VISTA WAY,,,VISTA,WAY,,,,,,
,6,VEHICLE BREAK-IN/THEFT,2500  EL CAMINO REAL,2500, EL CAMINO REAL ,Oceanside,CA,92054,2500  EL CAMINO REAL,,,EL,CAMINO,REAL,,,,,
,6,PETTY THEFT(All Other Larceny) (M),2500  VISTA WAY,2500, VISTA WAY  ,Oceanside,CA,92054,2500  VISTA WAY,,,VISTA,WAY,,,,,,
,6,GRAND THEFT:MONEY/LABOR/PROPERTY (F),2500  VISTA WAY,2500, VISTA WAY  ,Oceanside,CA,92054,2500  VISTA WAY,,,VISTA,WAY,,,,,,
,6,GRAND THEFT:MONEY/LABOR/PROPERTY (F),2300  VISTA WAY,2300, VISTA WAY  ,Oceanside,CA,92054,2300  VISTA WAY,,,VISTA,WAY,,,,,,
,6,PETTY THEFT(Shoplift) (M),2500  VISTA WAY,2500, VISTA WAY  ,Oceanside,CA,92054,2500  VISTA WAY,,,VISTA,WAY,,,,,,
,6,POSS CONTROLLED SUBS PARAPHERNALIA (M),2200  EL CAMINO REAL,2200, EL CAMINO REAL ,Oceanside,CA,92054,2200  EL CAMINO REAL,,,EL,CAMINO,REAL,,,,,
,6,PETTY THEFT FROM LIBRARY OR MERCHANT (M),2200  EL CAMINO REAL,2200, EL CAMINO REAL ,Oceanside,CA,92054,2200  EL CAMINO REAL,,,EL,CAMINO,REAL,,,,,
,6,PETTY THEFT(All Other Larceny) (M),2500  EL CAMINO REAL,2500, EL CAMINO REAL ,Oceanside,CA,92054,2500  EL CAMINO REAL,,,EL,CAMINO,REAL,,,,,
,6,COMMERCIAL ROBBERY - NO WEAPON,2200  EL CAMINO REAL,2200, EL CAMINO REAL ,Oceanside,CA,92054,2200  EL CAMINO REAL,,,EL,CAMINO,REAL,,,,,
,6,PETTY THEFT(Shoplift) (M),2500  VISTA WAY,2500, VISTA WAY  ,Oceanside,CA,92054,2500  VISTA WAY,,,VISTA,WAY,,,,,,
,6,BATTERY W/SER BODILY INJURY (F),2600  VISTA WAY,2600, VISTA WAY  ,Oceanside,CA,92054,2600  VISTA WAY,,,VISTA,WAY,,,,,,
,6,GRAND THEFT:MONEY/LABOR/PROPERTY (F),3100  VISTA WAY,3100, VISTA WAY  ,Oceanside,CA,92054,3100  VISTA WAY,,,VISTA,WAY,,,,,,
,6,PETTY THEFT(Shoplift) (M),2500  VISTA WAY,2500, VISTA WAY  ,Oceanside,CA,92054,2500  VISTA WAY,,,VISTA,WAY,,,,,,
,6,PETTY THEFT(Shoplift) (M),2500  VISTA WAY,2500, VISTA WAY  ,Oceanside,CA,92054,2500  VISTA WAY,,,VISTA,WAY,,,,,,
,6,STREET ROBBERY - WEAPON USED,2500  EL CAMINO REAL,2500, EL CAMINO REAL ,Oceanside,CA,92054,2500  EL CAMINO REAL,,,EL,CAMINO,REAL,,,,,
,6,PETTY THEFT(All Other Larceny) (M),2300  VISTA WAY,2300, VISTA WAY  ,Oceanside,CA,92054,2300  VISTA WAY,,,VISTA,WAY,,,,,,
,6,VEHICLE BREAK-IN/THEFT,2000  GENEVA STREET,2000, GENEVA STREET  ,Oceanside,CA,92054,2000  GENEVA STREET,,,GENEVA,STREET,,,,,,
,6,PETTY THEFT(Shoplift) (M),2500  VISTA WAY,2500, VISTA WAY  ,Oceanside,CA,92054,2500  VISTA WAY,,,VISTA,WAY,,,,,,
,6,SHOPLIFTING (M),2200  EL CAMINO REAL,2200, EL CAMINO REAL ,Oceanside,CA,92054,2200  EL CAMINO REAL,,,EL,CAMINO,REAL,,,,,
,6,POSS CONTROLLED SUBS FOR SALE (F),3100  VISTA WAY,3100, VISTA WAY  ,Oceanside,CA,92054,3100  VISTA WAY,,,VISTA,WAY,,,,,,
,6,POSS CONTROLLED SUBS PARAPHERNALIA (M),3100  VISTA WAY,3100, VISTA WAY  ,Oceanside,CA,92054,3100  VISTA WAY,,,VISTA,WAY,,,,,,
,6,POSSESS CONTROLLED SUBSTANCE (M),3800  BLK PLAZA DRIVE,3800, BLK PLAZA DRIVE ,Oceanside,CA,92054,3800  BLK PLAZA DRIVE,,,BLK,PLAZA,DRIVE,,,,,
,6,PETTY THEFT(Shoplift) (M),2500  VISTA WAY,2500, VISTA WAY  ,Oceanside,CA,92054,2500  VISTA WAY,,,VISTA,WAY,,,,,,
,6,VANDALISM ($400 OR MORE) (F),2700  VISTA WAY,2700, VISTA WAY  ,Oceanside,CA,92054,2700  VISTA WAY,,,VISTA,WAY,,,,,,
,6,PETTY THEFT(Shoplift) (M),2500  EL CAMINO REAL,2500, EL CAMINO REAL ,Oceanside,CA,92054,2500  EL CAMINO REAL,,,EL,CAMINO,REAL,,,,,
,6,SHOPLIFTING (M),2200  EL CAMINO REAL,2200, EL CAMINO REAL ,Oceanside,CA,92054,2200  EL CAMINO REAL,,,EL,CAMINO,REAL,,,,,
,6,OTHER SEX CRIME,2700  HAYMAR DRIVE,2700, HAYMAR DRIVE  ,Oceanside,CA,92054,2700  HAYMAR DRIVE,,,HAYMAR,DRIVE,,,,,,
,6,BATTERY ON PERSON (M),2500  EL CAMINO REAL,2500, EL CAMINO REAL ,Oceanside,CA,92054,2500  EL CAMINO REAL,,,EL,CAMINO,REAL,,,,,
,6,THEFT OF MERCHANDISE W/ INTENT TO SELL/EXCHANGE: OVER $950 (F),2500  EL CAMINO REAL,2500, EL CAMINO REAL ,Oceanside,CA,92054,2500  EL CAMINO REAL,,,EL,CAMINO,REAL,,,,,
,6,VEHICLE BREAK-IN/THEFT,2400  VISTA WAY,2400, VISTA WAY  ,Oceanside,CA,92054,2400  VISTA WAY,,,VISTA,WAY,,,,,,
,6,VEHICLE BREAK-IN/THEFT,2100  GENEVA STREET,2100, GENEVA STREET  ,Oceanside,CA,92054,2100  GENEVA STREET,,,GENEVA,STREET,,,,,,
,6,PETTY THEFT(Shoplift) (M),2500  VISTA WAY,2500, VISTA WAY  ,Oceanside,CA,92054,2500  VISTA WAY,,,VISTA,WAY,,,,,,
,6,THEFT OF MERCHANDISE W/ INTENT TO SELL - POSSESSION: OVER $950 (F),2500  EL CAMINO REAL,2500, EL CAMINO REAL ,Oceanside,CA,92054,2500  EL CAMINO REAL,,,EL,CAMINO,REAL,,,,,
,6,GRAND THEFT:MONEY/LABOR/PROPERTY (F),2500  EL CAMINO REAL,2500, EL CAMINO REAL ,Oceanside,CA,92054,2500  EL CAMINO REAL,,,EL,CAMINO,REAL,,,,,
,6,ARSON:INHABITED STRUCTURE/PROP (F),2500  EL CAMINO REAL,2500, EL CAMINO REAL ,Oceanside,CA,92054,2500  EL CAMINO REAL,,,EL,CAMINO,REAL,,,,,
,6,PETTY THEFT(All Other Larceny) (M),2500  EL CAMINO REAL,2500, EL CAMINO REAL ,Oceanside,CA,92054,2500  EL CAMINO REAL,,,EL,CAMINO,REAL,,,,,
,6,SHOPLIFTING (M),2500  EL CAMINO REAL,2500, EL CAMINO REAL ,Oceanside,CA,92054,2500  EL CAMINO REAL,,,EL,CAMINO,REAL,,,,,
,6,PETTY THEFT(Shoplift) (M),2200  EL CAMINO REAL,2200, EL CAMINO REAL ,Oceanside,CA,92054,2200  EL CAMINO REAL,,,EL,CAMINO,REAL,,,,,
,6,SHOPLIFTING (M),2500  EL CAMINO REAL,2500, EL CAMINO REAL ,Oceanside,CA,92054,2500  EL CAMINO REAL,,,EL,CAMINO,REAL,,,,,
,6,POSSESS CONTROLLED SUBSTANCE (M),2500  EL CAMINO REAL,2500, EL CAMINO REAL ,Oceanside,CA,92054,2500  EL CAMINO REAL,,,EL,CAMINO,REAL,,,,,
,6,POSSESS CONTROLLED SUBSTANCE (M),2500  EL CAMINO REAL,2500, EL CAMINO REAL ,Oceanside,CA,92054,2500  EL CAMINO REAL,,,EL,CAMINO,REAL,,,,,
,6,OTHER SEX CRIME,2200  VIA BLANCA,2200, VIA BLANCA  ,Oceanside,CA,92054,2200  VIA BLANCA,,,VIA,BLANCA,,,,,,
,6,PETTY THEFT(Shoplift) (M),2200  EL CAMINO REAL,2200, EL CAMINO REAL ,Oceanside,CA,92054,2200  EL CAMINO REAL,,,EL,CAMINO,REAL,,,,,
,6,PETTY THEFT(Shoplift) (M),2500  EL CAMINO REAL,2500, EL CAMINO REAL ,Oceanside,CA,92054,2500  EL CAMINO REAL,,,EL,CAMINO,REAL,,,,,
,6,FRAUD,2600  VISTA WAY,2600, VISTA WAY  ,Oceanside,CA,92054,2600  VISTA WAY,,,VISTA,WAY,,,,,,
,6,PETTY THEFT(All Other Larceny) (M),2600  VISTA WAY,2600, VISTA WAY  ,Oceanside,CA,92054,2600  VISTA WAY,,,VISTA,WAY,,,,,,
,6,SIMPLE BATTERY (M),2500  VISTA WAY,2500, VISTA WAY  ,Oceanside,CA,92054,2500  VISTA WAY,,,VISTA,WAY,,,,,,
,6,SHOPLIFTING (M),2500  EL CAMINO REAL,2500, EL CAMINO REAL ,Oceanside,CA,92054,2500  EL CAMINO REAL,,,EL,CAMINO,REAL,,,,,
,6,PETTY THEFT(Shoplift) (M),2500  VISTA WAY,2500, VISTA WAY  ,Oceanside,CA,92054,2500  VISTA WAY,,,VISTA,WAY,,,,,,
"1751 University Dr, Vista, CA 92083",7,DISORD CONDUCT:ALC,1800  UNIVERSITY DRIVE,1800, UNIVERSITY DRIVE  ,Vista,CA,92083,1800  UNIVERSITY DRIVE,,,UNIVERSITY,DRIVE,,,,,,
,7,BATTERY ON PERSON,1800  UNIVERSITY DRIVE,1800, UNIVERSITY DRIVE  ,Vista,CA,92083,1800  UNIVERSITY DRIVE,,,UNIVERSITY,DRIVE,,,,,,
,7,TREATMENT MANDATED FELONY ACT/MISD POSS W/ 2 PRIORS,600  SYCAMORE AVENUE,600, SYCAMORE AVENUE  ,Vista,CA,92083,600  SYCAMORE AVENUE,,,SYCAMORE,AVENUE,,,,,,
,7,POSSESS CONTROLLED SUBSTANCE,100  ROBELINI DRIVE,100, ROBELINI DRIVE  ,Vista,CA,92083,100  ROBELINI DRIVE,,,ROBELINI,DRIVE,,,,,,
,7,SHOPLIFTING,1700  UNIVERSITY DRIVE,1700, UNIVERSITY DRIVE  ,Vista,CA,92083,1700  UNIVERSITY DRIVE,,,UNIVERSITY,DRIVE,,,,,,
,7,POSSESS CONTROLLED SUBSTANCE,600  SYCAMORE AVENUE,600, SYCAMORE AVENUE  ,Vista,CA,92083,600  SYCAMORE AVENUE,,,SYCAMORE,AVENUE,,,,,,
,7,SHOPLIFTING,1800  UNIVERSITY DRIVE,1800, UNIVERSITY DRIVE  ,Vista,CA,92083,1800  UNIVERSITY DRIVE,,,UNIVERSITY,DRIVE,,,,,,
,7,TAKE VEHICLE W/O OWNER'S CONSENT/VEHICLE THEFT,2100  UNIVERSITY DRIVE,2100, UNIVERSITY DRIVE  ,Vista,CA,92083,2100  UNIVERSITY DRIVE,,,UNIVERSITY,DRIVE,,,,,,
,7,SHOPLIFTING,1800  UNIVERSITY DRIVE,1800, UNIVERSITY DRIVE  ,Vista,CA,92083,1800  UNIVERSITY DRIVE,,,UNIVERSITY,DRIVE,,,,,,
,7,PETTY THEFT(SHOPLIFT),1700  UNIVERSITY DRIVE,1700, UNIVERSITY DRIVE  ,Vista,CA,92083,1700  UNIVERSITY DRIVE,,,UNIVERSITY,DRIVE,,,,,,
,7,SHOPLIFTING,1800  UNIVERSITY DRIVE,1800, UNIVERSITY DRIVE  ,Vista,CA,92083,1800  UNIVERSITY DRIVE,,,UNIVERSITY,DRIVE,,,,,,
,7,VEHICLE BREAK-IN/THEFT,1800  UNIVERSITY DRIVE,1800, UNIVERSITY DRIVE  ,Vista,CA,92083,1800  UNIVERSITY DRIVE,,,UNIVERSITY,DRIVE,,,,,,
,7,SHOPLIFTING,1700  UNIVERSITY DRIVE,1700, UNIVERSITY DRIVE  ,Vista,CA,92083,1700  UNIVERSITY DRIVE,,,UNIVERSITY,DRIVE,,,,,,
,7,VEHICLE BREAK-IN/THEFT,1800  UNIVERSITY DRIVE,1800, UNIVERSITY DRIVE  ,Vista,CA,92083,1800  UNIVERSITY DRIVE,,,UNIVERSITY,DRIVE,,,,,,
,7,POSS NARCOTIC CONTROLLED SUBS,700  SYCAMORE AVENUE,700, SYCAMORE AVENUE  ,Vista,CA,92083,700  SYCAMORE AVENUE,,,SYCAMORE,AVENUE,,,,,,
,7,SHOPLIFTING,700  SYCAMORE AVENUE,700, SYCAMORE AVENUE  ,Vista,CA,92083,700  SYCAMORE AVENUE,,,SYCAMORE,AVENUE,,,,,,
,7,GRAND THEFT (SHOPLIFTING),1800  UNIVERSITY DRIVE,1800, UNIVERSITY DRIVE  ,Vista,CA,92083,1800  UNIVERSITY DRIVE,,,UNIVERSITY,DRIVE,,,,,,
,7,COMMERCIAL ROBBERY - WEAPON USED,600  SYCAMORE AVENUE,600, SYCAMORE AVENUE  ,Vista,CA,92083,600  SYCAMORE AVENUE,,,SYCAMORE,AVENUE,,,,,,
,7,PETTY THEFT(FROM BUILDING),1900  UNIVERSITY DRIVE,1900, UNIVERSITY DRIVE  ,Vista,CA,92083,1900  UNIVERSITY DRIVE,,,UNIVERSITY,DRIVE,,,,,,
,7,SHOPLIFTING,700  SYCAMORE AVENUE,700, SYCAMORE AVENUE  ,Vista,CA,92083,700  SYCAMORE AVENUE,,,SYCAMORE,AVENUE,,,,,,
,7,TREATMENT MANDATED FELONY ACT/MISD POSS W/ 2 PRIORS,1700  UNIVERSITY DRIVE,1700, UNIVERSITY DRIVE  ,Vista,CA,92083,1700  UNIVERSITY DRIVE,,,UNIVERSITY,DRIVE,,,,,,
,7,SHOPLIFTING,1800  UNIVERSITY DRIVE,1800, UNIVERSITY DRIVE  ,Vista,CA,92083,1800  UNIVERSITY DRIVE,,,UNIVERSITY,DRIVE,,,,,,
,7,SHOPLIFTING,200  SYCAMORE AVENUE,200, SYCAMORE AVENUE  ,Vista,CA,92083,200  SYCAMORE AVENUE,,,SYCAMORE,AVENUE,,,,,,
,7,POSS NARCOTIC CONTROLLED SUBS,1800  UNIVERSITY DRIVE,1800, UNIVERSITY DRIVE  ,Vista,CA,92083,1800  UNIVERSITY DRIVE,,,UNIVERSITY,DRIVE,,,,,,
,7,POSS NARCOTIC CONTROLLED SUBS,1800  UNIVERSITY DRIVE,1800, UNIVERSITY DRIVE  ,Vista,CA,92083,1800  UNIVERSITY DRIVE,,,UNIVERSITY,DRIVE,,,,,,
,7,ACTIONS LIKELY TO CAUSE HARM/DEATH OF ELDER /DEPENDENT ADULT,700  SYCAMORE AVENUE,700, SYCAMORE AVENUE  ,Vista,CA,92083,700  SYCAMORE AVENUE,,,SYCAMORE,AVENUE,,,,,,
,7,COMMERCIAL BURGLARY,700  SYCAMORE AVENUE,700, SYCAMORE AVENUE  ,Vista,CA,92083,700  SYCAMORE AVENUE,,,SYCAMORE,AVENUE,,,,,,
,7,RESIDENTIAL BURGLARY,1900  THIBODO ROAD,1900, THIBODO ROAD  ,Vista,CA,92083,1900  THIBODO ROAD,,,THIBODO,ROAD,,,,,,
,7,GRAND THEFT (SHOPLIFTING),1700  UNIVERSITY DRIVE,1700, UNIVERSITY DRIVE  ,Vista,CA,92083,1700  UNIVERSITY DRIVE,,,UNIVERSITY,DRIVE,,,,,,
,7,VANDALISM ($400 OR MORE),1800  UNIVERSITY DRIVE,1800, UNIVERSITY DRIVE  ,Vista,CA,92083,1800  UNIVERSITY DRIVE,,,UNIVERSITY,DRIVE,,,,,,
,7,SHOPLIFTING,1800  UNIVERSITY DRIVE,1800, UNIVERSITY DRIVE  ,Vista,CA,92083,1800  UNIVERSITY DRIVE,,,UNIVERSITY,DRIVE,,,,,,
,7,VEHICLE BREAK-IN/THEFT,1700  UNIVERSITY DRIVE,1700, UNIVERSITY DRIVE  ,Vista,CA,92083,1700  UNIVERSITY DRIVE,,,UNIVERSITY,DRIVE,,,,,,
,7,SHOPLIFTING,1800  UNIVERSITY DRIVE,1800, UNIVERSITY DRIVE  ,Vista,CA,92083,1800  UNIVERSITY DRIVE,,,UNIVERSITY,DRIVE,,,,,,
,7,USE/UNDER INFL OF CONTROLLED SUBS,700  SHADOWRIDGE DRIVE,700, SHADOWRIDGE DRIVE  ,Vista,CA,92083,700  SHADOWRIDGE DRIVE,,,SHADOWRIDGE,DRIVE,,,,,,
,7,POSS CONTROLLED SUBS PARAPHERNALIA,600  SYCAMORE AVENUE,600, SYCAMORE AVENUE  ,Vista,CA,92083,600  SYCAMORE AVENUE,,,SYCAMORE,AVENUE,,,,,,
,7,ADW WITH FORCE:POSSIBLE GBI,600  SYCAMORE AVENUE,600, SYCAMORE AVENUE  ,Vista,CA,92083,600  SYCAMORE AVENUE,,,SYCAMORE,AVENUE,,,,,,
,7,TAKE VEHICLE W/O OWNER'S CONSENT/VEHICLE THEFT,2100  UNIVERSITY DRIVE,2100, UNIVERSITY DRIVE  ,Vista,CA,92083,2100  UNIVERSITY DRIVE,,,UNIVERSITY,DRIVE,,,,,,
,7,SHOPLIFTING,1700  UNIVERSITY DRIVE,1700, UNIVERSITY DRIVE  ,Vista,CA,92083,1700  UNIVERSITY DRIVE,,,UNIVERSITY,DRIVE,,,,,,
,7,SHOPLIFTING,1800  UNIVERSITY DRIVE,1800, UNIVERSITY DRIVE  ,Vista,CA,92083,1800  UNIVERSITY DRIVE,,,UNIVERSITY,DRIVE,,,,,,
,7,USE/UNDER INFL OF CONTROLLED SUBS,0  SYCAMORE AVENUE,, SYCAMORE AVENUE  ,Vista,CA,92083,0  SYCAMORE AVENUE,,,SYCAMORE,AVENUE,,,,,,
,7,SHOPLIFTING,700  SYCAMORE AVENUE,700, SYCAMORE AVENUE  ,Vista,CA,92083,700  SYCAMORE AVENUE,,,SYCAMORE,AVENUE,,,,,,
,7,SHOPLIFTING,1800  UNIVERSITY DRIVE,1800, UNIVERSITY DRIVE  ,Vista,CA,92083,1800  UNIVERSITY DRIVE,,,UNIVERSITY,DRIVE,,,,,,
,7,ASSAULT W/DEADLY WEAPON:NOT F/ARM,1900  UNIVERSITY DRIVE,1900, UNIVERSITY DRIVE  ,Vista,CA,92083,1900  UNIVERSITY DRIVE,,,UNIVERSITY,DRIVE,,,,,,
,7,GRAND THEFT:MONEY/LABOR/PROPERTY,1800  UNIVERSITY DRIVE,1800, UNIVERSITY DRIVE  ,Vista,CA,92083,1800  UNIVERSITY DRIVE,,,UNIVERSITY,DRIVE,,,,,,
,7,PETTY THEFT(SHOPLIFT),1800  UNIVERSITY DRIVE,1800, UNIVERSITY DRIVE  ,Vista,CA,92083,1800  UNIVERSITY DRIVE,,,UNIVERSITY,DRIVE,,,,,,
,7,SHOPLIFTING,700  SHADOWRIDGE DRIVE,700, SHADOWRIDGE DRIVE  ,Vista,CA,92083,700  SHADOWRIDGE DRIVE,,,SHADOWRIDGE,DRIVE,,,,,,
,7,SPOUSAL/COHABITANT ABUSE WITH SERIOUS INJURY,2200  PRIMROSE AVENUE,2200, PRIMROSE AVENUE  ,Vista,CA,92083,2200  PRIMROSE AVENUE,,,PRIMROSE,AVENUE,,,,,,
,7,SHOPLIFTING,700  SHADOWRIDGE DRIVE,700, SHADOWRIDGE DRIVE  ,Vista,CA,92083,700  SHADOWRIDGE DRIVE,,,SHADOWRIDGE,DRIVE,,,,,,
,7,POSSESS CONTROLLED SUBSTANCE,1900  UNIVERSITY DRIVE,1900, UNIVERSITY DRIVE  ,Vista,CA,92083,1900  UNIVERSITY DRIVE,,,UNIVERSITY,DRIVE,,,,,,
,7,VANDALISM ($400 OR MORE),700  SHADOWRIDGE DRIVE,700, SHADOWRIDGE DRIVE  ,Vista,CA,92083,700  SHADOWRIDGE DRIVE,,,SHADOWRIDGE,DRIVE,,,,,,
,7,PETTY THEFT(SHOPLIFT),1800  UNIVERSITY DRIVE,1800, UNIVERSITY DRIVE  ,Vista,CA,92083,1800  UNIVERSITY DRIVE,,,UNIVERSITY,DRIVE,,,,,,
,7,SHOPLIFTING,700  SYCAMORE AVENUE,700, SYCAMORE AVENUE  ,Vista,CA,92083,700  SYCAMORE AVENUE,,,SYCAMORE,AVENUE,,,,,,
,7,COMMERCIAL BURGLARY,400  SYCAMORE AVENUE,400, SYCAMORE AVENUE  ,Vista,CA,92083,400  SYCAMORE AVENUE,,,SYCAMORE,AVENUE,,,,,,
,7,TAKE VEHICLE W/O OWNER'S CONSENT/VEHICLE THEFT,2100  UNIVERSITY DRIVE,2100, UNIVERSITY DRIVE  ,Vista,CA,92083,2100  UNIVERSITY DRIVE,,,UNIVERSITY,DRIVE,,,,,,
,7,VANDALISM ($400 OR MORE),2100  UNIVERSITY DRIVE,2100, UNIVERSITY DRIVE  ,Vista,CA,92083,2100  UNIVERSITY DRIVE,,,UNIVERSITY,DRIVE,,,,,,
,7,SPOUSAL/COHABITANT ABUSE WITH MINOR INJURY,700  SYCAMORE AVENUE,700, SYCAMORE AVENUE  ,Vista,CA,92083,700  SYCAMORE AVENUE,,,SYCAMORE,AVENUE,,,,,,
,7,SHOPLIFTING,1800  UNIVERSITY DRIVE,1800, UNIVERSITY DRIVE  ,Vista,CA,92083,1800  UNIVERSITY DRIVE,,,UNIVERSITY,DRIVE,,,,,,
,7,PETTY THEFT(SHOPLIFT),1800  UNIVERSITY DRIVE,1800, UNIVERSITY DRIVE  ,Vista,CA,92083,1800  UNIVERSITY DRIVE,,,UNIVERSITY,DRIVE,,,,,,
,7,SHOPLIFTING,700  SYCAMORE AVENUE,700, SYCAMORE AVENUE  ,Vista,CA,92083,700  SYCAMORE AVENUE,,,SYCAMORE,AVENUE,,,,,,
,7,SHOPLIFTING,1800  UNIVERSITY DRIVE,1800, UNIVERSITY DRIVE  ,Vista,CA,92083,1800  UNIVERSITY DRIVE,,,UNIVERSITY,DRIVE,,,,,,
,7,THREATEN CRIME WITH INTENT TO TERRORIZE (M),1800  UNIVERSITY DRIVE,1800, UNIVERSITY DRIVE  ,Vista,CA,92083,1800  UNIVERSITY DRIVE,,,UNIVERSITY,DRIVE,,,,,,
,7,USE/UNDER INFL OF CONTROLLED SUBS (M),600  SYCAMORE AVENUE,600, SYCAMORE AVENUE  ,Vista,CA,92083,600  SYCAMORE AVENUE,,,SYCAMORE,AVENUE,,,,,,
,7,STREET ROBBERY - NO WEAPON,700  SYCAMORE AVENUE,700, SYCAMORE AVENUE  ,Vista,CA,92083,700  SYCAMORE AVENUE,,,SYCAMORE,AVENUE,,,,,,
,7,SHOPLIFTING (M),800  SYCAMORE AVENUE,800, SYCAMORE AVENUE  ,Vista,CA,92083,800  SYCAMORE AVENUE,,,SYCAMORE,AVENUE,,,,,,
,7,POSSESS CONTROLLED SUBSTANCE (M),700  SYCAMORE AVENUE,700, SYCAMORE AVENUE  ,Vista,CA,92083,700  SYCAMORE AVENUE,,,SYCAMORE,AVENUE,,,,,,
,7,BATTERY ON PERSON (M),200  EL VALLE OPULENTO,200, EL VALLE OPULENTO ,Vista,CA,92083,200  EL VALLE OPULENTO,,,EL,VALLE,OPULENTO,,,,,
,7,PETTY THEFT(Shoplift) (M),700  SYCAMORE AVENUE,700, SYCAMORE AVENUE  ,Vista,CA,92083,700  SYCAMORE AVENUE,,,SYCAMORE,AVENUE,,,,,,
,7,DISORD CONDUCT:ALC (M),2100  UNIVERSITY DRIVE,2100, UNIVERSITY DRIVE  ,Vista,CA,92083,2100  UNIVERSITY DRIVE,,,UNIVERSITY,DRIVE,,,,,,
,7,MANUFACTURE/SALE/POSSESS/ETC METAL KNUCKLES (F),600  SYCAMORE AVENUE,600, SYCAMORE AVENUE  ,Vista,CA,92083,600  SYCAMORE AVENUE,,,SYCAMORE,AVENUE,,,,,,
,7,SHOPLIFTING (M),1700  UNIVERSITY DRIVE,1700, UNIVERSITY DRIVE  ,Vista,CA,92083,1700  UNIVERSITY DRIVE,,,UNIVERSITY,DRIVE,,,,,,
,7,SHOPLIFTING (M),1700  UNIVERSITY DRIVE,1700, UNIVERSITY DRIVE  ,Vista,CA,92083,1700  UNIVERSITY DRIVE,,,UNIVERSITY,DRIVE,,,,,,
,7,POSS NARCOTIC CONTROLLED SUBS (M),1900  UNIVERSITY DRIVE,1900, UNIVERSITY DRIVE  ,Vista,CA,92083,1900  UNIVERSITY DRIVE,,,UNIVERSITY,DRIVE,,,,,,
,7,SHOPLIFTING (M),1800  UNIVERSITY DRIVE,1800, UNIVERSITY DRIVE  ,Vista,CA,92083,1800  UNIVERSITY DRIVE,,,UNIVERSITY,DRIVE,,,,,,
,7,RESIDENTIAL ROBBERY - NO WEAPON,500  PLUMOSA AVENUE,500, PLUMOSA AVENUE  ,Vista,CA,92083,500  PLUMOSA AVENUE,,,PLUMOSA,AVENUE,,,,,,
,7,SHOPLIFTING (M),1700  UNIVERSITY DRIVE,1700, UNIVERSITY DRIVE  ,Vista,CA,92083,1700  UNIVERSITY DRIVE,,,UNIVERSITY,DRIVE,,,,,,
,7,TAKE VEHICLE W/O OWNER'S CONSENT/VEHICLE THEFT (F),100  EL VALLE OPULENTO,100, EL VALLE OPULENTO ,Vista,CA,92083,100  EL VALLE OPULENTO,,,EL,VALLE,OPULENTO,,,,,
,7,POSSESS CONTROLLED SUBSTANCE (M),2100  UNIVERSITY DRIVE,2100, UNIVERSITY DRIVE  ,Vista,CA,92083,2100  UNIVERSITY DRIVE,,,UNIVERSITY,DRIVE,,,,,,
,7,VANDALISM ($400 OR MORE) (F),700  SYCAMORE AVENUE,700, SYCAMORE AVENUE  ,Vista,CA,92083,700  SYCAMORE AVENUE,,,SYCAMORE,AVENUE,,,,,,
,7,CARRY SWITCHBLADE KNIFE ON PERSON (M),600  SYCAMORE AVENUE,600, SYCAMORE AVENUE  ,Vista,CA,92083,600  SYCAMORE AVENUE,,,SYCAMORE,AVENUE,,,,,,
,7,POSSESS CONTROLLED SUBSTANCE (M),700  SYCAMORE AVENUE,700, SYCAMORE AVENUE  ,Vista,CA,92083,700  SYCAMORE AVENUE,,,SYCAMORE,AVENUE,,,,,,
,7,DUI ALCOHOL (M),700  SHADOWRIDGE DRIVE,700, SHADOWRIDGE DRIVE  ,Vista,CA,92083,700  SHADOWRIDGE DRIVE,,,SHADOWRIDGE,DRIVE,,,,,,
,7,DUI ALCOHOL (M),700  SHADOWRIDGE DRIVE,700, SHADOWRIDGE DRIVE  ,Vista,CA,92083,700  SHADOWRIDGE DRIVE,,,SHADOWRIDGE,DRIVE,,,,,,
,7,POSSESS CONTROLLED SUBSTANCE (M),600  SYCAMORE AVENUE,600, SYCAMORE AVENUE  ,Vista,CA,92083,600  SYCAMORE AVENUE,,,SYCAMORE,AVENUE,,,,,,
,7,POSSESS CONTROLLED SUBSTANCE (M),2100  UNIVERSITY DRIVE,2100, UNIVERSITY DRIVE  ,Vista,CA,92083,2100  UNIVERSITY DRIVE,,,UNIVERSITY,DRIVE,,,,,,
,7,SHOPLIFTING (M),1800  UNIVERSITY DRIVE,1800, UNIVERSITY DRIVE  ,Vista,CA,92083,1800  UNIVERSITY DRIVE,,,UNIVERSITY,DRIVE,,,,,,
,7,SHOPLIFTING (M),1700  UNIVERSITY DRIVE,1700, UNIVERSITY DRIVE  ,Vista,CA,92083,1700  UNIVERSITY DRIVE,,,UNIVERSITY,DRIVE,,,,,,
,7,POSSESS MARIJUANA 1 OZ OR LESS WHILE DRIVING (I),1900  UNIVERSITY DRIVE,1900, UNIVERSITY DRIVE  ,Vista,CA,92083,1900  UNIVERSITY DRIVE,,,UNIVERSITY,DRIVE,,,,,,
,7,SHOPLIFTING (M),700  SYCAMORE AVENUE,700, SYCAMORE AVENUE  ,Vista,CA,92083,700  SYCAMORE AVENUE,,,SYCAMORE,AVENUE,,,,,,
,7,VEHICLE BREAK-IN/THEFT,300  SYCAMORE AVENUE,300, SYCAMORE AVENUE  ,Vista,CA,92083,300  SYCAMORE AVENUE,,,SYCAMORE,AVENUE,,,,,,
,7,SHOPLIFTING (M),1800  UNIVERSITY DRIVE,1800, UNIVERSITY DRIVE  ,Vista,CA,92083,1800  UNIVERSITY DRIVE,,,UNIVERSITY,DRIVE,,,,,,
,7,DUI ALCOHOL (M),600  SYCAMORE AVENUE,600, SYCAMORE AVENUE  ,Vista,CA,92083,600  SYCAMORE AVENUE,,,SYCAMORE,AVENUE,,,,,,
,7,COMMERCIAL BURGLARY,2000  THIBODO ROAD,2000, THIBODO ROAD  ,Vista,CA,92083,2000  THIBODO ROAD,,,THIBODO,ROAD,,,,,,
,7,SHOPLIFTING (M),1700  UNIVERSITY DRIVE,1700, UNIVERSITY DRIVE  ,Vista,CA,92083,1700  UNIVERSITY DRIVE,,,UNIVERSITY,DRIVE,,,,,,
,7,VEHICLE BREAK-IN/THEFT,1900  THIBODO ROAD,1900, THIBODO ROAD  ,Vista,CA,92083,1900  THIBODO ROAD,,,THIBODO,ROAD,,,,,,
,7,SHOPLIFTING (M),1800  UNIVERSITY DRIVE,1800, UNIVERSITY DRIVE  ,Vista,CA,92083,1800  UNIVERSITY DRIVE,,,UNIVERSITY,DRIVE,,,,,,
,7,PETTY THEFT(Shoplift) (M),700  SYCAMORE AVENUE,700, SYCAMORE AVENUE  ,Vista,CA,92083,700  SYCAMORE AVENUE,,,SYCAMORE,AVENUE,,,,,,
,7,POSS NARCOTIC CONTROLLED SUBS (M),1800  UNIVERSITY DRIVE,1800, UNIVERSITY DRIVE  ,Vista,CA,92083,1800  UNIVERSITY DRIVE,,,UNIVERSITY,DRIVE,,,,,,
,7,POSS CONTROLLED SUBS PARAPHERNALIA (M),1800  UNIVERSITY DRIVE,1800, UNIVERSITY DRIVE  ,Vista,CA,92083,1800  UNIVERSITY DRIVE,,,UNIVERSITY,DRIVE,,,,,,
,7,VANDALISM [$400 OR LESS] (M),1800  MANZANITA COURT,1800, MANZANITA COURT  ,Vista,CA,92083,1800  MANZANITA COURT,,,MANZANITA,COURT,,,,,,
,7,GRAND THEFT (Shoplifting) (F),1700  UNIVERSITY DRIVE,1700, UNIVERSITY DRIVE  ,Vista,CA,92083,1700  UNIVERSITY DRIVE,,,UNIVERSITY,DRIVE,,,,,,
,7,VEHICLE BREAK-IN/THEFT,2100  UNIVERSITY DRIVE,2100, UNIVERSITY DRIVE  ,Vista,CA,92083,2100  UNIVERSITY DRIVE,,,UNIVERSITY,DRIVE,,,,,,
,7,BATTERY ON PERSON (M),600  SYCAMORE AVENUE,600, SYCAMORE AVENUE  ,Vista,CA,92083,600  SYCAMORE AVENUE,,,SYCAMORE,AVENUE,,,,,,
,7,DISORDERLY CONDUCT:INTOX DRUG WITH ALCOHOL (M),400  PLUMOSA AVENUE,400, PLUMOSA AVENUE  ,Vista,CA,92083,400  PLUMOSA AVENUE,,,PLUMOSA,AVENUE,,,,,,
,7,USE/UNDER INFL OF CONTROLLED SUBS (M),400  PLUMOSA AVENUE,400, PLUMOSA AVENUE  ,Vista,CA,92083,400  PLUMOSA AVENUE,,,PLUMOSA,AVENUE,,,,,,
,7,FELON/ADDICT/POSSESS/ETC FIREARM (F),500  PLUMOSA AVENUE,500, PLUMOSA AVENUE  ,Vista,CA,92083,500  PLUMOSA AVENUE,,,PLUMOSA,AVENUE,,,,,,
,7,SHOPLIFTING (M),1800  UNIVERSITY DRIVE,1800, UNIVERSITY DRIVE  ,Vista,CA,92083,1800  UNIVERSITY DRIVE,,,UNIVERSITY,DRIVE,,,,,,
,7,POSS NARCOTIC CONTROLLED SUBS (M),600  SYCAMORE AVENUE,600, SYCAMORE AVENUE  ,Vista,CA,92083,600  SYCAMORE AVENUE,,,SYCAMORE,AVENUE,,,,,,
,7,POSS CONTROLLED SUBS PARAPHERNALIA (M),600  SYCAMORE AVENUE,600, SYCAMORE AVENUE  ,Vista,CA,92083,600  SYCAMORE AVENUE,,,SYCAMORE,AVENUE,,,,,,
,7,USE/UNDER INFL OF CONTROLLED SUBS (M),700  ARBOR GLEN LANE,700, ARBOR GLEN LANE ,Vista,CA,92083,700  ARBOR GLEN LANE,,,ARBOR,GLEN,LANE,,,,,
,7,DUI ALCOHOL (M),600  SYCAMORE AVENUE,600, SYCAMORE AVENUE  ,Vista,CA,92083,600  SYCAMORE AVENUE,,,SYCAMORE,AVENUE,,,,,,
,7,SHOPLIFTING (M),700  SYCAMORE AVENUE,700, SYCAMORE AVENUE  ,Vista,CA,92083,700  SYCAMORE AVENUE,,,SYCAMORE,AVENUE,,,,,,
,7,POSSESS SWITCHBLADE IN VEHICLE (M),2100  INDUSTRIAL COURT,2100, INDUSTRIAL COURT  ,Vista,CA,92083,2100  INDUSTRIAL COURT,,,INDUSTRIAL,COURT,,,,,,
,7,POSSESS CONTROLLED SUBSTANCE (M),2100  INDUSTRIAL COURT,2100, INDUSTRIAL COURT  ,Vista,CA,92083,2100  INDUSTRIAL COURT,,,INDUSTRIAL,COURT,,,,,,
,7,COMMERCIAL ROBBERY - NO WEAPON,1800  UNIVERSITY DRIVE,1800, UNIVERSITY DRIVE  ,Vista,CA,92083,1800  UNIVERSITY DRIVE,,,UNIVERSITY,DRIVE,,,,,,
,7,CAUSE HARM/DEATH OF ELDER /DEPENDENT ADULT (F),100  WOODLAND DRIVE,100, WOODLAND DRIVE  ,Vista,CA,92083,100  WOODLAND DRIVE,,,WOODLAND,DRIVE,,,,,,
,7,USE/UNDER INFL OF CONTROLLED SUBS (M),1800  UNIVERSITY DRIVE,1800, UNIVERSITY DRIVE  ,Vista,CA,92083,1800  UNIVERSITY DRIVE,,,UNIVERSITY,DRIVE,,,,,,
,7,SHOPLIFTING (M),1800  UNIVERSITY DRIVE,1800, UNIVERSITY DRIVE  ,Vista,CA,92083,1800  UNIVERSITY DRIVE,,,UNIVERSITY,DRIVE,,,,,,
,7,SHOPLIFTING (M),700  SYCAMORE AVENUE,700, SYCAMORE AVENUE  ,Vista,CA,92083,700  SYCAMORE AVENUE,,,SYCAMORE,AVENUE,,,,,,
,7,SHOPLIFTING (M),1800  UNIVERSITY DRIVE,1800, UNIVERSITY DRIVE  ,Vista,CA,92083,1800  UNIVERSITY DRIVE,,,UNIVERSITY,DRIVE,,,,,,
,7,PETTY THEFT(Shoplift) (M),700  SYCAMORE AVENUE,700, SYCAMORE AVENUE  ,Vista,CA,92083,700  SYCAMORE AVENUE,,,SYCAMORE,AVENUE,,,,,,
"3150 Business Park Dr, Vista, CA 92081",7,COMMERCIAL ROBBERY - WEAPON USED,3100  BUSINESS PARK DRIVE,3100, BUSINESS PARK DRIVE ,Vista,CA,92081,3100  BUSINESS PARK DRIVE,,,BUSINESS,PARK,DRIVE,,,,,
,7,SHOPLIFTING,3100  BUSINESS PARK DRIVE,3100, BUSINESS PARK DRIVE ,Vista,CA,92081,3100  BUSINESS PARK DRIVE,,,BUSINESS,PARK,DRIVE,,,,,
,7,GRAND THEFT (SHOPLIFTING),3100  BUSINESS PARK DRIVE,3100, BUSINESS PARK DRIVE ,Vista,CA,92081,3100  BUSINESS PARK DRIVE,,,BUSINESS,PARK,DRIVE,,,,,
,7,POSS CONTROLLED SUBS PARAPHERNALIA,3100  BUSINESS PARK DRIVE,3100, BUSINESS PARK DRIVE ,Vista,CA,92081,3100  BUSINESS PARK DRIVE,,,BUSINESS,PARK,DRIVE,,,,,
,7,POSS CONTROLLED SUBS PARAPHERNALIA,3100  BUSINESS PARK DRIVE,3100, BUSINESS PARK DRIVE ,Vista,CA,92081,3100  BUSINESS PARK DRIVE,,,BUSINESS,PARK,DRIVE,,,,,
,7,PETTY THEFT(SHOPLIFT),3100  BUSINESS PARK DRIVE,3100, BUSINESS PARK DRIVE ,Vista,CA,92081,3100  BUSINESS PARK DRIVE,,,BUSINESS,PARK,DRIVE,,,,,
,7,VEHICLE BREAK-IN/THEFT,1300  POINSETTIA AVENUE,1300, POINSETTIA AVENUE  ,Vista,CA,92081,1300  POINSETTIA AVENUE,,,POINSETTIA,AVENUE,,,,,,
,7,USE/UNDER INFL OF CONTROLLED SUBS (M),1200  KEYSTONE WAY,1200, KEYSTONE WAY  ,Vista,CA,92081,1200  KEYSTONE WAY,,,KEYSTONE,WAY,,,,,,
,7,COMMERCIAL ROBBERY - NO WEAPON,3100  BUSINESS PARK DRIVE,3100, BUSINESS PARK DRIVE ,Vista,CA,92081,3100  BUSINESS PARK DRIVE,,,BUSINESS,PARK,DRIVE,,,,,
,7,POSS CONTROLLED SUBS PARAPHERNALIA (M),1700  BLK SAN MARCOS BOULEVARD,1700, BLK SAN MARCOS BOULEVARD,Vista,CA,92081,1700  BLK SAN MARCOS BOULEVARD,,,BLK,SAN,MARCOS,BOULEVARD,,,,
,7,POSS CONTROLLED SUBS PARAPHERNALIA (M),1700  SAN MARCOS BOULEVARD,1700, SAN MARCOS BOULEVARD ,Vista,CA,92081,1700  SAN MARCOS BOULEVARD,,,SAN,MARCOS,BOULEVARD,,,,,
,7,BATTERY ON PERSON (M),1300  SPECIALTY DRIVE,1300, SPECIALTY DRIVE  ,Vista,CA,92081,1300  SPECIALTY DRIVE,,,SPECIALTY,DRIVE,,,,,,
,7,TAKE VEHICLE W/O OWNER'S CONSENT/VEHICLE THEFT (F),1300  POINSETTIA AVENUE,1300, POINSETTIA AVENUE  ,Vista,CA,92081,1300  POINSETTIA AVENUE,,,POINSETTIA,AVENUE,,,,,,
,7,FRAUD,1200  LIBERTY WAY,1200, LIBERTY WAY  ,Vista,CA,92081,1200  LIBERTY WAY,,,LIBERTY,WAY,,,,,,
"1010 N El Camino Real, Encinitas, CA 92024",8,SHOPLIFTING,1000 N  EL CAMINO REAL,1000,N  EL CAMINO REAL,Encinitas,CA,92024,1000 N  EL CAMINO REAL,,N,,EL,CAMINO,REAL,,,,
,8,COMMERCIAL ROBBERY - NO WEAPON,1000 N  EL CAMINO REAL,1000,N  EL CAMINO REAL,Encinitas,CA,92024,1000 N  EL CAMINO REAL,,N,,EL,CAMINO,REAL,,,,
,8,VEHICLE BREAK-IN/THEFT,300 N  EL CAMINO REAL,300,N  EL CAMINO REAL,Encinitas,CA,92024,300 N  EL CAMINO REAL,,N,,EL,CAMINO,REAL,,,,
,8,DISORD CONDUCT:ALC,1000 N  EL CAMINO REAL,1000,N  EL CAMINO REAL,Encinitas,CA,92024,1000 N  EL CAMINO REAL,,N,,EL,CAMINO,REAL,,,,
,8,SIMPLE BATTERY,1000 N  EL CAMINO REAL,1000,N  EL CAMINO REAL,Encinitas,CA,92024,1000 N  EL CAMINO REAL,,N,,EL,CAMINO,REAL,,,,
,8,DISORDERLY CONDUCT:INTOX DRUG WITH ALCOHOL,1000 N  EL CAMINO REAL,1000,N  EL CAMINO REAL,Encinitas,CA,92024,1000 N  EL CAMINO REAL,,N,,EL,CAMINO,REAL,,,,
,8,PETTY THEFT W/ 2 PRIOR CONVICTIONS,1500  LEUCADIA BOULEVARD,1500, LEUCADIA BOULEVARD  ,Encinitas,CA,92024,1500  LEUCADIA BOULEVARD,,,LEUCADIA,BOULEVARD,,,,,,
,8,PETTY THEFT(SHOPLIFT),1000 N  EL CAMINO REAL,1000,N  EL CAMINO REAL,Encinitas,CA,92024,1000 N  EL CAMINO REAL,,N,,EL,CAMINO,REAL,,,,
,8,PETTY THEFT(SHOPLIFT),1500  LEUCADIA BOULEVARD,1500, LEUCADIA BOULEVARD  ,Encinitas,CA,92024,1500  LEUCADIA BOULEVARD,,,LEUCADIA,BOULEVARD,,,,,,
,8,PETTY THEFT(SHOPLIFT),1000 N  EL CAMINO REAL,1000,N  EL CAMINO REAL,Encinitas,CA,92024,1000 N  EL CAMINO REAL,,N,,EL,CAMINO,REAL,,,,
,8,THEFT,1000 N  EL CAMINO REAL,1000,N  EL CAMINO REAL,Encinitas,CA,92024,1000 N  EL CAMINO REAL,,N,,EL,CAMINO,REAL,,,,
,8,PETTY THEFT(ALL OTHER LARCENY),1000 N  EL CAMINO REAL,1000,N  EL CAMINO REAL,Encinitas,CA,92024,1000 N  EL CAMINO REAL,,N,,EL,CAMINO,REAL,,,,
,8,PETTY THEFT(SHOPLIFT),1000 N  EL CAMINO REAL,1000,N  EL CAMINO REAL,Encinitas,CA,92024,1000 N  EL CAMINO REAL,,N,,EL,CAMINO,REAL,,,,
,8,GRAND THEFT (SHOPLIFTING),1000 N  EL CAMINO REAL,1000,N  EL CAMINO REAL,Encinitas,CA,92024,1000 N  EL CAMINO REAL,,N,,EL,CAMINO,REAL,,,,
,8,PETTY THEFT(SHOPLIFT),1000 N  EL CAMINO REAL,1000,N  EL CAMINO REAL,Encinitas,CA,92024,1000 N  EL CAMINO REAL,,N,,EL,CAMINO,REAL,,,,
,8,SIMPLE BATTERY,1500  LEUCADIA BOULEVARD,1500, LEUCADIA BOULEVARD  ,Encinitas,CA,92024,1500  LEUCADIA BOULEVARD,,,LEUCADIA,BOULEVARD,,,,,,
,8,PETTY THEFT(FROM BUILDING),1000 N  EL CAMINO REAL,1000,N  EL CAMINO REAL,Encinitas,CA,92024,1000 N  EL CAMINO REAL,,N,,EL,CAMINO,REAL,,,,
,8,PETTY THEFT(FROM BUILDING),1000 N  EL CAMINO REAL,1000,N  EL CAMINO REAL,Encinitas,CA,92024,1000 N  EL CAMINO REAL,,N,,EL,CAMINO,REAL,,,,
,8,PETTY THEFT(SHOPLIFT),1000 N  EL CAMINO REAL,1000,N  EL CAMINO REAL,Encinitas,CA,92024,1000 N  EL CAMINO REAL,,N,,EL,CAMINO,REAL,,,,
,8,PETTY THEFT(ALL OTHER LARCENY),1000 N  EL CAMINO REAL,1000,N  EL CAMINO REAL,Encinitas,CA,92024,1000 N  EL CAMINO REAL,,N,,EL,CAMINO,REAL,,,,
,8,GRAND THEFT (SHOPLIFTING),1000 N  EL CAMINO REAL,1000,N  EL CAMINO REAL,Encinitas,CA,92024,1000 N  EL CAMINO REAL,,N,,EL,CAMINO,REAL,,,,
,8,PETTY THEFT(SHOPLIFT),1000 N  EL CAMINO REAL,1000,N  EL CAMINO REAL,Encinitas,CA,92024,1000 N  EL CAMINO REAL,,N,,EL,CAMINO,REAL,,,,
,8,GRAND THEFT (SHOPLIFTING),1000 N  EL CAMINO REAL,1000,N  EL CAMINO REAL,Encinitas,CA,92024,1000 N  EL CAMINO REAL,,N,,EL,CAMINO,REAL,,,,
,8,GRAND THEFT (SHOPLIFTING),1000 N  EL CAMINO REAL,1000,N  EL CAMINO REAL,Encinitas,CA,92024,1000 N  EL CAMINO REAL,,N,,EL,CAMINO,REAL,,,,
,8,PETTY THEFT(SHOPLIFT),1000 N  EL CAMINO REAL,1000,N  EL CAMINO REAL,Encinitas,CA,92024,1000 N  EL CAMINO REAL,,N,,EL,CAMINO,REAL,,,,
,8,SIMPLE BATTERY,700  GARDEN VIEW COURT,700, GARDEN VIEW COURT ,Encinitas,CA,92024,700  GARDEN VIEW COURT,,,GARDEN,VIEW,COURT,,,,,
,8,PETTY THEFT(SHOPLIFT),1000 N  EL CAMINO REAL,1000,N  EL CAMINO REAL,Encinitas,CA,92024,1000 N  EL CAMINO REAL,,N,,EL,CAMINO,REAL,,,,
,8,PETTY THEFT(SHOPLIFT),1000 N  EL CAMINO REAL,1000,N  EL CAMINO REAL,Encinitas,CA,92024,1000 N  EL CAMINO REAL,,N,,EL,CAMINO,REAL,,,,
,8,GRAND THEFT (THEFT FROM BUILDING),1100  GARDEN VIEW ROAD,1100, GARDEN VIEW ROAD ,Encinitas,CA,92024,1100  GARDEN VIEW ROAD,,,GARDEN,VIEW,ROAD,,,,,
,8,BATTERY:SPOUSE/EX SPOUSE/DATE/ETC,1100  GARDEN VIEW ROAD,1100, GARDEN VIEW ROAD ,Encinitas,CA,92024,1100  GARDEN VIEW ROAD,,,GARDEN,VIEW,ROAD,,,,,
,8,COMMERCIAL BURGLARY,1500  LEUCADIA BOULEVARD,1500, LEUCADIA BOULEVARD  ,Encinitas,CA,92024,1500  LEUCADIA BOULEVARD,,,LEUCADIA,BOULEVARD,,,,,,
,8,SHOPLIFTING,1000 N  EL CAMINO REAL,1000,N  EL CAMINO REAL,Encinitas,CA,92024,1000 N  EL CAMINO REAL,,N,,EL,CAMINO,REAL,,,,
,8,VEHICLE BREAK-IN/THEFT,1100  GARDEN VIEW ROAD,1100, GARDEN VIEW ROAD ,Encinitas,CA,92024,1100  GARDEN VIEW ROAD,,,GARDEN,VIEW,ROAD,,,,,
,8,RESIDENTIAL BURGLARY,700  LYNWOOD DRIVE,700, LYNWOOD DRIVE  ,Encinitas,CA,92024,700  LYNWOOD DRIVE,,,LYNWOOD,DRIVE,,,,,,
,8,PETTY THEFT W/ 2 PRIOR CONVICTIONS,1500  LEUCADIA BOULEVARD,1500, LEUCADIA BOULEVARD  ,Encinitas,CA,92024,1500  LEUCADIA BOULEVARD,,,LEUCADIA,BOULEVARD,,,,,,
,8,GRAND THEFT (SHOPLIFTING),1000 N  EL CAMINO REAL,1000,N  EL CAMINO REAL,Encinitas,CA,92024,1000 N  EL CAMINO REAL,,N,,EL,CAMINO,REAL,,,,
,8,DISORD CONDUCT:ALC,1500  LEUCADIA BOULEVARD,1500, LEUCADIA BOULEVARD  ,Encinitas,CA,92024,1500  LEUCADIA BOULEVARD,,,LEUCADIA,BOULEVARD,,,,,,
,8,PETTY THEFT(SHOPLIFT),1000 N  EL CAMINO REAL,1000,N  EL CAMINO REAL,Encinitas,CA,92024,1000 N  EL CAMINO REAL,,N,,EL,CAMINO,REAL,,,,
,8,SHOPLIFTING,1000 N  EL CAMINO REAL,1000,N  EL CAMINO REAL,Encinitas,CA,92024,1000 N  EL CAMINO REAL,,N,,EL,CAMINO,REAL,,,,
,8,SIMPLE BATTERY,400 N  EL CAMINO REAL,400,N  EL CAMINO REAL,Encinitas,CA,92024,400 N  EL CAMINO REAL,,N,,EL,CAMINO,REAL,,,,
,8,SIMPLE BATTERY,1000 N  EL CAMINO REAL,1000,N  EL CAMINO REAL,Encinitas,CA,92024,1000 N  EL CAMINO REAL,,N,,EL,CAMINO,REAL,,,,
,8,PETTY THEFT(SHOPLIFT),1000 N  EL CAMINO REAL,1000,N  EL CAMINO REAL,Encinitas,CA,92024,1000 N  EL CAMINO REAL,,N,,EL,CAMINO,REAL,,,,
,8,DUI ALCOHOL,300 N  EL CAMINO REAL MALL,300,N  EL CAMINO REAL,Encinitas,CA,92024,300 N  EL CAMINO REAL MALL,,N,,EL,CAMINO,REAL,,,MALL,
,8,PETTY THEFT(SHOPLIFT),1000 N  EL CAMINO REAL,1000,N  EL CAMINO REAL,Encinitas,CA,92024,1000 N  EL CAMINO REAL,,N,,EL,CAMINO,REAL,,,,
,8,PETTY THEFT(SHOPLIFT),1000 N  EL CAMINO REAL,1000,N  EL CAMINO REAL,Encinitas,CA,92024,1000 N  EL CAMINO REAL,,N,,EL,CAMINO,REAL,,,,
,8,GRAND THEFT (SHOPLIFTING),1000 N  EL CAMINO REAL,1000,N  EL CAMINO REAL,Encinitas,CA,92024,1000 N  EL CAMINO REAL,,N,,EL,CAMINO,REAL,,,,
,8,VANDALISM ($400 OR MORE),1100  GARDEN VIEW ROAD,1100, GARDEN VIEW ROAD ,Encinitas,CA,92024,1100  GARDEN VIEW ROAD,,,GARDEN,VIEW,ROAD,,,,,
,8,SHOPLIFTING (M),1000 N  EL CAMINO REAL,1000,N  EL CAMINO REAL,Encinitas,CA,92024,1000 N  EL CAMINO REAL,,N,,EL,CAMINO,REAL,,,,
,8,POSSESS CONTROLLED SUBSTANCE (M),1000 N  EL CAMINO REAL,1000,N  EL CAMINO REAL,Encinitas,CA,92024,1000 N  EL CAMINO REAL,,N,,EL,CAMINO,REAL,,,,
,8,POSSESS CONTROLLED SUBSTANCE (M),1000 N  EL CAMINO REAL,1000,N  EL CAMINO REAL,Encinitas,CA,92024,1000 N  EL CAMINO REAL,,N,,EL,CAMINO,REAL,,,,
,8,USE/UNDER INFL OF CONTROLLED SUBS (M),1000 N  EL CAMINO REAL,1000,N  EL CAMINO REAL,Encinitas,CA,92024,1000 N  EL CAMINO REAL,,N,,EL,CAMINO,REAL,,,,
,8,GRAND THEFT (SHOPLIFTING),1000 N  EL CAMINO REAL,1000,N  EL CAMINO REAL,Encinitas,CA,92024,1000 N  EL CAMINO REAL,,N,,EL,CAMINO,REAL,,,,
,8,SHOPLIFTING (M),1000 N  EL CAMINO REAL,1000,N  EL CAMINO REAL,Encinitas,CA,92024,1000 N  EL CAMINO REAL,,N,,EL,CAMINO,REAL,,,,
,8,PETTY THEFT(Shoplift) (M),1000 N  EL CAMINO REAL,1000,N  EL CAMINO REAL,Encinitas,CA,92024,1000 N  EL CAMINO REAL,,N,,EL,CAMINO,REAL,,,,
,8,SHOPLIFTING (M),1000 N  EL CAMINO REAL,1000,N  EL CAMINO REAL,Encinitas,CA,92024,1000 N  EL CAMINO REAL,,N,,EL,CAMINO,REAL,,,,
,8,VANDALISM ($400 OR MORE) (F),1000 N  EL CAMINO REAL,1000,N  EL CAMINO REAL,Encinitas,CA,92024,1000 N  EL CAMINO REAL,,N,,EL,CAMINO,REAL,,,,
,8,SHOPLIFTING (M),1000 N  EL CAMINO REAL,1000,N  EL CAMINO REAL,Encinitas,CA,92024,1000 N  EL CAMINO REAL,,N,,EL,CAMINO,REAL,,,,
,8,SHOPLIFTING (M),1000 N  EL CAMINO REAL,1000,N  EL CAMINO REAL,Encinitas,CA,92024,1000 N  EL CAMINO REAL,,N,,EL,CAMINO,REAL,,,,
,8,PETTY THEFT(All Other Larceny) (M),700  GARDEN VIEW COURT,700, GARDEN VIEW COURT ,Encinitas,CA,92024,700  GARDEN VIEW COURT,,,GARDEN,VIEW,COURT,,,,,
,8,FRAUD,400 N  EL CAMINO REAL STREET,400,N  EL CAMINO REAL,Encinitas,CA,92024,400 N  EL CAMINO REAL STREET,,N,,EL,CAMINO,REAL,,,STREET,
,8,SHOPLIFTING (M),1000 N  EL CAMINO REAL,1000,N  EL CAMINO REAL,Encinitas,CA,92024,1000 N  EL CAMINO REAL,,N,,EL,CAMINO,REAL,,,,
,8,PETTY THEFT(Shoplift) (M),1000 N  EL CAMINO REAL,1000,N  EL CAMINO REAL,Encinitas,CA,92024,1000 N  EL CAMINO REAL,,N,,EL,CAMINO,REAL,,,,
,8,GRAND THEFT:MONEY/LABOR/PROPERTY (F),1500  LEUCADIA BOULEVARD,1500, LEUCADIA BOULEVARD  ,Encinitas,CA,92024,1500  LEUCADIA BOULEVARD,,,LEUCADIA,BOULEVARD,,,,,,
,8,GRAND THEFT:MONEY/LABOR/PROPERTY (F),1000 N  EL CAMINO REAL,1000,N  EL CAMINO REAL,Encinitas,CA,92024,1000 N  EL CAMINO REAL,,N,,EL,CAMINO,REAL,,,,
,8,SHOPLIFTING (M),1000 N  EL CAMINO REAL,1000,N  EL CAMINO REAL,Encinitas,CA,92024,1000 N  EL CAMINO REAL,,N,,EL,CAMINO,REAL,,,,
,8,SHOPLIFTING (M),1000 N  EL CAMINO REAL,1000,N  EL CAMINO REAL,Encinitas,CA,92024,1000 N  EL CAMINO REAL,,N,,EL,CAMINO,REAL,,,,
,8,ASSAULT W/DEADLY WEAPON:NOT F/ARM (F),700  GARDEN VIEW COURT,700, GARDEN VIEW COURT ,Encinitas,CA,92024,700  GARDEN VIEW COURT,,,GARDEN,VIEW,COURT,,,,,
,8,PETTY THEFT(Shoplift) (M),1000 N  EL CAMINO REAL,1000,N  EL CAMINO REAL,Encinitas,CA,92024,1000 N  EL CAMINO REAL,,N,,EL,CAMINO,REAL,,,,
,8,GRAND THEFT (Shoplifting) (F),1000 N  EL CAMINO REAL,1000,N  EL CAMINO REAL,Encinitas,CA,92024,1000 N  EL CAMINO REAL,,N,,EL,CAMINO,REAL,,,,
,8,PETTY THEFT(Shoplift) (M),1000 N  EL CAMINO REAL,1000,N  EL CAMINO REAL,Encinitas,CA,92024,1000 N  EL CAMINO REAL,,N,,EL,CAMINO,REAL,,,,
,8,COMMERCIAL BURGLARY,400 N  EL CAMINO REAL,400,N  EL CAMINO REAL,Encinitas,CA,92024,400 N  EL CAMINO REAL,,N,,EL,CAMINO,REAL,,,,
,8,GRAND THEFT (Shoplifting) (F),1000 N  EL CAMINO REAL,1000,N  EL CAMINO REAL,Encinitas,CA,92024,1000 N  EL CAMINO REAL,,N,,EL,CAMINO,REAL,,,,
,8,GRAND THEFT:MONEY/LABOR/PROPERTY (F),800  JENSEN COURT,800, JENSEN COURT  ,Encinitas,CA,92024,800  JENSEN COURT,,,JENSEN,COURT,,,,,,
,8,GRAND THEFT:MONEY/LABOR/PROPERTY (F),1000 N  EL CAMINO REAL,1000,N  EL CAMINO REAL,Encinitas,CA,92024,1000 N  EL CAMINO REAL,,N,,EL,CAMINO,REAL,,,,
,8,GRAND THEFT (Shoplifting) (F),1000 N  EL CAMINO REAL,1000,N  EL CAMINO REAL,Encinitas,CA,92024,1000 N  EL CAMINO REAL,,N,,EL,CAMINO,REAL,,,,
,8,POSS CONTROLLED SUBS PARAPHERNALIA (M),1000 N  EL CAMINO REAL,1000,N  EL CAMINO REAL,Encinitas,CA,92024,1000 N  EL CAMINO REAL,,N,,EL,CAMINO,REAL,,,,
,8,POSS CONTROLLED SUBS PARAPHERNALIA (M),1000 N  EL CAMINO REAL,1000,N  EL CAMINO REAL,Encinitas,CA,92024,1000 N  EL CAMINO REAL,,N,,EL,CAMINO,REAL,,,,
,8,SHOPLIFTING (M),1000 N  EL CAMINO REAL,1000,N  EL CAMINO REAL,Encinitas,CA,92024,1000 N  EL CAMINO REAL,,N,,EL,CAMINO,REAL,,,,
